<?xml version="1.0" encoding="UTF-8"?>
<gpx version="1.1" creator="Polarsteps-to-GPX" xmlns="http://www.topografix.com/GPX/1/1" xmlns:xsi="http://www.w3.org/2001/XMLSchema-instance" xsi:schemaLocation="http://www.topografix.com/GPX/1/1 http://www.topografix.com/GPX/1/1/gpx.xsd">
  <metadata><name>"Marokko &amp; mehr..."</name></metadata>
  <wpt lat="47.2106239" lon="8.1835949">
    <time>2024-10-16T08:06:27Z</time>
    <name>Gunzwil</name>
  </wpt>
  <wpt lat="46.4647387" lon="6.3596019">
    <time>2024-10-16T11:29:00Z</time>
    <name>Folliérage</name>
  </wpt>
  <wpt lat="46.0272452" lon="6.0959864">
    <time>2024-10-17T09:34:39Z</time>
    <name>Saint-Julien-en-Genevois</name>
  </wpt>
  <wpt lat="45.0161449" lon="4.9603242">
    <time>2024-10-18T07:32:45Z</time>
    <name>Châteauneuf-sur-Isère</name>
  </wpt>
  <wpt lat="44.5166598" lon="4.7802537">
    <time>2024-10-18T10:05:43Z</time>
    <name>Nyons</name>
  </wpt>
  <wpt lat="43.6129552" lon="3.7447885">
    <time>2024-10-18T13:31:22Z</time>
    <name>F. 34570 Murviel les Montpellier</name>
  </wpt>
  <wpt lat="41.0665791" lon="1.0824675">
    <time>2024-10-19T15:00:21Z</time>
    <name>Vilafortuny</name>
  </wpt>
  <wpt lat="41.06676533074695" lon="1.0826195802915974">
    <time>2024-10-20T15:32:54Z</time>
    <name>Vilafortuny</name>
  </wpt>
  <wpt lat="40.49037534276408" lon="0.3604903137046543">
    <time>2024-10-21T15:01:13Z</time>
    <name>Emoción de Libertad</name>
  </wpt>
  <wpt lat="38.0934881" lon="-1.0771432">
    <time>2024-10-22T15:09:00Z</time>
    <name>Granja La Carmela I</name>
  </wpt>
  <wpt lat="38.0934753" lon="-1.0770969">
    <time>2024-10-23T14:52:42Z</time>
    <name>Granja La Carmela II</name>
  </wpt>
  <wpt lat="38.0934757" lon="-1.0771004">
    <time>2024-10-24T10:04:40Z</time>
    <name>Granja La Carmela III</name>
  </wpt>
  <wpt lat="36.83262888991988" lon="-2.4794784996728674">
    <time>2024-10-25T16:29:38Z</time>
    <name>Almeria</name>
  </wpt>
  <wpt lat="35.2687119" lon="-2.929898">
    <time>2024-10-26T20:19:03Z</time>
    <name>Beni Ansar</name>
  </wpt>
  <wpt lat="33.910803" lon="-2.0328799">
    <time>2024-10-27T15:16:33Z</time>
    <name>Jerada</name>
  </wpt>
  <wpt lat="31.8588208" lon="-4.2890488">
    <time>2024-10-28T16:24:05Z</time>
    <name>caïdat de M'daghra Lkeng قيادة مدغرة الخنك</name>
  </wpt>
  <wpt lat="31.1750149" lon="-4.0337921">
    <time>2024-10-29T18:12:46Z</time>
    <name>Rissani</name>
  </wpt>
  <wpt lat="31.09583906451539" lon="-3.9565319408378383">
    <time>2024-10-30T18:36:39Z</time>
    <name>Et-taous ⵟⴰⵡⵙ الطاوس</name>
  </wpt>
  <wpt lat="31.0958738" lon="-3.9565496">
    <time>2024-10-30T20:20:41Z</time>
    <name>Et-taous ⵟⴰⵡⵙ الطاوس</name>
  </wpt>
  <wpt lat="30.994338805121036" lon="-3.8188344281985995">
    <time>2024-10-31T17:44:18Z</time>
    <name>Errachidia</name>
  </wpt>
  <wpt lat="30.7434385" lon="-4.2654221">
    <time>2024-11-02T15:01:38Z</time>
    <name>Errachidia</name>
  </wpt>
  <wpt lat="30.3138484" lon="-5.8303706">
    <time>2024-11-04T06:51:07Z</time>
    <name>Zagora</name>
  </wpt>
  <wpt lat="30.092332113428096" lon="-5.296936809540208">
    <time>2024-11-05T07:41:24Z</time>
    <name>Zagora</name>
  </wpt>
  <wpt lat="30.63105708137265" lon="-4.805559877884628">
    <time>2024-11-05T17:23:19Z</time>
    <name>Sidi Ali ⵙⵉⴷⵉ ⵄⵍⵉ سيدي علي</name>
  </wpt>
  <wpt lat="30.631484865063204" lon="-4.860384123231757">
    <time>2024-11-07T20:37:29Z</time>
    <name>Errachidia</name>
  </wpt>
  <wpt lat="29.9169544" lon="-6.8587082">
    <time>2024-11-09T06:51:37Z</time>
    <name>Tata</name>
  </wpt>
  <wpt lat="31.0400483" lon="-7.1211094">
    <time>2024-11-09T15:58:20Z</time>
    <name>Aït Benhaddou</name>
  </wpt>
  <wpt lat="31.63051659588785" lon="-8.005377791451899">
    <time>2024-11-12T10:54:07Z</time>
    <name>Guéliz ⴳⵉⵍⵉⵣ گليز</name>
  </wpt>
  <wpt lat="31.5265541" lon="-7.9591055">
    <time>2024-11-14T16:48:27Z</time>
    <name>Ourika -Camping</name>
  </wpt>
  <wpt lat="31.526677" lon="-7.9595212">
    <time>2024-11-17T09:21:26Z</time>
    <name>Ourika-Camp </name>
  </wpt>
  <wpt lat="31.7069783" lon="-7.9898561">
    <time>2024-11-17T12:11:23Z</time>
    <name>Le Relais de Marrakesch </name>
  </wpt>
  <wpt lat="31.7072335" lon="-7.9895046">
    <time>2024-11-17T14:14:20Z</time>
    <name>Relais de Marrakesch </name>
  </wpt>
  <wpt lat="31.7072335" lon="-7.9895046">
    <time>2024-11-17T14:53:52Z</time>
    <name>Relais de Camping</name>
  </wpt>
  <wpt lat="31.7072335" lon="-7.9895046">
    <time>2024-11-17T15:34:11Z</time>
    <name>Ouahat Sidi Brahim</name>
  </wpt>
  <wpt lat="31.55402984349723" lon="-9.623675549328471">
    <time>2024-11-19T14:01:35Z</time>
    <name>Essaouira</name>
  </wpt>
  <wpt lat="31.0870655" lon="-9.8179063">
    <time>2024-11-21T14:48:35Z</time>
    <name>Tafedna تافضنا</name>
  </wpt>
  <wpt lat="31.087055770565428" lon="-9.817438281060994">
    <time>2024-11-23T09:22:54Z</time>
    <name>Tafedna تافضنا</name>
  </wpt>
  <wpt lat="29.78591515195238" lon="-9.847287426819133">
    <time>2024-11-25T17:00:33Z</time>
    <name>Camping du Paradis, Aglou</name>
  </wpt>
  <wpt lat="29.7855182" lon="-9.8472802">
    <time>2024-11-27T03:29:16Z</time>
    <name>Mirleft</name>
  </wpt>
  <wpt lat="29.3867717" lon="-10.166762">
    <time>2024-11-27T13:17:19Z</time>
    <name>Sidi Ifni</name>
  </wpt>
  <wpt lat="28.2684474" lon="-10.4790466">
    <time>2024-11-30T14:01:53Z</time>
    <name>Draa Tal</name>
  </wpt>
  <wpt lat="28.3360182686218" lon="-9.901959858124393">
    <time>2024-12-02T10:03:58Z</time>
    <name>Assa-Zag</name>
  </wpt>
  <wpt lat="28.3389158" lon="-9.8814282">
    <time>2024-12-02T15:15:00Z</time>
    <name>Assa-Zag</name>
  </wpt>
  <wpt lat="28.43051274861015" lon="-9.569655518853416">
    <time>2024-12-04T18:14:09Z</time>
    <name>Assa-Zag</name>
  </wpt>
  <wpt lat="28.682487" lon="-9.3271216">
    <time>2024-12-05T13:05:54Z</time>
    <name>Assa</name>
  </wpt>
  <wpt lat="29.0590238" lon="-8.8519952">
    <time>2024-12-05T14:34:28Z</time>
    <name>Icht </name>
  </wpt>
  <wpt lat="29.030177402398436" lon="-8.902636015147609">
    <time>2024-12-08T15:04:04Z</time>
    <name>Offroad von Assa - Foum El Hisn</name>
  </wpt>
  <wpt lat="29.721909445329135" lon="-8.984900442382784">
    <time>2024-12-11T12:24:23Z</time>
    <name>Ait Mansour</name>
  </wpt>
  <wpt lat="29.72173859223578" lon="-8.984369248011973">
    <time>2024-12-14T08:00:36Z</time>
    <name>Tafraout</name>
  </wpt>
  <wpt lat="30.0668087" lon="-6.8681046">
    <time>2024-12-14T13:09:32Z</time>
    <name>Rundtour</name>
  </wpt>
  <wpt lat="29.8738519" lon="-6.5483256">
    <time>2024-12-18T13:01:43Z</time>
    <name>Lake Iriki I</name>
  </wpt>
  <wpt lat="29.86921610178962" lon="-6.2327096794344605">
    <time>2024-12-19T11:00:20Z</time>
    <name>Lake Iriki II</name>
  </wpt>
  <wpt lat="29.869340397008315" lon="-6.2327503002223">
    <time>2024-12-19T15:32:42Z</time>
    <name>caïdat de M'Hamid</name>
  </wpt>
  <wpt lat="30.3140115" lon="-5.8304523">
    <time>2024-12-23T11:00:01Z</time>
    <name>Weihnachten unter Palmen</name>
  </wpt>
  <wpt lat="30.3402619" lon="-5.8377767">
    <time>2024-12-25T10:20:48Z</time>
    <name>Frieda braucht "special care"</name>
  </wpt>
  <wpt lat="30.7793446" lon="-5.4183604">
    <time>2024-12-29T13:55:50Z</time>
    <name>Tazarine </name>
  </wpt>
  <wpt lat="30.96247453400896" lon="-3.7201742086229306">
    <time>2025-01-03T19:31:57Z</time>
    <name>Errachidia</name>
  </wpt>
  <wpt lat="31.2996156" lon="-4.4059482">
    <time>2025-01-04T14:22:57Z</time>
    <name>caïdat de Fezna-Arab Sebah قيادة فزنا عرب الصباح</name>
  </wpt>
  <wpt lat="31.5506485" lon="-5.5866504">
    <time>2025-01-05T14:43:36Z</time>
    <name>..von gorge to gorge... </name>
  </wpt>
  <wpt lat="31.5938046" lon="-4.4964573">
    <time>2025-01-07T15:01:03Z</time>
    <name>caïdat de Fezna-Arab Sebah قيادة فزنا عرب الصباح</name>
  </wpt>
  <wpt lat="35.52877376795292" lon="-5.997569614196811">
    <time>2025-01-14T21:00:49Z</time>
    <name>Aquouass Briech أقواس برييش</name>
  </wpt>
  <wpt lat="35.5288592" lon="-5.99753">
    <time>2025-01-15T07:00:40Z</time>
    <name>Aquouass Briech أقواس برييش</name>
  </wpt>
  <wpt lat="35.8817845" lon="-5.5137817">
    <time>2025-01-16T15:41:59Z</time>
    <name>Ksar El Majaz</name>
  </wpt>
  <wpt lat="46.526240165557894" lon="9.188048407016868">
    <time>2025-01-19T20:01:09Z</time>
    <name>..vom Paradies direkt in Schnee...</name>
  </wpt>
  <wpt lat="47.5388521" lon="8.7911011">
    <time>2025-01-21T07:10:15Z</time>
    <name>Rickenbach Sulz</name>
  </wpt>
  <trk>
    <name>"Marokko &amp; mehr..."</name>
    <trkseg>
      <trkpt lat="47.2099505" lon="8.1822198"><time>2024-10-16T08:10:17Z</time></trkpt>
      <trkpt lat="47.2059279" lon="8.185433"><time>2024-10-16T08:12:34Z</time></trkpt>
      <trkpt lat="47.192182117336024" lon="8.156319053690027"><time>2024-10-16T08:15:27Z</time></trkpt>
      <trkpt lat="47.185936977973626" lon="8.146164881432595"><time>2024-10-16T08:16:29Z</time></trkpt>
      <trkpt lat="47.28242749189567" lon="7.934898473322358"><time>2024-10-16T08:37:09Z</time></trkpt>
      <trkpt lat="47.3124248" lon="7.8565569"><time>2024-10-16T08:42:50Z</time></trkpt>
      <trkpt lat="47.310662309180145" lon="7.8307436308879685"><time>2024-10-16T08:49:13Z</time></trkpt>
      <trkpt lat="47.261655091998364" lon="7.707612459227925"><time>2024-10-16T08:58:27Z</time></trkpt>
      <trkpt lat="47.058588252262794" lon="7.5499645146925145"><time>2024-10-16T09:18:58Z</time></trkpt>
      <trkpt lat="46.4647242257863" lon="6.3595978822763355"><time>2024-10-16T11:28:57Z</time></trkpt>
      <trkpt lat="46.4642271" lon="6.3597369"><time>2024-10-16T12:19:31Z</time></trkpt>
      <trkpt lat="46.4671832" lon="6.3662575"><time>2024-10-16T14:34:50Z</time></trkpt>
      <trkpt lat="46.467613" lon="6.3643211"><time>2024-10-16T14:49:41Z</time></trkpt>
      <trkpt lat="46.4645545" lon="6.3599396"><time>2024-10-16T15:02:27Z</time></trkpt>
      <trkpt lat="46.46466286649401" lon="6.359773902250232"><time>2024-10-16T17:50:12Z</time></trkpt>
      <trkpt lat="46.4646484" lon="6.3598971"><time>2024-10-16T19:24:49Z</time></trkpt>
      <trkpt lat="46.4646308" lon="6.3598893"><time>2024-10-17T05:27:45Z</time></trkpt>
      <trkpt lat="46.3317273" lon="6.1547281"><time>2024-10-17T08:52:56Z</time></trkpt>
      <trkpt lat="46.00073633145892" lon="6.12673643667412"><time>2024-10-17T09:36:16Z</time></trkpt>
      <trkpt lat="45.730097534701805" lon="5.9235190757139"><time>2024-10-17T10:03:46Z</time></trkpt>
      <trkpt lat="45.57295901355107" lon="5.791272043183987"><time>2024-10-17T10:30:37Z</time></trkpt>
      <trkpt lat="45.06135885279476" lon="5.195573328153953"><time>2024-10-17T12:37:56Z</time></trkpt>
      <trkpt lat="45.04630136307336" lon="5.159540949763572"><time>2024-10-17T12:40:18Z</time></trkpt>
      <trkpt lat="45.0413130541882" lon="5.146669470441052"><time>2024-10-17T12:41:12Z</time></trkpt>
      <trkpt lat="45.0409371" lon="5.1461371"><time>2024-10-17T12:41:15Z</time></trkpt>
      <trkpt lat="45.01739921793703" lon="4.961995398868697"><time>2024-10-17T13:54:53Z</time></trkpt>
      <trkpt lat="45.0136141" lon="4.9778749"><time>2024-10-17T14:18:52Z</time></trkpt>
      <trkpt lat="45.01622661331491" lon="4.960383468136501"><time>2024-10-17T15:52:19Z</time></trkpt>
      <trkpt lat="43.65993042528624" lon="3.5065317809456547"><time>2024-10-19T08:03:59Z</time></trkpt>
      <trkpt lat="43.184990283575544" lon="3.055134341635458"><time>2024-10-19T08:59:02Z</time></trkpt>
      <trkpt lat="42.28863320828086" lon="2.940529712785765"><time>2024-10-19T10:31:07Z</time></trkpt>
      <trkpt lat="42.2854128" lon="2.9412805"><time>2024-10-19T10:31:26Z</time></trkpt>
      <trkpt lat="41.5267469" lon="2.166511"><time>2024-10-19T12:07:07Z</time></trkpt>
      <trkpt lat="41.328161" lon="1.6530931"><time>2024-10-19T12:57:15Z</time></trkpt>
      <trkpt lat="41.07149088206272" lon="1.0939531164725258"><time>2024-10-19T13:50:58Z</time></trkpt>
      <trkpt lat="41.0666216" lon="1.0825225"><time>2024-10-19T14:58:56Z</time></trkpt>
      <trkpt lat="41.0665612" lon="1.0839444"><time>2024-10-19T16:08:09Z</time></trkpt>
      <trkpt lat="41.0694529" lon="1.0820662"><time>2024-10-19T18:28:40Z</time></trkpt>
      <trkpt lat="41.06669418252216" lon="1.08270295240643"><time>2024-10-19T18:28:51Z</time></trkpt>
      <trkpt lat="41.0667202" lon="1.0825761"><time>2024-10-20T11:11:53Z</time></trkpt>
      <trkpt lat="41.06675529402144" lon="1.0826918165195623"><time>2024-10-20T12:48:49Z</time></trkpt>
      <trkpt lat="41.066734085012875" lon="1.082611946882409"><time>2024-10-20T13:16:29Z</time></trkpt>
      <trkpt lat="41.06676533074695" lon="1.0826195802915974"><time>2024-10-20T13:43:36Z</time></trkpt>
      <trkpt lat="41.0669471" lon="1.0591037"><time>2024-10-20T18:38:50Z</time></trkpt>
      <trkpt lat="41.06667084936649" lon="1.0826367754979036"><time>2024-10-20T21:21:15Z</time></trkpt>
      <trkpt lat="41.06677892516644" lon="1.0827906947454988"><time>2024-10-21T06:49:15Z</time></trkpt>
      <trkpt lat="41.06983533215515" lon="1.0829291977903224"><time>2024-10-21T09:19:26Z</time></trkpt>
      <trkpt lat="40.75234387790865" lon="0.6001123732840972"><time>2024-10-21T10:51:02Z</time></trkpt>
      <trkpt lat="40.746838772651664" lon="0.5945759373888629"><time>2024-10-21T10:51:36Z</time></trkpt>
      <trkpt lat="40.4556437" lon="0.4510841"><time>2024-10-21T11:28:27Z</time></trkpt>
      <trkpt lat="40.46862503845222" lon="0.4647718708349976"><time>2024-10-21T13:17:32Z</time></trkpt>
      <trkpt lat="40.49037534276408" lon="0.3604903137046543"><time>2024-10-21T14:48:27Z</time></trkpt>
      <trkpt lat="40.490539" lon="0.3602954"><time>2024-10-22T07:20:06Z</time></trkpt>
      <trkpt lat="40.49731011863521" lon="0.3430649401436283"><time>2024-10-22T08:09:27Z</time></trkpt>
      <trkpt lat="39.1557718" lon="-0.5282289"><time>2024-10-22T11:21:33Z</time></trkpt>
      <trkpt lat="38.1212312" lon="-1.1058434"><time>2024-10-22T14:12:58Z</time></trkpt>
      <trkpt lat="38.09357469540053" lon="-1.0772498275123878"><time>2024-10-22T14:58:54Z</time></trkpt>
      <trkpt lat="38.030550970241144" lon="-1.1548172298874577"><time>2024-10-25T09:43:56Z</time></trkpt>
      <trkpt lat="38.030551" lon="-1.1548172"><time>2024-10-25T09:43:56Z</time></trkpt>
      <trkpt lat="37.8050933360751" lon="-1.4240308627659706"><time>2024-10-25T10:11:17Z</time></trkpt>
      <trkpt lat="37.2857734" lon="-1.9341118"><time>2024-10-25T11:14:17Z</time></trkpt>
      <trkpt lat="36.9556604" lon="-2.1281026"><time>2024-10-25T12:15:26Z</time></trkpt>
      <trkpt lat="36.8757677" lon="-2.3378443"><time>2024-10-25T12:51:02Z</time></trkpt>
      <trkpt lat="36.83262888991988" lon="-2.4794784996728674"><time>2024-10-25T13:36:03Z</time></trkpt>
      <trkpt lat="36.8382368" lon="-2.474694"><time>2024-10-25T14:38:53Z</time></trkpt>
      <trkpt lat="36.83408318117763" lon="-2.479281479418705"><time>2024-10-25T15:19:01Z</time></trkpt>
      <trkpt lat="36.8325277" lon="-2.4789885"><time>2024-10-25T16:23:11Z</time></trkpt>
      <trkpt lat="36.8378566" lon="-2.4726407"><time>2024-10-25T16:44:58Z</time></trkpt>
      <trkpt lat="36.833143" lon="-2.478962"><time>2024-10-25T17:05:59Z</time></trkpt>
      <trkpt lat="36.83785" lon="-2.4726562"><time>2024-10-25T17:38:42Z</time></trkpt>
      <trkpt lat="36.8325238" lon="-2.4789895"><time>2024-10-25T17:58:10Z</time></trkpt>
      <trkpt lat="36.837852" lon="-2.4726415"><time>2024-10-25T18:13:39Z</time></trkpt>
      <trkpt lat="36.8331543" lon="-2.4790046"><time>2024-10-25T18:22:49Z</time></trkpt>
      <trkpt lat="34.7034256" lon="-1.9141117"><time>2024-10-27T10:32:12Z</time></trkpt>
      <trkpt lat="34.491065007646306" lon="-2.0456868353032482"><time>2024-10-27T12:35:15Z</time></trkpt>
      <trkpt lat="33.9108039" lon="-2.0328288"><time>2024-10-27T15:13:58Z</time></trkpt>
      <trkpt lat="33.91075379407311" lon="-2.0328828783026265"><time>2024-10-28T06:23:34Z</time></trkpt>
      <trkpt lat="32.9639347" lon="-2.0266147"><time>2024-10-28T10:11:21Z</time></trkpt>
      <trkpt lat="32.8758227" lon="-2.0568921"><time>2024-10-28T10:25:43Z</time></trkpt>
      <trkpt lat="32.45087804851245" lon="-2.097626002852905"><time>2024-10-28T11:27:16Z</time></trkpt>
      <trkpt lat="32.0509691" lon="-2.966522"><time>2024-10-28T13:19:13Z</time></trkpt>
      <trkpt lat="31.8588208" lon="-4.2890488"><time>2024-10-28T16:13:48Z</time></trkpt>
      <trkpt lat="31.858383" lon="-4.2957708"><time>2024-10-28T16:54:22Z</time></trkpt>
      <trkpt lat="31.8588421" lon="-4.2890589"><time>2024-10-28T17:11:57Z</time></trkpt>
      <trkpt lat="31.575281478850002" lon="-4.1927138383102225"><time>2024-10-29T08:59:40Z</time></trkpt>
      <trkpt lat="31.4430401" lon="-4.2298397"><time>2024-10-29T09:17:24Z</time></trkpt>
      <trkpt lat="31.4409359" lon="-4.2309225"><time>2024-10-29T11:28:20Z</time></trkpt>
      <trkpt lat="31.226374280697375" lon="-4.123476805871164"><time>2024-10-29T14:04:50Z</time></trkpt>
      <trkpt lat="31.1750149" lon="-4.0337921"><time>2024-10-29T18:12:23Z</time></trkpt>
      <trkpt lat="31.179584272388066" lon="-4.032539227874476"><time>2024-10-30T08:31:24Z</time></trkpt>
      <trkpt lat="31.09419535523331" lon="-3.949666883897401"><time>2024-10-30T15:53:07Z</time></trkpt>
      <trkpt lat="31.09583906451539" lon="-3.9565319408378383"><time>2024-10-30T18:33:28Z</time></trkpt>
      <trkpt lat="31.0929504" lon="-3.9530436"><time>2024-10-30T20:27:26Z</time></trkpt>
      <trkpt lat="31.095783942444108" lon="-3.956411026056039"><time>2024-10-30T20:38:41Z</time></trkpt>
      <trkpt lat="31.0929519" lon="-3.9530346"><time>2024-10-30T22:23:11Z</time></trkpt>
      <trkpt lat="31.095628429808638" lon="-3.9563666155506545"><time>2024-10-31T06:06:20Z</time></trkpt>
      <trkpt lat="31.0929519" lon="-3.9530346"><time>2024-10-31T06:07:00Z</time></trkpt>
      <trkpt lat="31.0957508" lon="-3.9563443"><time>2024-10-31T06:50:27Z</time></trkpt>
      <trkpt lat="30.994338805121036" lon="-3.8188344281985995"><time>2024-10-31T17:06:47Z</time></trkpt>
      <trkpt lat="30.7431865" lon="-4.23845"><time>2024-11-01T11:40:38Z</time></trkpt>
      <trkpt lat="30.7434385" lon="-4.2654221"><time>2024-11-01T12:22:12Z</time></trkpt>
      <trkpt lat="30.746214211640872" lon="-4.267494319216463"><time>2024-11-01T17:17:51Z</time></trkpt>
      <trkpt lat="30.7462142" lon="-4.2674943"><time>2024-11-01T17:17:51Z</time></trkpt>
      <trkpt lat="30.745247042568018" lon="-4.265770995938345"><time>2024-11-02T14:56:59Z</time></trkpt>
      <trkpt lat="30.7455425142274" lon="-4.206891918787643"><time>2024-11-03T08:44:30Z</time></trkpt>
      <trkpt lat="31.2521586" lon="-4.6358874"><time>2024-11-03T11:50:41Z</time></trkpt>
      <trkpt lat="30.945567908163625" lon="-5.303471455673875"><time>2024-11-03T13:15:50Z</time></trkpt>
      <trkpt lat="30.697050906171846" lon="-5.383935821412006"><time>2024-11-03T13:47:38Z</time></trkpt>
      <trkpt lat="30.460889032446445" lon="-5.520928306001977"><time>2024-11-03T14:55:06Z</time></trkpt>
      <trkpt lat="30.3142676" lon="-5.8298363"><time>2024-11-03T15:27:23Z</time></trkpt>
      <trkpt lat="30.354024" lon="-5.8405473"><time>2024-11-04T08:23:28Z</time></trkpt>
      <trkpt lat="30.331108403837128" lon="-5.839128578525963"><time>2024-11-04T08:39:16Z</time></trkpt>
      <trkpt lat="30.092332113428096" lon="-5.296936809540208"><time>2024-11-04T15:23:24Z</time></trkpt>
      <trkpt lat="30.066396730734276" lon="-5.372838078084533"><time>2024-11-05T09:38:06Z</time></trkpt>
      <trkpt lat="30.2534436" lon="-5.6653155"><time>2024-11-05T12:08:26Z</time></trkpt>
      <trkpt lat="30.6311408" lon="-4.8055891"><time>2024-11-05T17:05:19Z</time></trkpt>
      <trkpt lat="30.6317751" lon="-4.8040606"><time>2024-11-07T11:11:16Z</time></trkpt>
      <trkpt lat="30.63156594419503" lon="-4.860312710345327"><time>2024-11-07T14:52:23Z</time></trkpt>
      <trkpt lat="30.0699781" lon="-6.86743"><time>2024-11-08T14:33:54Z</time></trkpt>
      <trkpt lat="29.938892819846995" lon="-6.899525023689453"><time>2024-11-08T15:25:09Z</time></trkpt>
      <trkpt lat="29.91723287210226" lon="-6.858797829163531"><time>2024-11-08T18:19:28Z</time></trkpt>
      <trkpt lat="29.9300381" lon="-6.8882473"><time>2024-11-09T09:02:30Z</time></trkpt>
      <trkpt lat="31.040057" lon="-7.1211451"><time>2024-11-09T15:57:30Z</time></trkpt>
      <trkpt lat="31.0451704" lon="-7.1295082"><time>2024-11-09T22:04:26Z</time></trkpt>
      <trkpt lat="31.03971576889888" lon="-7.12096734450763"><time>2024-11-10T07:04:24Z</time></trkpt>
      <trkpt lat="31.2869991" lon="-7.3810254"><time>2024-11-10T10:30:15Z</time></trkpt>
      <trkpt lat="31.3227256" lon="-7.3773631"><time>2024-11-10T10:46:12Z</time></trkpt>
      <trkpt lat="31.32272563389259" lon="-7.377363125822322"><time>2024-11-10T10:46:13Z</time></trkpt>
      <trkpt lat="31.527531887154417" lon="-7.9596660188692745"><time>2024-11-10T16:03:44Z</time></trkpt>
      <trkpt lat="31.625367328503145" lon="-7.99471150457855"><time>2024-11-11T09:36:26Z</time></trkpt>
      <trkpt lat="31.6253673" lon="-7.9947115"><time>2024-11-11T09:36:26Z</time></trkpt>
      <trkpt lat="31.62379922735445" lon="-7.9962576641059275"><time>2024-11-11T10:20:10Z</time></trkpt>
      <trkpt lat="31.6237992" lon="-7.9962577"><time>2024-11-11T10:20:10Z</time></trkpt>
      <trkpt lat="31.630781510152623" lon="-7.986406575542634"><time>2024-11-11T11:40:03Z</time></trkpt>
      <trkpt lat="31.6307815" lon="-7.9864066"><time>2024-11-11T11:40:03Z</time></trkpt>
      <trkpt lat="31.62432348159309" lon="-7.989419788984379"><time>2024-11-11T13:39:31Z</time></trkpt>
      <trkpt lat="31.624684" lon="-7.992497"><time>2024-11-11T13:57:56Z</time></trkpt>
      <trkpt lat="31.624085030179323" lon="-7.994972282113469"><time>2024-11-11T14:02:35Z</time></trkpt>
      <trkpt lat="31.6237213" lon="-7.9964331"><time>2024-11-11T14:12:27Z</time></trkpt>
      <trkpt lat="31.6236951" lon="-7.9965379"><time>2024-11-11T15:25:01Z</time></trkpt>
      <trkpt lat="31.6237678" lon="-7.9964491"><time>2024-11-11T17:08:50Z</time></trkpt>
      <trkpt lat="31.6413031" lon="-8.0019434"><time>2024-11-12T09:39:55Z</time></trkpt>
      <trkpt lat="31.63051659588785" lon="-8.005377791451899"><time>2024-11-12T10:52:18Z</time></trkpt>
      <trkpt lat="31.6333314" lon="-8.0123716"><time>2024-11-12T12:05:18Z</time></trkpt>
      <trkpt lat="31.62187239897459" lon="-7.981559909776244"><time>2024-11-12T14:55:47Z</time></trkpt>
      <trkpt lat="31.624043351371824" lon="-7.9962083136829145"><time>2024-11-12T16:05:18Z</time></trkpt>
      <trkpt lat="31.626358696360874" lon="-7.988935934486444"><time>2024-11-12T17:27:37Z</time></trkpt>
      <trkpt lat="31.6239374" lon="-7.9960582"><time>2024-11-12T19:45:52Z</time></trkpt>
      <trkpt lat="31.5264342" lon="-7.9590553"><time>2024-11-13T10:49:41Z</time></trkpt>
      <trkpt lat="31.528665" lon="-7.9638671"><time>2024-11-14T13:00:30Z</time></trkpt>
      <trkpt lat="31.5272193" lon="-7.9595163"><time>2024-11-14T13:08:52Z</time></trkpt>
      <trkpt lat="31.5286659" lon="-7.9638665"><time>2024-11-14T13:27:30Z</time></trkpt>
      <trkpt lat="31.5270392" lon="-7.9595599"><time>2024-11-14T14:04:50Z</time></trkpt>
      <trkpt lat="31.52664000299689" lon="-7.958955731898503"><time>2024-11-14T14:30:30Z</time></trkpt>
      <trkpt lat="31.528666" lon="-7.9638663"><time>2024-11-14T15:59:57Z</time></trkpt>
      <trkpt lat="31.526622354742802" lon="-7.958976460360204"><time>2024-11-14T16:10:13Z</time></trkpt>
      <trkpt lat="31.5272319" lon="-7.9604505"><time>2024-11-15T12:21:42Z</time></trkpt>
      <trkpt lat="31.5264755" lon="-7.9589252"><time>2024-11-15T12:42:17Z</time></trkpt>
      <trkpt lat="31.5265034" lon="-7.9589296"><time>2024-11-15T15:10:55Z</time></trkpt>
      <trkpt lat="31.5286581" lon="-7.9638607"><time>2024-11-15T15:49:55Z</time></trkpt>
      <trkpt lat="31.5264953" lon="-7.9590532"><time>2024-11-15T16:32:04Z</time></trkpt>
      <trkpt lat="31.5272933" lon="-7.96058"><time>2024-11-15T16:42:54Z</time></trkpt>
      <trkpt lat="31.5254242" lon="-7.9594084"><time>2024-11-15T16:53:00Z</time></trkpt>
      <trkpt lat="31.5270364" lon="-7.9595612"><time>2024-11-15T18:07:10Z</time></trkpt>
      <trkpt lat="31.5286874" lon="-7.9639614"><time>2024-11-16T09:57:51Z</time></trkpt>
      <trkpt lat="31.52647685131992" lon="-7.959510713186232"><time>2024-11-16T09:59:30Z</time></trkpt>
      <trkpt lat="31.5245273" lon="-7.9563917"><time>2024-11-16T15:59:50Z</time></trkpt>
      <trkpt lat="31.526482" lon="-7.9590011"><time>2024-11-16T16:22:34Z</time></trkpt>
      <trkpt lat="31.5286726" lon="-7.9638532"><time>2024-11-16T16:46:51Z</time></trkpt>
      <trkpt lat="31.5265225" lon="-7.9596389"><time>2024-11-16T17:06:34Z</time></trkpt>
      <trkpt lat="31.5286726" lon="-7.9638532"><time>2024-11-16T18:25:48Z</time></trkpt>
      <trkpt lat="31.5254304" lon="-7.9594212"><time>2024-11-16T18:45:51Z</time></trkpt>
      <trkpt lat="31.5268749" lon="-7.9595914"><time>2024-11-16T18:53:27Z</time></trkpt>
      <trkpt lat="31.525426" lon="-7.9594191"><time>2024-11-17T03:24:24Z</time></trkpt>
      <trkpt lat="31.5268712" lon="-7.9595639"><time>2024-11-17T06:55:12Z</time></trkpt>
      <trkpt lat="31.5286726" lon="-7.9638532"><time>2024-11-17T10:43:21Z</time></trkpt>
      <trkpt lat="31.5364267" lon="-7.9682385"><time>2024-11-17T10:53:22Z</time></trkpt>
      <trkpt lat="31.661749996602648" lon="-8.014762483483114"><time>2024-11-17T11:22:39Z</time></trkpt>
      <trkpt lat="31.7069783" lon="-7.9898561"><time>2024-11-17T12:08:30Z</time></trkpt>
      <trkpt lat="31.6405161" lon="-8.0015799"><time>2024-11-18T08:34:21Z</time></trkpt>
      <trkpt lat="31.5938616" lon="-7.9860622"><time>2024-11-18T08:58:16Z</time></trkpt>
      <trkpt lat="31.6333436" lon="-8.0123058"><time>2024-11-18T09:04:42Z</time></trkpt>
      <trkpt lat="31.6766489" lon="-8.0488923"><time>2024-11-18T12:54:03Z</time></trkpt>
      <trkpt lat="31.6782632" lon="-8.0483842"><time>2024-11-18T13:04:04Z</time></trkpt>
      <trkpt lat="31.7067459" lon="-7.9893031"><time>2024-11-18T15:21:12Z</time></trkpt>
      <trkpt lat="31.68803484716409" lon="-8.027554986626546"><time>2024-11-19T10:13:26Z</time></trkpt>
      <trkpt lat="31.6782687" lon="-8.0483762"><time>2024-11-19T10:23:19Z</time></trkpt>
      <trkpt lat="31.6808734" lon="-8.0507193"><time>2024-11-19T10:35:24Z</time></trkpt>
      <trkpt lat="31.59400237285432" lon="-8.423124299311604"><time>2024-11-19T11:22:30Z</time></trkpt>
      <trkpt lat="31.593144978625624" lon="-8.427238438400861"><time>2024-11-19T11:22:49Z</time></trkpt>
      <trkpt lat="31.5583018" lon="-8.8609217"><time>2024-11-19T12:01:34Z</time></trkpt>
      <trkpt lat="31.558940693764193" lon="-8.866241675006089"><time>2024-11-19T12:01:56Z</time></trkpt>
      <trkpt lat="31.5769858" lon="-8.9843046"><time>2024-11-19T12:11:04Z</time></trkpt>
      <trkpt lat="31.590745" lon="-9.1064849"><time>2024-11-19T12:24:39Z</time></trkpt>
      <trkpt lat="31.591917607318184" lon="-9.117656250962291"><time>2024-11-19T12:25:32Z</time></trkpt>
      <trkpt lat="31.5477566" lon="-9.3548528"><time>2024-11-19T12:45:25Z</time></trkpt>
      <trkpt lat="31.5279397613645" lon="-9.438005657341504"><time>2024-11-19T12:53:36Z</time></trkpt>
      <trkpt lat="31.55402984349723" lon="-9.623675549328471"><time>2024-11-19T13:58:16Z</time></trkpt>
      <trkpt lat="31.5155171" lon="-9.7683186"><time>2024-11-20T10:35:39Z</time></trkpt>
      <trkpt lat="31.511636608952575" lon="-9.773021703602948"><time>2024-11-20T11:21:07Z</time></trkpt>
      <trkpt lat="31.509922806527424" lon="-9.77363852471965"><time>2024-11-20T11:59:31Z</time></trkpt>
      <trkpt lat="31.511800368712667" lon="-9.770726556848372"><time>2024-11-20T12:21:53Z</time></trkpt>
      <trkpt lat="31.5153919" lon="-9.7680598"><time>2024-11-20T13:23:17Z</time></trkpt>
      <trkpt lat="31.5534431" lon="-9.624806"><time>2024-11-20T14:49:40Z</time></trkpt>
      <trkpt lat="31.3801236" lon="-9.7122332"><time>2024-11-21T12:49:13Z</time></trkpt>
      <trkpt lat="31.5136552" lon="-9.7724516"><time>2024-11-21T14:38:34Z</time></trkpt>
      <trkpt lat="31.0870655" lon="-9.8179063"><time>2024-11-21T14:48:12Z</time></trkpt>
      <trkpt lat="31.0870666" lon="-9.8174299"><time>2024-11-22T07:45:48Z</time></trkpt>
      <trkpt lat="31.0870223" lon="-9.817397"><time>2024-11-23T03:08:03Z</time></trkpt>
      <trkpt lat="31.5145675" lon="-9.7699331"><time>2024-11-25T11:06:02Z</time></trkpt>
      <trkpt lat="30.999875683086778" lon="-9.680553528641358"><time>2024-11-25T11:19:16Z</time></trkpt>
      <trkpt lat="30.9998757" lon="-9.6805535"><time>2024-11-25T11:19:16Z</time></trkpt>
      <trkpt lat="30.088565162757263" lon="-9.555178887260729"><time>2024-11-25T14:23:26Z</time></trkpt>
      <trkpt lat="29.7866195" lon="-9.6608077"><time>2024-11-25T14:54:57Z</time></trkpt>
      <trkpt lat="29.7405235" lon="-9.692346"><time>2024-11-25T15:00:31Z</time></trkpt>
      <trkpt lat="29.803705871928226" lon="-9.829561424326132"><time>2024-11-25T15:26:04Z</time></trkpt>
      <trkpt lat="29.78591515195238" lon="-9.847287426819133"><time>2024-11-25T16:03:22Z</time></trkpt>
      <trkpt lat="29.7855182" lon="-9.8472802"><time>2024-11-27T03:29:16Z</time></trkpt>
      <trkpt lat="29.7835714" lon="-9.8535405"><time>2024-11-27T10:15:52Z</time></trkpt>
      <trkpt lat="29.7524788" lon="-9.8874241"><time>2024-11-27T10:21:43Z</time></trkpt>
      <trkpt lat="29.750489839547708" lon="-9.888613974297108"><time>2024-11-27T10:22:00Z</time></trkpt>
      <trkpt lat="29.7183244" lon="-9.9199919"><time>2024-11-27T10:26:40Z</time></trkpt>
      <trkpt lat="29.7125664" lon="-9.9277997"><time>2024-11-27T10:27:29Z</time></trkpt>
      <trkpt lat="29.580516780215312" lon="-10.03531307989573"><time>2024-11-27T10:49:21Z</time></trkpt>
      <trkpt lat="29.38677401471896" lon="-10.166766526637712"><time>2024-11-27T11:34:48Z</time></trkpt>
      <trkpt lat="29.38304155608745" lon="-10.175860195110015"><time>2024-11-27T13:17:18Z</time></trkpt>
      <trkpt lat="29.3433153" lon="-10.1430429"><time>2024-11-29T10:20:19Z</time></trkpt>
      <trkpt lat="29.1798093" lon="-10.0928355"><time>2024-11-29T10:42:09Z</time></trkpt>
      <trkpt lat="28.962263" lon="-10.1100581"><time>2024-11-29T12:04:29Z</time></trkpt>
      <trkpt lat="28.8219595" lon="-10.3046907"><time>2024-11-29T12:24:53Z</time></trkpt>
      <trkpt lat="28.6996134" lon="-10.5540475"><time>2024-11-29T12:48:10Z</time></trkpt>
      <trkpt lat="28.698789803913563" lon="-10.556125568517094"><time>2024-11-29T12:48:20Z</time></trkpt>
      <trkpt lat="28.697697761048996" lon="-10.558063918196005"><time>2024-11-29T12:48:30Z</time></trkpt>
      <trkpt lat="28.4370636" lon="-11.0967831"><time>2024-11-29T14:17:26Z</time></trkpt>
      <trkpt lat="28.3069452" lon="-10.9790244"><time>2024-11-29T16:26:20Z</time></trkpt>
      <trkpt lat="28.3066163" lon="-10.986847"><time>2024-11-30T07:56:53Z</time></trkpt>
      <trkpt lat="28.30679015130348" lon="-10.979268769077592"><time>2024-11-30T08:49:24Z</time></trkpt>
      <trkpt lat="28.149512411448786" lon="-10.88450409522172"><time>2024-11-30T11:14:09Z</time></trkpt>
      <trkpt lat="28.23618712199366" lon="-10.74617960710371"><time>2024-11-30T12:01:49Z</time></trkpt>
      <trkpt lat="28.2361871" lon="-10.7461796"><time>2024-11-30T12:01:49Z</time></trkpt>
      <trkpt lat="28.2684274" lon="-10.4790521"><time>2024-11-30T14:01:45Z</time></trkpt>
      <trkpt lat="28.284913601660996" lon="-10.393535387146255"><time>2024-12-01T10:12:35Z</time></trkpt>
      <trkpt lat="28.326877547972583" lon="-9.979382531667415"><time>2024-12-01T15:21:41Z</time></trkpt>
      <trkpt lat="28.332153" lon="-9.9342427"><time>2024-12-02T09:36:49Z</time></trkpt>
      <trkpt lat="28.3360182686218" lon="-9.901959858124393"><time>2024-12-02T09:57:47Z</time></trkpt>
      <trkpt lat="28.3353885" lon="-9.8917251"><time>2024-12-02T10:04:02Z</time></trkpt>
      <trkpt lat="28.3371338" lon="-9.8808176"><time>2024-12-02T10:13:24Z</time></trkpt>
      <trkpt lat="28.3390677" lon="-9.8817575"><time>2024-12-02T10:53:20Z</time></trkpt>
      <trkpt lat="28.346185" lon="-9.8357047"><time>2024-12-04T09:49:38Z</time></trkpt>
      <trkpt lat="28.3524592" lon="-9.8272581"><time>2024-12-04T10:00:06Z</time></trkpt>
      <trkpt lat="28.4306405" lon="-9.569731"><time>2024-12-04T13:12:09Z</time></trkpt>
      <trkpt lat="28.4455621" lon="-9.5143535"><time>2024-12-05T09:28:36Z</time></trkpt>
      <trkpt lat="28.44544649388148" lon="-9.50817053495242"><time>2024-12-05T09:34:32Z</time></trkpt>
      <trkpt lat="28.4502527" lon="-9.4851605"><time>2024-12-05T09:55:43Z</time></trkpt>
      <trkpt lat="28.4620358" lon="-9.4393789"><time>2024-12-05T10:16:45Z</time></trkpt>
      <trkpt lat="28.4892871" lon="-9.4021537"><time>2024-12-05T10:38:33Z</time></trkpt>
      <trkpt lat="28.602948326483766" lon="-9.420018689661308"><time>2024-12-05T11:29:41Z</time></trkpt>
      <trkpt lat="28.615540827132538" lon="-9.443551915957494"><time>2024-12-05T12:10:17Z</time></trkpt>
      <trkpt lat="28.6122059" lon="-9.4320536"><time>2024-12-05T12:48:44Z</time></trkpt>
      <trkpt lat="28.6497513" lon="-9.3733214"><time>2024-12-05T12:58:14Z</time></trkpt>
      <trkpt lat="28.682487" lon="-9.3271216"><time>2024-12-05T13:02:55Z</time></trkpt>
      <trkpt lat="28.6918613" lon="-9.2877274"><time>2024-12-05T13:05:58Z</time></trkpt>
      <trkpt lat="28.8623422" lon="-9.015367"><time>2024-12-05T13:32:19Z</time></trkpt>
      <trkpt lat="29.0589856" lon="-8.8519352"><time>2024-12-05T14:34:15Z</time></trkpt>
      <trkpt lat="29.0598962" lon="-8.8524078"><time>2024-12-05T18:05:12Z</time></trkpt>
      <trkpt lat="29.0598965" lon="-8.8524082"><time>2024-12-05T18:25:12Z</time></trkpt>
      <trkpt lat="29.058934772885696" lon="-8.851979550387073"><time>2024-12-05T19:08:21Z</time></trkpt>
      <trkpt lat="29.0590328" lon="-8.8517851"><time>2024-12-05T19:36:28Z</time></trkpt>
      <trkpt lat="29.0590876" lon="-8.8518212"><time>2024-12-06T08:20:29Z</time></trkpt>
      <trkpt lat="29.05899" lon="-8.8519479"><time>2024-12-06T17:43:29Z</time></trkpt>
      <trkpt lat="29.0593514" lon="-8.8516281"><time>2024-12-06T19:31:34Z</time></trkpt>
      <trkpt lat="29.0591827" lon="-8.8519062"><time>2024-12-07T09:06:59Z</time></trkpt>
      <trkpt lat="29.0178944" lon="-8.8740504"><time>2024-12-07T09:41:15Z</time></trkpt>
      <trkpt lat="28.7164783" lon="-9.2379579"><time>2024-12-07T10:51:21Z</time></trkpt>
      <trkpt lat="28.784999" lon="-9.2379255"><time>2024-12-07T11:18:05Z</time></trkpt>
      <trkpt lat="28.9154977" lon="-9.1841934"><time>2024-12-07T14:22:06Z</time></trkpt>
      <trkpt lat="29.030177402398436" lon="-8.902636015147609"><time>2024-12-08T13:14:03Z</time></trkpt>
      <trkpt lat="29.0287671" lon="-8.9010399"><time>2024-12-09T08:34:28Z</time></trkpt>
      <trkpt lat="29.0276378" lon="-8.8995991"><time>2024-12-09T09:52:05Z</time></trkpt>
      <trkpt lat="29.0167574" lon="-8.8937666"><time>2024-12-09T10:09:09Z</time></trkpt>
      <trkpt lat="29.0144332" lon="-8.8773811"><time>2024-12-09T10:17:13Z</time></trkpt>
      <trkpt lat="29.01668802321846" lon="-8.874482630466735"><time>2024-12-09T10:17:31Z</time></trkpt>
      <trkpt lat="29.0588699" lon="-8.8520908"><time>2024-12-09T10:37:46Z</time></trkpt>
      <trkpt lat="29.058960014655497" lon="-8.852024195370346"><time>2024-12-09T12:44:09Z</time></trkpt>
      <trkpt lat="29.0589713" lon="-8.8518784"><time>2024-12-09T20:41:50Z</time></trkpt>
      <trkpt lat="29.0589315" lon="-8.8520189"><time>2024-12-09T22:09:47Z</time></trkpt>
      <trkpt lat="29.0588295" lon="-8.8519284"><time>2024-12-10T08:15:37Z</time></trkpt>
      <trkpt lat="29.057410167080132" lon="-8.85578209460905"><time>2024-12-10T10:23:59Z</time></trkpt>
      <trkpt lat="29.0799346" lon="-8.8872089"><time>2024-12-10T10:49:56Z</time></trkpt>
      <trkpt lat="29.15463348660816" lon="-8.956655735820766"><time>2024-12-10T11:05:00Z</time></trkpt>
      <trkpt lat="29.1885802" lon="-8.9755185"><time>2024-12-10T11:15:43Z</time></trkpt>
      <trkpt lat="29.27912287955591" lon="-8.988616517241164"><time>2024-12-10T11:45:35Z</time></trkpt>
      <trkpt lat="29.3346323" lon="-9.0180341"><time>2024-12-10T12:38:49Z</time></trkpt>
      <trkpt lat="29.3568629" lon="-9.0703831"><time>2024-12-10T12:50:58Z</time></trkpt>
      <trkpt lat="29.4085061" lon="-9.0638245"><time>2024-12-10T13:04:20Z</time></trkpt>
      <trkpt lat="29.4995706" lon="-9.0109916"><time>2024-12-10T14:17:35Z</time></trkpt>
      <trkpt lat="29.46439749034792" lon="-8.837277577111884"><time>2024-12-10T15:44:08Z</time></trkpt>
      <trkpt lat="29.4655518" lon="-8.8505959"><time>2024-12-11T08:56:28Z</time></trkpt>
      <trkpt lat="29.4684104" lon="-8.8483798"><time>2024-12-11T08:59:21Z</time></trkpt>
      <trkpt lat="29.59687832764931" lon="-8.907976762050897"><time>2024-12-11T10:34:21Z</time></trkpt>
      <trkpt lat="29.6313403" lon="-8.9438315"><time>2024-12-11T10:50:48Z</time></trkpt>
      <trkpt lat="29.7219101" lon="-8.9849011"><time>2024-12-11T11:33:45Z</time></trkpt>
      <trkpt lat="29.721909445329135" lon="-8.984900442382784"><time>2024-12-11T11:33:45Z</time></trkpt>
      <trkpt lat="29.7221642" lon="-8.9743214"><time>2024-12-11T14:02:00Z</time></trkpt>
      <trkpt lat="29.7217395" lon="-8.9849543"><time>2024-12-11T14:41:58Z</time></trkpt>
      <trkpt lat="29.718872" lon="-8.9793725"><time>2024-12-12T08:04:13Z</time></trkpt>
      <trkpt lat="29.72183116671388" lon="-8.984873558942876"><time>2024-12-12T08:04:24Z</time></trkpt>
      <trkpt lat="29.7220572" lon="-8.9816295"><time>2024-12-12T09:48:03Z</time></trkpt>
      <trkpt lat="29.7241134" lon="-8.9715552"><time>2024-12-12T11:19:14Z</time></trkpt>
      <trkpt lat="29.72295094332626" lon="-8.969436486032455"><time>2024-12-12T11:23:55Z</time></trkpt>
      <trkpt lat="29.7256429" lon="-8.9694525"><time>2024-12-12T12:34:00Z</time></trkpt>
      <trkpt lat="29.7241915" lon="-8.9694139"><time>2024-12-12T12:44:13Z</time></trkpt>
      <trkpt lat="29.7190274" lon="-8.9730155"><time>2024-12-12T13:08:32Z</time></trkpt>
      <trkpt lat="29.7193113" lon="-8.971261"><time>2024-12-12T13:19:44Z</time></trkpt>
      <trkpt lat="29.7204961" lon="-8.9724016"><time>2024-12-12T13:29:55Z</time></trkpt>
      <trkpt lat="29.7215189" lon="-8.9755661"><time>2024-12-12T13:39:16Z</time></trkpt>
      <trkpt lat="29.7218441" lon="-8.9793825"><time>2024-12-12T13:46:01Z</time></trkpt>
      <trkpt lat="29.721893082444787" lon="-8.984915942028687"><time>2024-12-12T14:16:24Z</time></trkpt>
      <trkpt lat="29.7218931" lon="-8.9849159"><time>2024-12-12T14:16:24Z</time></trkpt>
      <trkpt lat="29.7206412" lon="-8.9809548"><time>2024-12-12T14:52:05Z</time></trkpt>
      <trkpt lat="29.722086585991942" lon="-8.98490315693447"><time>2024-12-12T15:57:10Z</time></trkpt>
      <trkpt lat="29.7220866" lon="-8.9849032"><time>2024-12-12T15:57:11Z</time></trkpt>
      <trkpt lat="29.7203997" lon="-8.9792288"><time>2024-12-12T16:15:46Z</time></trkpt>
      <trkpt lat="29.7203997" lon="-8.9792288"><time>2024-12-12T16:38:39Z</time></trkpt>
      <trkpt lat="29.72197455702449" lon="-8.984911183776799"><time>2024-12-12T16:38:46Z</time></trkpt>
      <trkpt lat="29.7206412" lon="-8.9809548"><time>2024-12-12T16:48:39Z</time></trkpt>
      <trkpt lat="29.718122" lon="-8.9741415"><time>2024-12-12T16:58:40Z</time></trkpt>
      <trkpt lat="29.7206412" lon="-8.9809548"><time>2024-12-12T17:03:58Z</time></trkpt>
      <trkpt lat="29.7206412" lon="-8.9809548"><time>2024-12-12T17:12:51Z</time></trkpt>
      <trkpt lat="29.72199521523978" lon="-8.984847034939921"><time>2024-12-12T17:12:58Z</time></trkpt>
      <trkpt lat="29.7219423" lon="-8.9848913"><time>2024-12-12T17:52:15Z</time></trkpt>
      <trkpt lat="29.7206412" lon="-8.9809548"><time>2024-12-12T18:16:07Z</time></trkpt>
      <trkpt lat="29.721891" lon="-8.9848493"><time>2024-12-12T18:57:09Z</time></trkpt>
      <trkpt lat="29.7203997" lon="-8.9792288"><time>2024-12-12T19:07:03Z</time></trkpt>
      <trkpt lat="29.72194672390787" lon="-8.984909330949872"><time>2024-12-12T19:09:01Z</time></trkpt>
      <trkpt lat="29.7206412" lon="-8.9809548"><time>2024-12-12T19:18:59Z</time></trkpt>
      <trkpt lat="29.7203997" lon="-8.9792288"><time>2024-12-12T20:03:08Z</time></trkpt>
      <trkpt lat="29.7218712" lon="-8.9849085"><time>2024-12-12T20:54:40Z</time></trkpt>
      <trkpt lat="29.7188604" lon="-8.9793649"><time>2024-12-12T21:01:56Z</time></trkpt>
      <trkpt lat="29.7206412" lon="-8.9809548"><time>2024-12-12T22:47:55Z</time></trkpt>
      <trkpt lat="29.7206412" lon="-8.9809548"><time>2024-12-13T07:20:29Z</time></trkpt>
      <trkpt lat="29.72183224110231" lon="-8.984882287919055"><time>2024-12-13T07:30:34Z</time></trkpt>
      <trkpt lat="29.7203997" lon="-8.9792288"><time>2024-12-13T07:43:00Z</time></trkpt>
      <trkpt lat="29.7203997" lon="-8.9792288"><time>2024-12-13T08:03:02Z</time></trkpt>
      <trkpt lat="29.7206412" lon="-8.9809548"><time>2024-12-13T08:13:02Z</time></trkpt>
      <trkpt lat="29.7218185" lon="-8.9849291"><time>2024-12-13T08:33:28Z</time></trkpt>
      <trkpt lat="29.7206412" lon="-8.9809548"><time>2024-12-13T08:45:30Z</time></trkpt>
      <trkpt lat="29.721869696721978" lon="-8.984952033894537"><time>2024-12-13T08:54:17Z</time></trkpt>
      <trkpt lat="29.7206412" lon="-8.9809548"><time>2024-12-13T10:17:48Z</time></trkpt>
      <trkpt lat="29.721909850157417" lon="-8.984914029064852"><time>2024-12-13T10:17:51Z</time></trkpt>
      <trkpt lat="29.7203997" lon="-8.9792288"><time>2024-12-13T10:40:02Z</time></trkpt>
      <trkpt lat="29.7206412" lon="-8.9809548"><time>2024-12-13T10:45:37Z</time></trkpt>
      <trkpt lat="29.7203997" lon="-8.9792288"><time>2024-12-13T10:53:03Z</time></trkpt>
      <trkpt lat="29.7212029" lon="-8.9789599"><time>2024-12-13T11:13:07Z</time></trkpt>
      <trkpt lat="29.7184589" lon="-8.9741442"><time>2024-12-13T11:23:08Z</time></trkpt>
      <trkpt lat="29.7190289" lon="-8.9708029"><time>2024-12-13T12:04:46Z</time></trkpt>
      <trkpt lat="29.7202535" lon="-8.9738637"><time>2024-12-13T12:24:46Z</time></trkpt>
      <trkpt lat="29.7221309" lon="-8.976839"><time>2024-12-13T12:34:47Z</time></trkpt>
      <trkpt lat="29.7206412" lon="-8.9809548"><time>2024-12-13T12:45:14Z</time></trkpt>
      <trkpt lat="29.72201837759006" lon="-8.984923371259335"><time>2024-12-13T14:28:57Z</time></trkpt>
      <trkpt lat="29.721886" lon="-8.9848363"><time>2024-12-13T15:00:28Z</time></trkpt>
      <trkpt lat="29.7206412" lon="-8.9809548"><time>2024-12-13T15:10:24Z</time></trkpt>
      <trkpt lat="29.7219265" lon="-8.9848922"><time>2024-12-13T15:38:27Z</time></trkpt>
      <trkpt lat="29.72190040688534" lon="-8.984935395450368"><time>2024-12-13T16:00:23Z</time></trkpt>
      <trkpt lat="29.7206412" lon="-8.9809548"><time>2024-12-13T16:11:05Z</time></trkpt>
      <trkpt lat="29.7206412" lon="-8.9809548"><time>2024-12-13T16:33:28Z</time></trkpt>
      <trkpt lat="29.7206412" lon="-8.9809548"><time>2024-12-13T17:53:30Z</time></trkpt>
      <trkpt lat="29.7219386238331" lon="-8.98486697990696"><time>2024-12-13T18:04:31Z</time></trkpt>
      <trkpt lat="29.7219172" lon="-8.984897"><time>2024-12-13T18:26:00Z</time></trkpt>
      <trkpt lat="29.7219398" lon="-8.9849129"><time>2024-12-13T19:04:39Z</time></trkpt>
      <trkpt lat="29.7203527" lon="-8.9799192"><time>2024-12-13T19:36:07Z</time></trkpt>
      <trkpt lat="29.721896057066594" lon="-8.984885841797217"><time>2024-12-13T19:36:14Z</time></trkpt>
      <trkpt lat="29.7206412" lon="-8.9809548"><time>2024-12-13T20:07:08Z</time></trkpt>
      <trkpt lat="29.722034040504898" lon="-8.984903666463302"><time>2024-12-13T20:07:11Z</time></trkpt>
      <trkpt lat="29.7206412" lon="-8.9809548"><time>2024-12-13T20:37:23Z</time></trkpt>
      <trkpt lat="29.721895299308414" lon="-8.984876550704394"><time>2024-12-13T20:37:33Z</time></trkpt>
      <trkpt lat="29.7219658" lon="-8.9849149"><time>2024-12-13T21:23:53Z</time></trkpt>
      <trkpt lat="29.72184802465405" lon="-8.984906755217029"><time>2024-12-13T22:24:20Z</time></trkpt>
      <trkpt lat="29.7188204" lon="-8.979399"><time>2024-12-13T22:52:06Z</time></trkpt>
      <trkpt lat="29.7188204" lon="-8.979399"><time>2024-12-14T01:10:31Z</time></trkpt>
      <trkpt lat="29.7188111" lon="-8.9793931"><time>2024-12-14T02:20:33Z</time></trkpt>
      <trkpt lat="29.718819" lon="-8.9794014"><time>2024-12-14T03:00:33Z</time></trkpt>
      <trkpt lat="29.7188103" lon="-8.9793973"><time>2024-12-14T03:50:34Z</time></trkpt>
      <trkpt lat="29.7206412" lon="-8.9809548"><time>2024-12-14T06:35:05Z</time></trkpt>
      <trkpt lat="29.7216753" lon="-8.9848472"><time>2024-12-14T06:45:57Z</time></trkpt>
      <trkpt lat="29.7203997" lon="-8.9792288"><time>2024-12-14T06:56:09Z</time></trkpt>
      <trkpt lat="29.72193033112155" lon="-8.984872130421051"><time>2024-12-14T06:57:39Z</time></trkpt>
      <trkpt lat="29.72184253357401" lon="-8.984982106468665"><time>2024-12-14T07:30:37Z</time></trkpt>
      <trkpt lat="29.7206412" lon="-8.9809548"><time>2024-12-14T07:39:33Z</time></trkpt>
      <trkpt lat="29.721881600134704" lon="-8.985025969858292"><time>2024-12-14T08:07:37Z</time></trkpt>
      <trkpt lat="29.7218816" lon="-8.985026"><time>2024-12-14T08:07:39Z</time></trkpt>
      <trkpt lat="29.7205942" lon="-8.9816452"><time>2024-12-14T08:38:41Z</time></trkpt>
      <trkpt lat="29.721866283737903" lon="-8.984930715821175"><time>2024-12-14T08:38:47Z</time></trkpt>
      <trkpt lat="29.7206412" lon="-8.9809548"><time>2024-12-14T09:35:35Z</time></trkpt>
      <trkpt lat="29.7188009" lon="-8.9794036"><time>2024-12-14T09:55:36Z</time></trkpt>
      <trkpt lat="29.7267344" lon="-8.9724801"><time>2024-12-14T10:03:34Z</time></trkpt>
      <trkpt lat="29.732779590527397" lon="-8.9678446207725"><time>2024-12-14T10:23:50Z</time></trkpt>
      <trkpt lat="29.7285435" lon="-8.8426502"><time>2024-12-14T10:48:23Z</time></trkpt>
      <trkpt lat="29.74088264901483" lon="-8.83307443154257"><time>2024-12-14T10:55:04Z</time></trkpt>
      <trkpt lat="29.773575403762617" lon="-8.746938777025221"><time>2024-12-14T11:18:44Z</time></trkpt>
      <trkpt lat="29.77300590610631" lon="-8.674356197548247"><time>2024-12-14T11:40:46Z</time></trkpt>
      <trkpt lat="29.7953132" lon="-8.6148648"><time>2024-12-14T12:03:40Z</time></trkpt>
      <trkpt lat="29.8322961668942" lon="-8.569483121877868"><time>2024-12-14T12:21:40Z</time></trkpt>
      <trkpt lat="29.8306008" lon="-8.5647968"><time>2024-12-14T12:23:11Z</time></trkpt>
      <trkpt lat="29.7442086" lon="-8.5170086"><time>2024-12-14T12:43:51Z</time></trkpt>
      <trkpt lat="29.646543177612752" lon="-8.34846805802933"><time>2024-12-14T13:09:14Z</time></trkpt>
      <trkpt lat="29.7326352" lon="-7.9733811"><time>2024-12-14T13:48:39Z</time></trkpt>
      <trkpt lat="29.7537615" lon="-7.9746287"><time>2024-12-14T14:04:21Z</time></trkpt>
      <trkpt lat="29.9066457" lon="-7.3182175"><time>2024-12-15T10:43:49Z</time></trkpt>
      <trkpt lat="29.905369" lon="-7.316386"><time>2024-12-15T11:04:05Z</time></trkpt>
      <trkpt lat="29.84519358095588" lon="-7.233460025194846"><time>2024-12-15T11:14:36Z</time></trkpt>
      <trkpt lat="30.0275344" lon="-6.9014707"><time>2024-12-15T12:19:58Z</time></trkpt>
      <trkpt lat="29.9260482" lon="-6.8642539"><time>2024-12-15T13:18:51Z</time></trkpt>
      <trkpt lat="30.0668087" lon="-6.8681046"><time>2024-12-15T13:38:55Z</time></trkpt>
      <trkpt lat="30.0668087" lon="-6.8681046"><time>2024-12-15T13:58:57Z</time></trkpt>
      <trkpt lat="29.898729750791762" lon="-6.882323134991869"><time>2024-12-15T14:09:31Z</time></trkpt>
      <trkpt lat="29.8987038" lon="-6.8823333"><time>2024-12-15T14:47:04Z</time></trkpt>
      <trkpt lat="30.0668087" lon="-6.8681046"><time>2024-12-15T16:31:19Z</time></trkpt>
      <trkpt lat="29.8986646788553" lon="-6.88231975360158"><time>2024-12-15T16:31:28Z</time></trkpt>
      <trkpt lat="29.898713107845143" lon="-6.882259247749306"><time>2024-12-15T17:21:34Z</time></trkpt>
      <trkpt lat="29.898699" lon="-6.882468"><time>2024-12-15T18:40:55Z</time></trkpt>
      <trkpt lat="29.8987324" lon="-6.8823136"><time>2024-12-15T21:11:01Z</time></trkpt>
      <trkpt lat="29.89872842950413" lon="-6.882295352145135"><time>2024-12-15T21:38:04Z</time></trkpt>
      <trkpt lat="30.0668087" lon="-6.8681046"><time>2024-12-15T22:29:39Z</time></trkpt>
      <trkpt lat="30.0668087" lon="-6.8681046"><time>2024-12-15T23:49:42Z</time></trkpt>
      <trkpt lat="30.0668087" lon="-6.8681046"><time>2024-12-16T00:39:42Z</time></trkpt>
      <trkpt lat="30.0668087" lon="-6.8681046"><time>2024-12-16T06:22:31Z</time></trkpt>
      <trkpt lat="30.0668087" lon="-6.8681046"><time>2024-12-16T07:24:35Z</time></trkpt>
      <trkpt lat="30.0668087" lon="-6.8681046"><time>2024-12-16T09:19:29Z</time></trkpt>
      <trkpt lat="29.898665924519754" lon="-6.882173282145542"><time>2024-12-16T09:19:33Z</time></trkpt>
      <trkpt lat="29.7950391" lon="-6.8683547"><time>2024-12-16T11:45:33Z</time></trkpt>
      <trkpt lat="29.74197992492981" lon="-6.841906719594406"><time>2024-12-16T13:11:21Z</time></trkpt>
      <trkpt lat="29.742712751257976" lon="-6.595270171688953"><time>2024-12-17T10:06:16Z</time></trkpt>
      <trkpt lat="29.749564066838" lon="-6.592024284186899"><time>2024-12-17T10:13:52Z</time></trkpt>
      <trkpt lat="29.9200014" lon="-6.8329374"><time>2024-12-17T13:37:16Z</time></trkpt>
      <trkpt lat="29.920017998601384" lon="-6.833037178126307"><time>2024-12-17T14:27:06Z</time></trkpt>
      <trkpt lat="29.92001215106383" lon="-6.832937704565541"><time>2024-12-17T14:59:34Z</time></trkpt>
      <trkpt lat="29.9200581" lon="-6.8328969"><time>2024-12-17T20:23:32Z</time></trkpt>
      <trkpt lat="29.9199175" lon="-6.8329656"><time>2024-12-17T21:46:29Z</time></trkpt>
      <trkpt lat="29.919914779305742" lon="-6.832961867423192"><time>2024-12-18T06:47:01Z</time></trkpt>
      <trkpt lat="29.9199265" lon="-6.8328262"><time>2024-12-18T07:28:06Z</time></trkpt>
      <trkpt lat="29.874276421749325" lon="-6.549090459013955"><time>2024-12-18T12:58:42Z</time></trkpt>
      <trkpt lat="29.8733416" lon="-6.5469341"><time>2024-12-18T13:01:45Z</time></trkpt>
      <trkpt lat="29.873253961915513" lon="-6.54691991734309"><time>2024-12-18T13:50:59Z</time></trkpt>
      <trkpt lat="29.8731938" lon="-6.5470016"><time>2024-12-18T19:18:15Z</time></trkpt>
      <trkpt lat="29.87318952539719" lon="-6.547064396595108"><time>2024-12-19T07:44:21Z</time></trkpt>
      <trkpt lat="29.87318952539719" lon="-6.547064396595108"><time>2024-12-19T07:57:21Z</time></trkpt>
      <trkpt lat="29.8731277" lon="-6.5470514"><time>2024-12-19T10:44:13Z</time></trkpt>
      <trkpt lat="29.873206622376905" lon="-6.546928086516617"><time>2024-12-19T11:04:34Z</time></trkpt>
      <trkpt lat="29.8484986" lon="-6.5793133"><time>2024-12-19T11:41:08Z</time></trkpt>
      <trkpt lat="29.85418933101387" lon="-6.580922816225881"><time>2024-12-19T12:06:32Z</time></trkpt>
      <trkpt lat="29.90321352963405" lon="-6.5051906070268615"><time>2024-12-19T12:27:37Z</time></trkpt>
      <trkpt lat="29.887792400503585" lon="-6.246807562854931"><time>2024-12-19T13:44:18Z</time></trkpt>
      <trkpt lat="29.869340397008315" lon="-6.2327503002223"><time>2024-12-19T15:01:53Z</time></trkpt>
      <trkpt lat="29.869223225688163" lon="-6.23264931365994"><time>2024-12-19T17:09:03Z</time></trkpt>
      <trkpt lat="29.86927501642151" lon="-6.232755563897711"><time>2024-12-20T07:12:16Z</time></trkpt>
      <trkpt lat="29.830135474376526" lon="-6.185921945733031"><time>2024-12-20T09:55:17Z</time></trkpt>
      <trkpt lat="29.82026026954358" lon="-6.181768801541974"><time>2024-12-20T10:27:07Z</time></trkpt>
      <trkpt lat="29.8189861" lon="-6.18053"><time>2024-12-20T10:40:50Z</time></trkpt>
      <trkpt lat="29.815446822256842" lon="-6.180849247970315"><time>2024-12-20T15:46:24Z</time></trkpt>
      <trkpt lat="29.81291929371683" lon="-6.178406110422407"><time>2024-12-20T16:13:36Z</time></trkpt>
      <trkpt lat="29.8129193" lon="-6.1784061"><time>2024-12-20T16:13:37Z</time></trkpt>
      <trkpt lat="29.8154594" lon="-6.1798343"><time>2024-12-20T16:25:16Z</time></trkpt>
      <trkpt lat="29.819059" lon="-6.1806005"><time>2024-12-20T17:22:58Z</time></trkpt>
      <trkpt lat="29.819135270655412" lon="-6.180600707657329"><time>2024-12-20T17:37:54Z</time></trkpt>
      <trkpt lat="29.8190565" lon="-6.1805848"><time>2024-12-20T18:04:11Z</time></trkpt>
      <trkpt lat="29.8190757" lon="-6.1806126"><time>2024-12-20T18:29:14Z</time></trkpt>
      <trkpt lat="29.8190858" lon="-6.1805763"><time>2024-12-20T19:59:41Z</time></trkpt>
      <trkpt lat="29.81897966131163" lon="-6.180650243790108"><time>2024-12-21T07:57:11Z</time></trkpt>
      <trkpt lat="29.8190518" lon="-6.1806175"><time>2024-12-21T08:09:31Z</time></trkpt>
      <trkpt lat="29.828689502206593" lon="-6.17393861384142"><time>2024-12-21T09:01:04Z</time></trkpt>
      <trkpt lat="29.82144878585742" lon="-6.153533949515864"><time>2024-12-21T09:30:56Z</time></trkpt>
      <trkpt lat="29.839281671955327" lon="-6.104812159486674"><time>2024-12-21T09:56:46Z</time></trkpt>
      <trkpt lat="29.849818933986526" lon="-6.00359497996553"><time>2024-12-21T10:46:47Z</time></trkpt>
      <trkpt lat="29.848964369430618" lon="-5.9585710971796955"><time>2024-12-21T10:58:21Z</time></trkpt>
      <trkpt lat="29.8285066" lon="-5.7328757"><time>2024-12-21T12:08:59Z</time></trkpt>
      <trkpt lat="29.8211867" lon="-5.720433"><time>2024-12-21T12:28:23Z</time></trkpt>
      <trkpt lat="29.83919886558581" lon="-5.744796398359666"><time>2024-12-21T13:18:05Z</time></trkpt>
      <trkpt lat="29.8391794" lon="-5.7447965"><time>2024-12-21T13:53:08Z</time></trkpt>
      <trkpt lat="29.8392165" lon="-5.7448716"><time>2024-12-21T14:25:27Z</time></trkpt>
      <trkpt lat="29.8391976" lon="-5.7448641"><time>2024-12-21T14:30:46Z</time></trkpt>
      <trkpt lat="29.8392855" lon="-5.7448199"><time>2024-12-21T16:10:50Z</time></trkpt>
      <trkpt lat="29.8392455" lon="-5.7448615"><time>2024-12-21T17:19:12Z</time></trkpt>
      <trkpt lat="29.8393311" lon="-5.7447313"><time>2024-12-21T18:54:49Z</time></trkpt>
      <trkpt lat="29.8391999" lon="-5.7448152"><time>2024-12-21T20:12:05Z</time></trkpt>
      <trkpt lat="29.839195839491893" lon="-5.7448373870293095"><time>2024-12-21T20:28:06Z</time></trkpt>
      <trkpt lat="29.839170749675258" lon="-5.744615805961816"><time>2024-12-21T23:48:19Z</time></trkpt>
      <trkpt lat="29.8391706" lon="-5.7449296"><time>2024-12-22T08:01:14Z</time></trkpt>
      <trkpt lat="29.8391735" lon="-5.7448642"><time>2024-12-22T08:29:51Z</time></trkpt>
      <trkpt lat="29.8265593" lon="-5.716155"><time>2024-12-22T09:58:20Z</time></trkpt>
      <trkpt lat="29.829323" lon="-5.7121413"><time>2024-12-22T10:08:20Z</time></trkpt>
      <trkpt lat="29.85081066141237" lon="-5.614469722813269"><time>2024-12-22T10:35:08Z</time></trkpt>
      <trkpt lat="29.90821065863515" lon="-5.608047422304245"><time>2024-12-22T10:40:36Z</time></trkpt>
      <trkpt lat="30.120123928108615" lon="-5.630821310933111"><time>2024-12-22T11:12:28Z</time></trkpt>
      <trkpt lat="30.1201229" lon="-5.6308207"><time>2024-12-22T11:12:30Z</time></trkpt>
      <trkpt lat="30.3282114" lon="-5.8391643"><time>2024-12-22T12:12:55Z</time></trkpt>
      <trkpt lat="30.3305893" lon="-5.838364"><time>2024-12-22T12:22:55Z</time></trkpt>
      <trkpt lat="30.3143488" lon="-5.8304472"><time>2024-12-22T13:58:37Z</time></trkpt>
      <trkpt lat="30.3141334" lon="-5.8304571"><time>2024-12-22T14:37:11Z</time></trkpt>
      <trkpt lat="30.3402966" lon="-5.8373979"><time>2024-12-23T08:43:22Z</time></trkpt>
      <trkpt lat="30.3389527" lon="-5.8378169"><time>2024-12-23T08:53:31Z</time></trkpt>
      <trkpt lat="30.3418368" lon="-5.839175"><time>2024-12-23T09:36:01Z</time></trkpt>
      <trkpt lat="30.3403263" lon="-5.8370585"><time>2024-12-23T09:45:54Z</time></trkpt>
      <trkpt lat="30.3180722" lon="-5.8289506"><time>2024-12-23T10:50:48Z</time></trkpt>
      <trkpt lat="30.3140254" lon="-5.8304343"><time>2024-12-23T11:00:50Z</time></trkpt>
      <trkpt lat="30.3140687" lon="-5.8303556"><time>2024-12-23T17:20:47Z</time></trkpt>
      <trkpt lat="30.3402619" lon="-5.8377767"><time>2024-12-25T10:20:48Z</time></trkpt>
      <trkpt lat="30.3378949" lon="-5.8376502"><time>2024-12-25T10:51:35Z</time></trkpt>
      <trkpt lat="30.3294484" lon="-5.8379984"><time>2024-12-25T11:01:36Z</time></trkpt>
      <trkpt lat="30.3217224" lon="-5.8405353"><time>2024-12-25T11:11:36Z</time></trkpt>
      <trkpt lat="30.3236194" lon="-5.8381076"><time>2024-12-25T11:21:36Z</time></trkpt>
      <trkpt lat="30.3142857" lon="-5.8298721"><time>2024-12-25T11:31:36Z</time></trkpt>
      <trkpt lat="30.3403037" lon="-5.8376208"><time>2024-12-26T09:31:37Z</time></trkpt>
      <trkpt lat="30.3389695" lon="-5.8368873"><time>2024-12-26T10:03:08Z</time></trkpt>
      <trkpt lat="30.3401825" lon="-5.8378255"><time>2024-12-26T10:17:13Z</time></trkpt>
      <trkpt lat="30.3385798" lon="-5.8375308"><time>2024-12-26T10:29:03Z</time></trkpt>
      <trkpt lat="30.3358959" lon="-5.8374525"><time>2024-12-26T11:29:02Z</time></trkpt>
      <trkpt lat="30.339482215992483" lon="-5.837288272484459"><time>2024-12-26T14:06:18Z</time></trkpt>
      <trkpt lat="30.3322093" lon="-5.8372388"><time>2024-12-26T14:16:15Z</time></trkpt>
      <trkpt lat="30.3245838" lon="-5.8400372"><time>2024-12-26T14:26:16Z</time></trkpt>
      <trkpt lat="30.3199165" lon="-5.8364653"><time>2024-12-26T14:36:18Z</time></trkpt>
      <trkpt lat="30.318023" lon="-5.8291596"><time>2024-12-26T14:46:18Z</time></trkpt>
      <trkpt lat="30.3141761" lon="-5.8303515"><time>2024-12-26T15:02:07Z</time></trkpt>
      <trkpt lat="30.34007315566614" lon="-5.837176764695742"><time>2024-12-27T10:39:39Z</time></trkpt>
      <trkpt lat="30.3312821" lon="-5.8375721"><time>2024-12-27T10:53:40Z</time></trkpt>
      <trkpt lat="30.3294012" lon="-5.8388952"><time>2024-12-27T11:07:32Z</time></trkpt>
      <trkpt lat="30.3351602" lon="-5.8371868"><time>2024-12-27T11:17:33Z</time></trkpt>
      <trkpt lat="30.3375224" lon="-5.8367472"><time>2024-12-27T11:37:14Z</time></trkpt>
      <trkpt lat="30.340293338161473" lon="-5.837472243445595"><time>2024-12-27T11:44:13Z</time></trkpt>
      <trkpt lat="30.3386961" lon="-5.8368991"><time>2024-12-27T12:25:01Z</time></trkpt>
      <trkpt lat="30.340334653438926" lon="-5.837162183774542"><time>2024-12-27T12:27:01Z</time></trkpt>
      <trkpt lat="30.3141446" lon="-5.8304476"><time>2024-12-27T13:29:07Z</time></trkpt>
      <trkpt lat="30.3402272" lon="-5.8375337"><time>2024-12-28T09:37:32Z</time></trkpt>
      <trkpt lat="30.3370418" lon="-5.83764"><time>2024-12-28T09:47:33Z</time></trkpt>
      <trkpt lat="30.3312216" lon="-5.8375903"><time>2024-12-28T10:24:12Z</time></trkpt>
      <trkpt lat="30.3311598" lon="-5.8391681"><time>2024-12-28T10:34:30Z</time></trkpt>
      <trkpt lat="30.33012132911753" lon="-5.837998579183319"><time>2024-12-28T10:37:03Z</time></trkpt>
      <trkpt lat="30.388417060280236" lon="-5.685213419735854"><time>2024-12-28T10:55:51Z</time></trkpt>
      <trkpt lat="30.52731593712744" lon="-5.358263933645064"><time>2024-12-28T11:31:40Z</time></trkpt>
      <trkpt lat="30.58857495667467" lon="-5.349052014438471"><time>2024-12-28T11:51:21Z</time></trkpt>
      <trkpt lat="30.7263898" lon="-5.5271294"><time>2024-12-28T12:39:10Z</time></trkpt>
      <trkpt lat="30.779873502338855" lon="-5.525848587422298"><time>2024-12-28T12:53:11Z</time></trkpt>
      <trkpt lat="30.78079681313202" lon="-5.524283323491129"><time>2024-12-28T12:53:24Z</time></trkpt>
      <trkpt lat="30.7793446" lon="-5.4183604"><time>2024-12-28T13:55:50Z</time></trkpt>
      <trkpt lat="30.779240594146106" lon="-5.418388578528339"><time>2024-12-28T15:19:04Z</time></trkpt>
      <trkpt lat="30.7796684" lon="-5.4180237"><time>2024-12-28T16:51:08Z</time></trkpt>
      <trkpt lat="30.77917172881371" lon="-5.418487364328097"><time>2024-12-29T06:54:04Z</time></trkpt>
      <trkpt lat="30.779179581877827" lon="-5.418526874016079"><time>2024-12-29T07:44:38Z</time></trkpt>
      <trkpt lat="30.779194310358914" lon="-5.418397058383599"><time>2024-12-29T08:28:03Z</time></trkpt>
      <trkpt lat="30.6560669" lon="-5.4746682"><time>2024-12-29T11:20:13Z</time></trkpt>
      <trkpt lat="30.712779827489296" lon="-5.324238112190097"><time>2024-12-29T11:46:09Z</time></trkpt>
      <trkpt lat="30.711561563944695" lon="-5.305181058336636"><time>2024-12-29T12:07:35Z</time></trkpt>
      <trkpt lat="30.6801524" lon="-5.2207159"><time>2024-12-29T13:54:25Z</time></trkpt>
      <trkpt lat="30.680172500825996" lon="-5.220740629754518"><time>2024-12-29T14:51:53Z</time></trkpt>
      <trkpt lat="30.6801742" lon="-5.2208233"><time>2024-12-29T15:10:27Z</time></trkpt>
      <trkpt lat="30.6800485" lon="-5.2207846"><time>2024-12-29T16:15:51Z</time></trkpt>
      <trkpt lat="30.6800959" lon="-5.2207064"><time>2024-12-29T18:50:57Z</time></trkpt>
      <trkpt lat="30.6801274" lon="-5.2207858"><time>2024-12-29T19:23:47Z</time></trkpt>
      <trkpt lat="30.6799823" lon="-5.2208385"><time>2024-12-30T06:31:21Z</time></trkpt>
      <trkpt lat="30.680027295516492" lon="-5.220790374809925"><time>2024-12-30T07:07:42Z</time></trkpt>
      <trkpt lat="30.679988358255507" lon="-5.220815512406393"><time>2024-12-30T07:49:35Z</time></trkpt>
      <trkpt lat="30.680016241856084" lon="-5.220760086424893"><time>2024-12-30T08:27:34Z</time></trkpt>
      <trkpt lat="30.6893112" lon="-5.2147603"><time>2024-12-30T10:07:24Z</time></trkpt>
      <trkpt lat="30.6385668" lon="-5.1008474"><time>2024-12-30T10:50:06Z</time></trkpt>
      <trkpt lat="30.63577699948237" lon="-5.092465018470407"><time>2024-12-30T10:52:15Z</time></trkpt>
      <trkpt lat="30.6239024" lon="-5.0574491"><time>2024-12-30T11:01:38Z</time></trkpt>
      <trkpt lat="30.630618027252805" lon="-4.805103771946602"><time>2024-12-30T12:04:01Z</time></trkpt>
      <trkpt lat="30.6306066" lon="-4.8050424"><time>2024-12-30T12:23:49Z</time></trkpt>
      <trkpt lat="30.6279289" lon="-4.8085859"><time>2024-12-30T14:59:48Z</time></trkpt>
      <trkpt lat="30.628885145663542" lon="-4.807353281712587"><time>2024-12-30T15:30:37Z</time></trkpt>
      <trkpt lat="30.6306418" lon="-4.8050232"><time>2024-12-30T16:13:23Z</time></trkpt>
      <trkpt lat="30.6306403" lon="-4.8051205"><time>2024-12-30T20:21:27Z</time></trkpt>
      <trkpt lat="30.6305617" lon="-4.8051297"><time>2024-12-31T08:10:52Z</time></trkpt>
      <trkpt lat="30.630580334408926" lon="-4.805062292307788"><time>2024-12-31T08:48:15Z</time></trkpt>
      <trkpt lat="30.6290621265053" lon="-4.80643786125613"><time>2024-12-31T09:22:32Z</time></trkpt>
      <trkpt lat="30.6306037" lon="-4.8050361"><time>2024-12-31T10:33:38Z</time></trkpt>
      <trkpt lat="30.64060147522094" lon="-4.782306448717496"><time>2024-12-31T11:21:40Z</time></trkpt>
      <trkpt lat="30.64167666322782" lon="-4.740010832510293"><time>2024-12-31T11:32:15Z</time></trkpt>
      <trkpt lat="30.669004949776337" lon="-4.663546373238695"><time>2024-12-31T12:00:17Z</time></trkpt>
      <trkpt lat="30.6306451" lon="-4.8049801"><time>2024-12-31T13:27:29Z</time></trkpt>
      <trkpt lat="30.6294827" lon="-4.8058895"><time>2024-12-31T13:56:03Z</time></trkpt>
      <trkpt lat="30.6306317" lon="-4.8049963"><time>2024-12-31T14:27:25Z</time></trkpt>
      <trkpt lat="30.630616" lon="-4.8050726"><time>2024-12-31T16:37:40Z</time></trkpt>
      <trkpt lat="30.628595151523157" lon="-4.807557364744863"><time>2024-12-31T16:47:40Z</time></trkpt>
      <trkpt lat="30.630409" lon="-4.8047938"><time>2024-12-31T17:50:26Z</time></trkpt>
      <trkpt lat="30.6305682432387" lon="-4.8050578407737925"><time>2025-01-01T07:32:44Z</time></trkpt>
      <trkpt lat="30.6286494" lon="-4.8074781"><time>2025-01-01T08:11:38Z</time></trkpt>
      <trkpt lat="30.6305662" lon="-4.8050867"><time>2025-01-01T08:41:57Z</time></trkpt>
      <trkpt lat="30.633501803710104" lon="-4.807529252161103"><time>2025-01-01T09:57:08Z</time></trkpt>
      <trkpt lat="30.6335087" lon="-4.8074155"><time>2025-01-01T09:57:09Z</time></trkpt>
      <trkpt lat="30.63690916851587" lon="-4.808249363575848"><time>2025-01-01T09:59:31Z</time></trkpt>
      <trkpt lat="30.63959821744518" lon="-4.789440314450825"><time>2025-01-01T10:06:26Z</time></trkpt>
      <trkpt lat="30.6395687" lon="-4.7894996"><time>2025-01-01T10:06:26Z</time></trkpt>
      <trkpt lat="30.6682578" lon="-4.6858335"><time>2025-01-01T10:34:23Z</time></trkpt>
      <trkpt lat="30.6682589" lon="-4.6858377"><time>2025-01-01T10:59:53Z</time></trkpt>
      <trkpt lat="30.685095428094282" lon="-4.70828441152632"><time>2025-01-01T11:27:57Z</time></trkpt>
      <trkpt lat="30.9490114311074" lon="-4.904912085650509"><time>2025-01-01T12:17:50Z</time></trkpt>
      <trkpt lat="31.09305268401321" lon="-4.876228137996336"><time>2025-01-01T12:41:07Z</time></trkpt>
      <trkpt lat="31.28132" lon="-4.2715614"><time>2025-01-01T14:06:03Z</time></trkpt>
      <trkpt lat="31.142799" lon="-4.0285183"><time>2025-01-01T15:15:55Z</time></trkpt>
      <trkpt lat="31.1915372" lon="-4.0355401"><time>2025-01-01T15:25:55Z</time></trkpt>
      <trkpt lat="31.174859511642918" lon="-4.0333403399061964"><time>2025-01-01T15:29:37Z</time></trkpt>
      <trkpt lat="31.1881139" lon="-4.0307524"><time>2025-01-01T15:43:29Z</time></trkpt>
      <trkpt lat="31.174645506946213" lon="-4.033526395146653"><time>2025-01-01T16:02:39Z</time></trkpt>
      <trkpt lat="31.1746455" lon="-4.0335264"><time>2025-01-01T16:02:41Z</time></trkpt>
      <trkpt lat="31.1747475" lon="-4.0334972"><time>2025-01-01T18:02:45Z</time></trkpt>
      <trkpt lat="31.174763128621674" lon="-4.033492329361317"><time>2025-01-01T19:11:05Z</time></trkpt>
      <trkpt lat="31.1747372" lon="-4.0335212"><time>2025-01-01T19:47:35Z</time></trkpt>
      <trkpt lat="31.1747079" lon="-4.0335281"><time>2025-01-01T20:23:17Z</time></trkpt>
      <trkpt lat="31.174572230870382" lon="-4.033512054628721"><time>2025-01-02T07:30:44Z</time></trkpt>
      <trkpt lat="31.174557879084773" lon="-4.033511744812094"><time>2025-01-02T08:21:45Z</time></trkpt>
      <trkpt lat="31.174617" lon="-4.0335954"><time>2025-01-02T08:49:31Z</time></trkpt>
      <trkpt lat="31.157115611688482" lon="-4.0297762288982835"><time>2025-01-02T10:13:04Z</time></trkpt>
      <trkpt lat="31.140734" lon="-4.0259652"><time>2025-01-02T10:23:00Z</time></trkpt>
      <trkpt lat="31.13579788677588" lon="-4.051660256401522"><time>2025-01-02T10:38:53Z</time></trkpt>
      <trkpt lat="31.1021579" lon="-4.0181916"><time>2025-01-02T10:43:02Z</time></trkpt>
      <trkpt lat="31.09502" lon="-4.0113516"><time>2025-01-02T10:53:54Z</time></trkpt>
      <trkpt lat="31.0972322" lon="-4.0101671"><time>2025-01-02T11:14:22Z</time></trkpt>
      <trkpt lat="30.9044654" lon="-3.8542604"><time>2025-01-02T13:38:32Z</time></trkpt>
      <trkpt lat="30.904358959085844" lon="-3.8542869105439785"><time>2025-01-02T15:01:48Z</time></trkpt>
      <trkpt lat="30.8945587" lon="-3.8476188"><time>2025-01-02T15:36:07Z</time></trkpt>
      <trkpt lat="30.904459068838953" lon="-3.8542177895790735"><time>2025-01-02T15:59:01Z</time></trkpt>
      <trkpt lat="30.9044342" lon="-3.8543631"><time>2025-01-02T17:25:17Z</time></trkpt>
      <trkpt lat="30.9044116" lon="-3.8543297"><time>2025-01-03T07:29:44Z</time></trkpt>
      <trkpt lat="30.9044278" lon="-3.8542465"><time>2025-01-03T09:34:34Z</time></trkpt>
      <trkpt lat="30.938755876120783" lon="-3.839047508398322"><time>2025-01-03T10:10:05Z</time></trkpt>
      <trkpt lat="30.9542979" lon="-3.7645645"><time>2025-01-03T11:03:55Z</time></trkpt>
      <trkpt lat="30.961206612768322" lon="-3.727168487492691"><time>2025-01-03T11:11:03Z</time></trkpt>
      <trkpt lat="30.9612063" lon="-3.7271677"><time>2025-01-03T11:11:03Z</time></trkpt>
      <trkpt lat="30.96244231638824" lon="-3.7202574472443124"><time>2025-01-03T11:38:52Z</time></trkpt>
      <trkpt lat="30.968786" lon="-3.7241907"><time>2025-01-03T16:14:28Z</time></trkpt>
      <trkpt lat="30.9657565" lon="-3.7224581"><time>2025-01-03T16:42:27Z</time></trkpt>
      <trkpt lat="30.962481830593585" lon="-3.720192245966722"><time>2025-01-03T17:04:43Z</time></trkpt>
      <trkpt lat="30.9622858" lon="-3.7202356"><time>2025-01-04T07:09:18Z</time></trkpt>
      <trkpt lat="30.962306431641395" lon="-3.7201799611210937"><time>2025-01-04T07:54:29Z</time></trkpt>
      <trkpt lat="30.97718074309499" lon="-3.72409286020224"><time>2025-01-04T09:16:25Z</time></trkpt>
      <trkpt lat="30.974587532499825" lon="-3.696576187341311"><time>2025-01-04T09:26:09Z</time></trkpt>
      <trkpt lat="30.9484437" lon="-3.7845746"><time>2025-01-04T10:12:35Z</time></trkpt>
      <trkpt lat="30.9523151" lon="-3.8149372"><time>2025-01-04T10:35:35Z</time></trkpt>
      <trkpt lat="30.938685418394876" lon="-3.875212276139079"><time>2025-01-04T11:38:02Z</time></trkpt>
      <trkpt lat="31.1025598" lon="-4.0189281"><time>2025-01-04T12:18:03Z</time></trkpt>
      <trkpt lat="31.112262636990895" lon="-4.026864256134559"><time>2025-01-04T12:19:55Z</time></trkpt>
      <trkpt lat="31.1131861" lon="-4.0281717"><time>2025-01-04T12:20:02Z</time></trkpt>
      <trkpt lat="31.29405531442124" lon="-4.245046954637026"><time>2025-01-04T12:53:13Z</time></trkpt>
      <trkpt lat="31.2824068" lon="-4.270148"><time>2025-01-04T13:03:10Z</time></trkpt>
      <trkpt lat="31.2996215" lon="-4.4058702"><time>2025-01-04T14:04:16Z</time></trkpt>
      <trkpt lat="31.2990311" lon="-4.4002688"><time>2025-01-04T14:48:31Z</time></trkpt>
      <trkpt lat="31.298016940054485" lon="-4.40173476848449"><time>2025-01-04T15:40:22Z</time></trkpt>
      <trkpt lat="31.29965416955349" lon="-4.405816403456237"><time>2025-01-04T16:11:23Z</time></trkpt>
      <trkpt lat="31.2996332" lon="-4.4059483"><time>2025-01-04T17:17:38Z</time></trkpt>
      <trkpt lat="31.29962114136765" lon="-4.405943124823045"><time>2025-01-05T06:08:07Z</time></trkpt>
      <trkpt lat="31.2995501" lon="-4.4059474"><time>2025-01-05T06:50:07Z</time></trkpt>
      <trkpt lat="31.29958334455098" lon="-4.4060017225188215"><time>2025-01-05T08:06:46Z</time></trkpt>
      <trkpt lat="31.2981914" lon="-4.4030984"><time>2025-01-05T09:07:26Z</time></trkpt>
      <trkpt lat="31.34330633163762" lon="-4.408139285718129"><time>2025-01-05T09:57:08Z</time></trkpt>
      <trkpt lat="31.4961283" lon="-4.476097"><time>2025-01-05T11:36:03Z</time></trkpt>
      <trkpt lat="31.52923552068494" lon="-4.486118712993952"><time>2025-01-05T12:24:04Z</time></trkpt>
      <trkpt lat="31.5451021" lon="-4.853304"><time>2025-01-05T13:04:56Z</time></trkpt>
      <trkpt lat="31.548469280899536" lon="-4.88485068965129"><time>2025-01-05T13:09:12Z</time></trkpt>
      <trkpt lat="31.5098332" lon="-5.0299743"><time>2025-01-05T13:25:29Z</time></trkpt>
      <trkpt lat="31.498715162790866" lon="-5.074636253500318"><time>2025-01-05T13:32:18Z</time></trkpt>
      <trkpt lat="31.4942466" lon="-5.0985265"><time>2025-01-05T13:34:59Z</time></trkpt>
      <trkpt lat="31.44850203916377" lon="-5.289404000491152"><time>2025-01-05T13:49:23Z</time></trkpt>
      <trkpt lat="31.553168678978206" lon="-5.584975110131084"><time>2025-01-05T17:31:19Z</time></trkpt>
      <trkpt lat="31.5529312" lon="-5.5849635"><time>2025-01-05T20:55:12Z</time></trkpt>
      <trkpt lat="31.5529541" lon="-5.5849762"><time>2025-01-06T01:53:28Z</time></trkpt>
      <trkpt lat="31.5833434" lon="-5.5916247"><time>2025-01-06T08:33:59Z</time></trkpt>
      <trkpt lat="31.5889665" lon="-5.5947165"><time>2025-01-06T08:59:13Z</time></trkpt>
      <trkpt lat="31.71193500415626" lon="-5.803806726665123"><time>2025-01-06T11:27:42Z</time></trkpt>
      <trkpt lat="31.5578026" lon="-5.9094827"><time>2025-01-06T12:26:03Z</time></trkpt>
      <trkpt lat="31.5297626" lon="-5.9254172"><time>2025-01-06T12:42:53Z</time></trkpt>
      <trkpt lat="31.5297768" lon="-5.9254094"><time>2025-01-06T13:07:01Z</time></trkpt>
      <trkpt lat="31.52754324056063" lon="-5.925214520617611"><time>2025-01-06T13:42:26Z</time></trkpt>
      <trkpt lat="31.5032728" lon="-5.9464653"><time>2025-01-06T13:52:15Z</time></trkpt>
      <trkpt lat="31.4634461" lon="-5.972357"><time>2025-01-06T13:59:45Z</time></trkpt>
      <trkpt lat="31.4390418" lon="-5.9930222"><time>2025-01-06T14:09:17Z</time></trkpt>
      <trkpt lat="31.4221915" lon="-6.0112542"><time>2025-01-06T14:18:44Z</time></trkpt>
      <trkpt lat="31.37513515960123" lon="-5.992793735440221"><time>2025-01-06T14:30:15Z</time></trkpt>
      <trkpt lat="31.3676011" lon="-5.9819001"><time>2025-01-06T14:39:36Z</time></trkpt>
      <trkpt lat="31.370439" lon="-5.8641636"><time>2025-01-06T14:49:07Z</time></trkpt>
      <trkpt lat="31.38225871680514" lon="-5.803152541514279"><time>2025-01-06T14:54:03Z</time></trkpt>
      <trkpt lat="31.3805704" lon="-5.7689945"><time>2025-01-06T14:58:37Z</time></trkpt>
      <trkpt lat="31.4192466" lon="-5.6868469"><time>2025-01-06T15:08:08Z</time></trkpt>
      <trkpt lat="31.44567696013943" lon="-5.660139595519483"><time>2025-01-06T15:14:51Z</time></trkpt>
      <trkpt lat="31.4503445" lon="-5.6663918"><time>2025-01-06T15:17:38Z</time></trkpt>
      <trkpt lat="31.4542489" lon="-5.6623685"><time>2025-01-06T15:49:05Z</time></trkpt>
      <trkpt lat="31.4578013" lon="-5.658017"><time>2025-01-06T16:28:01Z</time></trkpt>
      <trkpt lat="31.454297463096992" lon="-5.662339176954895"><time>2025-01-06T17:01:09Z</time></trkpt>
      <trkpt lat="31.4541282" lon="-5.6623463"><time>2025-01-07T06:46:50Z</time></trkpt>
      <trkpt lat="31.4904316" lon="-5.5497988"><time>2025-01-07T09:57:16Z</time></trkpt>
      <trkpt lat="31.5252602" lon="-5.5301417"><time>2025-01-07T10:08:11Z</time></trkpt>
      <trkpt lat="31.5156139" lon="-5.5020632"><time>2025-01-07T10:17:57Z</time></trkpt>
      <trkpt lat="31.4987433" lon="-5.0792588"><time>2025-01-07T11:11:55Z</time></trkpt>
      <trkpt lat="31.5443519" lon="-5.0104712"><time>2025-01-07T11:31:58Z</time></trkpt>
      <trkpt lat="31.6974395" lon="-4.9462918"><time>2025-01-07T12:31:57Z</time></trkpt>
      <trkpt lat="31.7766439" lon="-4.7505544"><time>2025-01-07T12:48:52Z</time></trkpt>
      <trkpt lat="31.8302057" lon="-4.6126651"><time>2025-01-07T12:59:06Z</time></trkpt>
      <trkpt lat="31.801998432380877" lon="-4.596043692876695"><time>2025-01-07T13:11:30Z</time></trkpt>
      <trkpt lat="31.755736884132585" lon="-4.579761848055284"><time>2025-01-07T13:47:22Z</time></trkpt>
      <trkpt lat="31.717095613903094" lon="-4.587000824468821"><time>2025-01-07T14:07:01Z</time></trkpt>
      <trkpt lat="31.6898763" lon="-4.5791287"><time>2025-01-07T14:20:26Z</time></trkpt>
      <trkpt lat="31.652315384442243" lon="-4.563698646739332"><time>2025-01-07T14:31:42Z</time></trkpt>
      <trkpt lat="31.6150255" lon="-4.5266135"><time>2025-01-07T15:01:03Z</time></trkpt>
      <trkpt lat="31.5938443" lon="-4.4965859"><time>2025-01-07T17:24:39Z</time></trkpt>
      <trkpt lat="31.5938246" lon="-4.4965276"><time>2025-01-07T19:02:49Z</time></trkpt>
      <trkpt lat="31.593814006362695" lon="-4.496577723644593"><time>2025-01-07T19:28:42Z</time></trkpt>
      <trkpt lat="31.5938046" lon="-4.4964573"><time>2025-01-07T21:48:16Z</time></trkpt>
      <trkpt lat="31.59364679209119" lon="-4.496424932563692"><time>2025-01-08T06:02:56Z</time></trkpt>
      <trkpt lat="31.5937226" lon="-4.4964168"><time>2025-01-08T06:31:39Z</time></trkpt>
      <trkpt lat="31.5936841" lon="-4.496403"><time>2025-01-08T07:54:30Z</time></trkpt>
      <trkpt lat="31.5815994" lon="-4.4777717"><time>2025-01-08T09:42:01Z</time></trkpt>
      <trkpt lat="31.5919204" lon="-4.5347525"><time>2025-01-08T10:27:12Z</time></trkpt>
      <trkpt lat="31.59106670300414" lon="-4.527702745366409"><time>2025-01-08T10:37:24Z</time></trkpt>
      <trkpt lat="31.538296743974186" lon="-4.261363307543785"><time>2025-01-08T12:13:16Z</time></trkpt>
      <trkpt lat="31.4877618" lon="-4.2184689"><time>2025-01-08T12:42:53Z</time></trkpt>
      <trkpt lat="31.4877611" lon="-4.218481"><time>2025-01-08T12:53:18Z</time></trkpt>
      <trkpt lat="31.5140319" lon="-4.2120911"><time>2025-01-08T13:01:17Z</time></trkpt>
      <trkpt lat="31.4877568" lon="-4.2184749"><time>2025-01-08T13:11:34Z</time></trkpt>
      <trkpt lat="31.590697441775145" lon="-4.201083447780931"><time>2025-01-08T13:25:35Z</time></trkpt>
      <trkpt lat="31.6133814" lon="-4.2066637"><time>2025-01-08T13:44:01Z</time></trkpt>
      <trkpt lat="31.6913798" lon="-4.1818438"><time>2025-01-08T13:54:02Z</time></trkpt>
      <trkpt lat="31.9374366" lon="-4.4055104"><time>2025-01-08T14:33:52Z</time></trkpt>
      <trkpt lat="31.9249162" lon="-4.4492444"><time>2025-01-08T14:43:54Z</time></trkpt>
      <trkpt lat="31.962684067919668" lon="-4.483874198998822"><time>2025-01-08T14:50:52Z</time></trkpt>
      <trkpt lat="32.08476848846429" lon="-4.380863553511465"><time>2025-01-08T15:16:39Z</time></trkpt>
      <trkpt lat="32.1751143" lon="-4.364894"><time>2025-01-08T15:31:34Z</time></trkpt>
      <trkpt lat="32.17618796678881" lon="-4.363271595893019"><time>2025-01-08T15:31:52Z</time></trkpt>
      <trkpt lat="32.1821332" lon="-4.3631782"><time>2025-01-08T15:32:36Z</time></trkpt>
      <trkpt lat="32.2611567" lon="-4.39573"><time>2025-01-08T15:42:22Z</time></trkpt>
      <trkpt lat="32.2722808" lon="-4.4713253"><time>2025-01-08T15:51:53Z</time></trkpt>
      <trkpt lat="32.27414987362929" lon="-4.480417467947101"><time>2025-01-08T15:52:53Z</time></trkpt>
      <trkpt lat="32.3139261" lon="-4.5458242"><time>2025-01-08T16:01:24Z</time></trkpt>
      <trkpt lat="32.37250330157035" lon="-4.63767473302447"><time>2025-01-08T16:42:53Z</time></trkpt>
      <trkpt lat="32.3724148" lon="-4.6376283"><time>2025-01-09T09:17:31Z</time></trkpt>
      <trkpt lat="32.5928668" lon="-4.5078265"><time>2025-01-09T10:11:06Z</time></trkpt>
      <trkpt lat="32.6780869" lon="-4.7402274"><time>2025-01-09T10:41:11Z</time></trkpt>
      <trkpt lat="32.7070129" lon="-4.7887247"><time>2025-01-09T10:51:27Z</time></trkpt>
      <trkpt lat="32.8118693" lon="-4.9553954"><time>2025-01-09T11:11:30Z</time></trkpt>
      <trkpt lat="32.8197316" lon="-4.9596084"><time>2025-01-09T11:21:31Z</time></trkpt>
      <trkpt lat="32.87915101452206" lon="-4.949151024478441"><time>2025-01-09T12:36:37Z</time></trkpt>
      <trkpt lat="32.99496" lon="-5.0720688"><time>2025-01-09T12:57:11Z</time></trkpt>
      <trkpt lat="33.002909617565344" lon="-5.073255407940832"><time>2025-01-09T12:58:46Z</time></trkpt>
      <trkpt lat="33.11533111271918" lon="-5.02957925502655"><time>2025-01-09T13:11:56Z</time></trkpt>
      <trkpt lat="33.23944760698879" lon="-5.065588868832767"><time>2025-01-09T13:27:36Z</time></trkpt>
      <trkpt lat="33.4262856" lon="-5.1777788"><time>2025-01-09T13:51:43Z</time></trkpt>
      <trkpt lat="33.4277369" lon="-5.174863"><time>2025-01-09T14:01:15Z</time></trkpt>
      <trkpt lat="33.42762369208807" lon="-5.190973259875005"><time>2025-01-09T14:03:08Z</time></trkpt>
      <trkpt lat="33.425689808175754" lon="-5.194371569657847"><time>2025-01-09T14:03:36Z</time></trkpt>
      <trkpt lat="33.4464095" lon="-5.181035"><time>2025-01-09T14:10:51Z</time></trkpt>
      <trkpt lat="33.4701737" lon="-5.1437944"><time>2025-01-09T14:20:22Z</time></trkpt>
      <trkpt lat="33.482023194863054" lon="-5.129251180063652"><time>2025-01-09T14:44:12Z</time></trkpt>
      <trkpt lat="33.4784154" lon="-5.1352258"><time>2025-01-09T15:01:24Z</time></trkpt>
      <trkpt lat="33.48218146197339" lon="-5.12935639375561"><time>2025-01-09T15:01:33Z</time></trkpt>
      <trkpt lat="33.4820886" lon="-5.1292482"><time>2025-01-09T16:20:06Z</time></trkpt>
      <trkpt lat="33.4819551" lon="-5.1292584"><time>2025-01-09T17:59:20Z</time></trkpt>
      <trkpt lat="33.4784154" lon="-5.1352258"><time>2025-01-09T18:02:08Z</time></trkpt>
      <trkpt lat="33.48204803798308" lon="-5.129220699602972"><time>2025-01-09T18:08:47Z</time></trkpt>
      <trkpt lat="33.48213" lon="-5.1292432"><time>2025-01-09T18:31:26Z</time></trkpt>
      <trkpt lat="33.4820562" lon="-5.1292781"><time>2025-01-09T19:12:46Z</time></trkpt>
      <trkpt lat="33.4820987" lon="-5.1291719"><time>2025-01-09T21:00:21Z</time></trkpt>
      <trkpt lat="33.4784154" lon="-5.1352258"><time>2025-01-10T00:52:19Z</time></trkpt>
      <trkpt lat="33.4784154" lon="-5.1352258"><time>2025-01-10T02:22:25Z</time></trkpt>
      <trkpt lat="33.4784154" lon="-5.1352258"><time>2025-01-10T06:41:42Z</time></trkpt>
      <trkpt lat="33.48208158748495" lon="-5.129277400329746"><time>2025-01-10T07:06:25Z</time></trkpt>
      <trkpt lat="33.4821137" lon="-5.1292268"><time>2025-01-10T08:06:07Z</time></trkpt>
      <trkpt lat="33.64504526235349" lon="-5.0687210107353255"><time>2025-01-10T11:34:00Z</time></trkpt>
      <trkpt lat="33.7293696" lon="-5.0106488"><time>2025-01-10T11:45:56Z</time></trkpt>
      <trkpt lat="33.8647608" lon="-4.9850047"><time>2025-01-10T12:03:52Z</time></trkpt>
      <trkpt lat="33.9202057" lon="-5.0378919"><time>2025-01-10T12:13:26Z</time></trkpt>
      <trkpt lat="33.9622396" lon="-5.0299494"><time>2025-01-10T12:24:08Z</time></trkpt>
      <trkpt lat="33.964269987193" lon="-5.031691559469505"><time>2025-01-10T12:24:19Z</time></trkpt>
      <trkpt lat="33.9874374" lon="-5.0199286"><time>2025-01-10T12:43:14Z</time></trkpt>
      <trkpt lat="33.98652442521366" lon="-5.018536057757667"><time>2025-01-10T13:54:47Z</time></trkpt>
      <trkpt lat="33.9874374" lon="-5.0199286"><time>2025-01-10T14:25:32Z</time></trkpt>
      <trkpt lat="33.9865657" lon="-5.0186058"><time>2025-01-10T15:25:30Z</time></trkpt>
      <trkpt lat="33.9874277" lon="-5.0199153"><time>2025-01-11T03:52:48Z</time></trkpt>
      <trkpt lat="33.986518264367945" lon="-5.018428655571052"><time>2025-01-11T06:26:30Z</time></trkpt>
      <trkpt lat="33.9873191" lon="-5.0197644"><time>2025-01-11T06:26:42Z</time></trkpt>
      <trkpt lat="33.987439" lon="-5.019927"><time>2025-01-11T08:08:22Z</time></trkpt>
      <trkpt lat="34.05295954362269" lon="-4.993678621117547"><time>2025-01-11T09:16:18Z</time></trkpt>
      <trkpt lat="33.73099" lon="-5.0094794"><time>2025-01-11T12:01:39Z</time></trkpt>
      <trkpt lat="34.066098" lon="-4.9732365"><time>2025-01-11T13:28:39Z</time></trkpt>
      <trkpt lat="34.0689676" lon="-4.9742179"><time>2025-01-11T14:34:03Z</time></trkpt>
      <trkpt lat="34.0708415" lon="-4.9691459"><time>2025-01-11T14:44:12Z</time></trkpt>
      <trkpt lat="34.0394375" lon="-5.0088169"><time>2025-01-11T18:02:13Z</time></trkpt>
      <trkpt lat="34.0279612" lon="-5.010952"><time>2025-01-11T18:22:38Z</time></trkpt>
      <trkpt lat="33.9944546" lon="-5.0145461"><time>2025-01-11T18:38:47Z</time></trkpt>
      <trkpt lat="33.9872411" lon="-5.0205515"><time>2025-01-11T18:52:42Z</time></trkpt>
      <trkpt lat="33.98638422736882" lon="-5.018446504622286"><time>2025-01-11T20:02:58Z</time></trkpt>
      <trkpt lat="33.9874856" lon="-5.0196607"><time>2025-01-11T20:29:52Z</time></trkpt>
      <trkpt lat="33.9876622" lon="-5.0201014"><time>2025-01-12T05:17:40Z</time></trkpt>
      <trkpt lat="33.9874315" lon="-5.0199162"><time>2025-01-12T08:12:57Z</time></trkpt>
      <trkpt lat="33.9874374" lon="-5.0199286"><time>2025-01-12T08:36:40Z</time></trkpt>
      <trkpt lat="33.986604368599544" lon="-5.018383646209052"><time>2025-01-12T08:36:45Z</time></trkpt>
      <trkpt lat="33.9871894" lon="-5.0207832"><time>2025-01-12T09:31:14Z</time></trkpt>
      <trkpt lat="33.98640929098176" lon="-5.018798131855629"><time>2025-01-12T11:12:29Z</time></trkpt>
      <trkpt lat="33.98727464250649" lon="-5.020469860380255"><time>2025-01-12T11:58:09Z</time></trkpt>
      <trkpt lat="33.9867789162694" lon="-5.018703816194574"><time>2025-01-12T12:43:44Z</time></trkpt>
      <trkpt lat="33.991442" lon="-5.0154273"><time>2025-01-12T13:14:21Z</time></trkpt>
      <trkpt lat="33.9900984" lon="-5.0163616"><time>2025-01-12T14:21:43Z</time></trkpt>
      <trkpt lat="33.9875521" lon="-5.0194332"><time>2025-01-12T14:51:21Z</time></trkpt>
      <trkpt lat="33.9861938" lon="-5.0192471"><time>2025-01-12T16:41:09Z</time></trkpt>
      <trkpt lat="33.9874276" lon="-5.01992"><time>2025-01-12T17:47:53Z</time></trkpt>
      <trkpt lat="33.986542134168175" lon="-5.018488252624072"><time>2025-01-12T17:47:57Z</time></trkpt>
      <trkpt lat="33.9874337" lon="-5.0199275"><time>2025-01-12T19:19:47Z</time></trkpt>
      <trkpt lat="33.9864756" lon="-5.0185898"><time>2025-01-12T19:34:22Z</time></trkpt>
      <trkpt lat="33.9874261" lon="-5.0199155"><time>2025-01-12T23:05:33Z</time></trkpt>
      <trkpt lat="33.9866312211387" lon="-5.018574857117361"><time>2025-01-13T06:51:02Z</time></trkpt>
      <trkpt lat="33.9865635" lon="-5.0184643"><time>2025-01-13T08:20:52Z</time></trkpt>
      <trkpt lat="33.987462" lon="-5.0198167"><time>2025-01-13T08:46:14Z</time></trkpt>
      <trkpt lat="33.92177813530881" lon="-5.177019727153868"><time>2025-01-13T09:06:30Z</time></trkpt>
      <trkpt lat="33.853553490325645" lon="-5.351497439716152"><time>2025-01-13T09:20:18Z</time></trkpt>
      <trkpt lat="33.8334043349376" lon="-5.515199549737233"><time>2025-01-13T09:33:36Z</time></trkpt>
      <trkpt lat="33.8779368" lon="-5.5334725"><time>2025-01-13T09:46:06Z</time></trkpt>
      <trkpt lat="34.01215832795562" lon="-5.562271026082946"><time>2025-01-13T10:13:27Z</time></trkpt>
      <trkpt lat="34.0583062" lon="-5.5324839"><time>2025-01-13T10:22:56Z</time></trkpt>
      <trkpt lat="34.0709888" lon="-5.5526389"><time>2025-01-13T10:35:35Z</time></trkpt>
      <trkpt lat="34.0752315" lon="-5.5542089"><time>2025-01-13T11:33:52Z</time></trkpt>
      <trkpt lat="34.07286737630131" lon="-5.55471248092069"><time>2025-01-13T12:10:57Z</time></trkpt>
      <trkpt lat="34.0711727" lon="-5.5530038"><time>2025-01-13T12:29:14Z</time></trkpt>
      <trkpt lat="33.95824377709975" lon="-5.575303225187981"><time>2025-01-13T13:08:09Z</time></trkpt>
      <trkpt lat="33.848385223539964" lon="-5.618915409354957"><time>2025-01-13T13:47:25Z</time></trkpt>
      <trkpt lat="33.85535638002539" lon="-6.237533437990509"><time>2025-01-13T15:26:35Z</time></trkpt>
      <trkpt lat="33.85538020855174" lon="-6.237516838268959"><time>2025-01-13T19:05:57Z</time></trkpt>
      <trkpt lat="33.8552238" lon="-6.2373651"><time>2025-01-14T03:22:45Z</time></trkpt>
      <trkpt lat="33.8552249" lon="-6.2373598"><time>2025-01-14T04:42:47Z</time></trkpt>
      <trkpt lat="33.8552238" lon="-6.2373651"><time>2025-01-14T05:12:47Z</time></trkpt>
      <trkpt lat="33.8552239" lon="-6.2373595"><time>2025-01-14T06:21:30Z</time></trkpt>
      <trkpt lat="34.3088085" lon="-6.5088081"><time>2025-01-14T10:24:30Z</time></trkpt>
      <trkpt lat="34.363262926501136" lon="-6.517885367504135"><time>2025-01-14T10:43:56Z</time></trkpt>
      <trkpt lat="34.51716702821771" lon="-6.472273367652511"><time>2025-01-14T10:57:12Z</time></trkpt>
      <trkpt lat="34.716950901575935" lon="-6.371822188168618"><time>2025-01-14T11:14:44Z</time></trkpt>
      <trkpt lat="34.9875653" lon="-6.1990713"><time>2025-01-14T11:41:20Z</time></trkpt>
      <trkpt lat="35.01638629141862" lon="-6.1880145242516935"><time>2025-01-14T11:43:51Z</time></trkpt>
      <trkpt lat="35.1163181" lon="-6.1421823"><time>2025-01-14T11:52:43Z</time></trkpt>
      <trkpt lat="35.24807050767567" lon="-6.071433751749106"><time>2025-01-14T12:06:29Z</time></trkpt>
      <trkpt lat="35.57921969601761" lon="-5.958025832022222"><time>2025-01-14T12:37:06Z</time></trkpt>
      <trkpt lat="35.6883853" lon="-5.9169065"><time>2025-01-14T12:50:19Z</time></trkpt>
      <trkpt lat="35.76018656861841" lon="-5.820300781885945"><time>2025-01-14T13:12:25Z</time></trkpt>
      <trkpt lat="35.7920037" lon="-5.8204089"><time>2025-01-14T13:44:46Z</time></trkpt>
      <trkpt lat="35.7890449" lon="-5.8051054"><time>2025-01-14T13:59:39Z</time></trkpt>
      <trkpt lat="35.785204030256615" lon="-5.808421337557039"><time>2025-01-14T14:04:43Z</time></trkpt>
      <trkpt lat="35.7830068" lon="-5.8105082"><time>2025-01-14T14:22:34Z</time></trkpt>
      <trkpt lat="35.7799566" lon="-5.8203056"><time>2025-01-14T14:32:28Z</time></trkpt>
      <trkpt lat="35.725624938058935" lon="-5.892204072789806"><time>2025-01-14T14:59:03Z</time></trkpt>
      <trkpt lat="35.529068" lon="-5.9983824"><time>2025-01-14T15:32:33Z</time></trkpt>
      <trkpt lat="35.691275341682775" lon="-5.916546960956225"><time>2025-01-16T08:45:32Z</time></trkpt>
      <trkpt lat="35.733282" lon="-5.8695773"><time>2025-01-16T08:55:33Z</time></trkpt>
      <trkpt lat="35.742126" lon="-5.8456646"><time>2025-01-16T09:25:35Z</time></trkpt>
      <trkpt lat="35.7450322" lon="-5.8451405"><time>2025-01-16T09:35:32Z</time></trkpt>
      <trkpt lat="35.7386677" lon="-5.852519"><time>2025-01-16T10:58:08Z</time></trkpt>
      <trkpt lat="35.735122543824055" lon="-5.860419505489667"><time>2025-01-16T11:11:05Z</time></trkpt>
      <trkpt lat="35.88193442563959" lon="-5.513890387146407"><time>2025-01-16T14:26:54Z</time></trkpt>
      <trkpt lat="36.121492184543534" lon="-4.103930108118922"><time>2025-01-17T08:36:44Z</time></trkpt>
      <trkpt lat="36.1214545" lon="-4.104066"><time>2025-01-17T08:36:45Z</time></trkpt>
      <trkpt lat="36.2118039" lon="-3.4216346"><time>2025-01-17T10:38:54Z</time></trkpt>
      <trkpt lat="36.2173446" lon="-3.3405857"><time>2025-01-17T10:52:48Z</time></trkpt>
      <trkpt lat="36.2231262" lon="-3.2872004"><time>2025-01-17T11:01:55Z</time></trkpt>
      <trkpt lat="36.2324168" lon="-3.2096968"><time>2025-01-17T11:15:09Z</time></trkpt>
      <trkpt lat="36.2394008" lon="-3.1373652"><time>2025-01-17T11:27:33Z</time></trkpt>
      <trkpt lat="36.24253" lon="-3.1079234"><time>2025-01-17T11:42:34Z</time></trkpt>
      <trkpt lat="36.289668" lon="-2.7228016"><time>2025-01-17T12:41:01Z</time></trkpt>
      <trkpt lat="36.2971168" lon="-2.6799903"><time>2025-01-17T12:48:56Z</time></trkpt>
      <trkpt lat="36.3018997" lon="-2.6487864"><time>2025-01-17T12:54:46Z</time></trkpt>
      <trkpt lat="36.4151566" lon="-2.1174563"><time>2025-01-17T14:37:30Z</time></trkpt>
      <trkpt lat="36.4540162" lon="-2.0636413"><time>2025-01-17T14:50:23Z</time></trkpt>
      <trkpt lat="36.5293431" lon="-1.9660672"><time>2025-01-17T15:14:42Z</time></trkpt>
      <trkpt lat="36.5644517" lon="-1.9200423"><time>2025-01-17T15:25:42Z</time></trkpt>
      <trkpt lat="36.6994568" lon="-1.7335663"><time>2025-01-17T16:20:08Z</time></trkpt>
      <trkpt lat="36.7437719" lon="-1.6692841"><time>2025-01-17T16:25:15Z</time></trkpt>
      <trkpt lat="40.7853257" lon="2.3120552"><time>2025-01-18T13:17:24Z</time></trkpt>
      <trkpt lat="40.8036337" lon="2.335617"><time>2025-01-18T13:23:06Z</time></trkpt>
      <trkpt lat="40.850581" lon="2.3943715"><time>2025-01-18T13:37:56Z</time></trkpt>
      <trkpt lat="40.85683111408081" lon="2.402673147759522"><time>2025-01-18T13:39:57Z</time></trkpt>
      <trkpt lat="41.42401150696263" lon="3.3899134418296377"><time>2025-01-18T17:16:12Z</time></trkpt>
      <trkpt lat="41.44885498975185" lon="3.435758200904127"><time>2025-01-18T17:26:18Z</time></trkpt>
      <trkpt lat="41.60600824431911" lon="3.7349065834514223"><time>2025-01-18T18:29:50Z</time></trkpt>
      <trkpt lat="41.8287702" lon="4.1928655"><time>2025-01-18T20:03:27Z</time></trkpt>
      <trkpt lat="41.83247640066218" lon="4.200797493576802"><time>2025-01-18T20:05:01Z</time></trkpt>
      <trkpt lat="43.4732914" lon="7.4837376"><time>2025-01-19T07:46:37Z</time></trkpt>
      <trkpt lat="43.47945511098537" lon="7.495925746321395"><time>2025-01-19T07:49:21Z</time></trkpt>
      <trkpt lat="43.4794551" lon="7.4959257"><time>2025-01-19T07:49:21Z</time></trkpt>
      <trkpt lat="43.6498743" lon="7.7973173"><time>2025-01-19T08:56:16Z</time></trkpt>
      <trkpt lat="43.65153221526917" lon="7.800680577933251"><time>2025-01-19T08:56:50Z</time></trkpt>
      <trkpt lat="43.6523745" lon="7.8029947"><time>2025-01-19T09:15:52Z</time></trkpt>
      <trkpt lat="43.8318109" lon="8.127938"><time>2025-01-19T10:06:37Z</time></trkpt>
      <trkpt lat="44.05852502948326" lon="8.52359570970787"><time>2025-01-19T11:33:02Z</time></trkpt>
      <trkpt lat="44.0628565" lon="8.531274"><time>2025-01-19T11:44:32Z</time></trkpt>
      <trkpt lat="44.094563" lon="8.5874735"><time>2025-01-19T11:47:14Z</time></trkpt>
      <trkpt lat="44.41703095763707" lon="8.902775159728778"><time>2025-01-19T14:53:22Z</time></trkpt>
      <trkpt lat="44.4925775" lon="8.9188427"><time>2025-01-19T15:03:56Z</time></trkpt>
      <trkpt lat="44.6105954" lon="8.9554139"><time>2025-01-19T15:17:08Z</time></trkpt>
      <trkpt lat="44.9077202" lon="8.8429411"><time>2025-01-19T15:48:04Z</time></trkpt>
      <trkpt lat="45.01653319822989" lon="8.925586428423818"><time>2025-01-19T15:58:09Z</time></trkpt>
      <trkpt lat="45.1221248" lon="8.9775233"><time>2025-01-19T16:07:34Z</time></trkpt>
      <trkpt lat="45.2318032" lon="9.0303654"><time>2025-01-19T16:17:04Z</time></trkpt>
      <trkpt lat="45.24386243779181" lon="9.040890169519672"><time>2025-01-19T16:18:12Z</time></trkpt>
      <trkpt lat="45.3072201" lon="9.0739656"><time>2025-01-19T16:23:58Z</time></trkpt>
      <trkpt lat="45.30921181685791" lon="9.075365214360211"><time>2025-01-19T16:24:08Z</time></trkpt>
      <trkpt lat="45.3346272" lon="9.0946406"><time>2025-01-19T16:26:35Z</time></trkpt>
      <trkpt lat="45.3988796" lon="9.1292108"><time>2025-01-19T16:36:05Z</time></trkpt>
      <trkpt lat="45.46457222002469" lon="9.076332441634086"><time>2025-01-19T16:44:27Z</time></trkpt>
      <trkpt lat="45.475283" lon="9.0787663"><time>2025-01-19T16:45:35Z</time></trkpt>
      <trkpt lat="45.548421" lon="9.0621933"><time>2025-01-19T16:55:05Z</time></trkpt>
      <trkpt lat="45.64679677810763" lon="9.014808314878922"><time>2025-01-19T17:05:04Z</time></trkpt>
      <trkpt lat="45.7293601" lon="9.0291702"><time>2025-01-19T17:22:26Z</time></trkpt>
      <trkpt lat="45.7330965" lon="9.03002"><time>2025-01-19T17:41:25Z</time></trkpt>
      <trkpt lat="45.8387681" lon="9.0339956"><time>2025-01-19T17:55:36Z</time></trkpt>
      <trkpt lat="45.9370909" lon="8.9719231"><time>2025-01-19T18:06:40Z</time></trkpt>
      <trkpt lat="45.93821744604939" lon="8.970398896973013"><time>2025-01-19T18:06:56Z</time></trkpt>
      <trkpt lat="46.054854110890915" lon="8.927844730123082"><time>2025-01-19T18:19:20Z</time></trkpt>
      <trkpt lat="46.18462179635732" lon="9.003796032884074"><time>2025-01-19T18:35:24Z</time></trkpt>
      <trkpt lat="46.2357566" lon="9.0905601"><time>2025-01-19T18:52:51Z</time></trkpt>
      <trkpt lat="46.266806327722776" lon="9.168757625068327"><time>2025-01-19T18:58:48Z</time></trkpt>
      <trkpt lat="46.526240165557894" lon="9.188048407016868"><time>2025-01-19T19:55:12Z</time></trkpt>
      <trkpt lat="46.52609299745191" lon="9.187905037223382"><time>2025-01-19T21:14:22Z</time></trkpt>
      <trkpt lat="46.5261314" lon="9.1880295"><time>2025-01-20T07:35:26Z</time></trkpt>
      <trkpt lat="46.5928012" lon="9.4271092"><time>2025-01-20T08:30:26Z</time></trkpt>
      <trkpt lat="46.6994406" lon="9.4398865"><time>2025-01-20T08:41:03Z</time></trkpt>
      <trkpt lat="46.7119866" lon="9.4454674"><time>2025-01-20T08:51:52Z</time></trkpt>
      <trkpt lat="47.0109845" lon="9.5123923"><time>2025-01-20T09:52:50Z</time></trkpt>
      <trkpt lat="47.013658" lon="9.5093971"><time>2025-01-20T09:53:06Z</time></trkpt>
      <trkpt lat="47.0658604" lon="9.3923319"><time>2025-01-20T10:01:16Z</time></trkpt>
      <trkpt lat="47.06666479471564" lon="9.390607894538567"><time>2025-01-20T10:01:23Z</time></trkpt>
      <trkpt lat="47.1286195288211" lon="9.088518708627845"><time>2025-01-20T10:21:27Z</time></trkpt>
      <trkpt lat="47.1378789" lon="9.0506641"><time>2025-01-20T10:31:58Z</time></trkpt>
      <trkpt lat="47.1758623367222" lon="9.001555412366642"><time>2025-01-20T11:03:52Z</time></trkpt>
      <trkpt lat="47.3007522" lon="8.8307771"><time>2025-01-20T11:23:56Z</time></trkpt>
      <trkpt lat="47.3207223" lon="8.8253429"><time>2025-01-20T11:26:26Z</time></trkpt>
      <trkpt lat="47.4982127" lon="8.7177855"><time>2025-01-20T11:54:26Z</time></trkpt>
      <trkpt lat="47.4954031" lon="8.7536564"><time>2025-01-20T12:04:27Z</time></trkpt>
      <trkpt lat="47.4946632" lon="8.7490269"><time>2025-01-20T12:16:01Z</time></trkpt>
      <trkpt lat="47.4944576684768" lon="8.753221953873146"><time>2025-01-20T12:24:52Z</time></trkpt>
      <trkpt lat="47.5072764" lon="8.758672"><time>2025-01-20T12:36:11Z</time></trkpt>
      <trkpt lat="47.5392471" lon="8.7911445"><time>2025-01-20T12:47:46Z</time></trkpt>
      <trkpt lat="47.4848259" lon="8.710204"><time>2025-01-20T18:09:59Z</time></trkpt>
      <trkpt lat="47.5388622" lon="8.7911704"><time>2025-01-20T20:31:21Z</time></trkpt>
      <trkpt lat="47.5341119" lon="8.7816751"><time>2025-01-21T07:30:20Z</time></trkpt>
      <trkpt lat="47.5084033" lon="8.7582429"><time>2025-01-21T07:40:40Z</time></trkpt>
      <trkpt lat="47.5227543" lon="8.7730318"><time>2025-01-21T08:31:07Z</time></trkpt>
      <trkpt lat="47.5388359" lon="8.7909258"><time>2025-01-21T09:40:06Z</time></trkpt>
      <trkpt lat="47.5558243" lon="8.7704106"><time>2025-01-21T13:45:31Z</time></trkpt>
      <trkpt lat="47.5410717" lon="8.788146"><time>2025-01-21T13:55:40Z</time></trkpt>
      <trkpt lat="47.5392141" lon="8.7911869"><time>2025-01-21T14:06:55Z</time></trkpt>
    </trkseg>
  </trk>
</gpx>