<?xml version="1.0" encoding="UTF-8"?>
<gpx version="1.1" creator="GPX Elevation Tool" xmlns="http://www.topografix.com/GPX/1/1">
  <wpt lat="47.2106239" lon="8.1835949">
    <name>Gunzwil</name>
  </wpt>
  <wpt lat="46.4647387" lon="6.3596019">
    <ele>399</ele>
    <name>Folliérage</name>
  </wpt>
  <wpt lat="46.0272452" lon="6.0959864">
    <name>Saint-Julien-en-Genevois</name>
  </wpt>
  <wpt lat="45.0161449" lon="4.9603242">
    <ele>169</ele>
    <name>Châteauneuf-sur-Isère</name>
  </wpt>
  <wpt lat="44.5166598" lon="4.7802537">
    <name>Nyons</name>
  </wpt>
  <wpt lat="43.6129552" lon="3.7447885">
    <name>F. 34570 Murviel les Montpellier</name>
  </wpt>
  <wpt lat="41.0665791" lon="1.0824675">
    <ele>2</ele>
    <name>Vilafortuny</name>
  </wpt>
  <wpt lat="41.06676533074695" lon="1.0826195802915974">
    <name>Vilafortuny</name>
  </wpt>
  <wpt lat="40.49037534276408" lon="0.3604903137046543">
    <ele>117</ele>
    <name>Emoción de Libertad</name>
  </wpt>
  <wpt lat="38.0934881" lon="-1.0771432">
    <name>Granja La Carmela I</name>
  </wpt>
  <wpt lat="38.0934753" lon="-1.0770969">
    <ele>68</ele>
    <name>Granja La Carmela II</name>
  </wpt>
  <wpt lat="38.0934757" lon="-1.0771004">
    <name>Granja La Carmela III</name>
  </wpt>
  <wpt lat="36.83262888991988" lon="-2.4794784996728674">
    <name>Almeria</name>
  </wpt>
  <wpt lat="35.2687119" lon="-2.929898">
    <name>Beni Ansar</name>
  </wpt>
  <wpt lat="33.910803" lon="-2.0328799">
    <ele>989</ele>
    <name>Jerada</name>
  </wpt>
  <wpt lat="31.8588208" lon="-4.2890488">
    <ele>980</ele>
    <name>caïdat de M'daghra Lkeng قيادة مدغرة الخنك</name>
  </wpt>
  <wpt lat="31.1750149" lon="-4.0337921">
    <name>Rissani</name>
  </wpt>
  <wpt lat="31.09583906451539" lon="-3.9565319408378383">
    <name>Et-taous ⵟⴰⵡⵙ الطاوس</name>
  </wpt>
  <wpt lat="31.0958738" lon="-3.9565496">
    <ele>708</ele>
    <name>Et-taous ⵟⴰⵡⵙ الطاوس</name>
  </wpt>
  <wpt lat="30.994338805121036" lon="-3.8188344281985995">
    <ele>717</ele>
    <name>Errachidia</name>
  </wpt>
  <wpt lat="30.7434385" lon="-4.2654221">
    <name>Errachidia</name>
  </wpt>
  <wpt lat="30.3138484" lon="-5.8303706">
    <ele>721</ele>
    <name>Zagora</name>
  </wpt>
  <wpt lat="30.092332113428096" lon="-5.296936809540208">
    <ele>808</ele>
    <name>Zagora</name>
  </wpt>
  <wpt lat="30.63105708137265" lon="-4.805559877884628">
    <name>Sidi Ali ⵙⵉⴷⵉ ⵄⵍⵉ سيدي علي</name>
  </wpt>
  <wpt lat="30.631484865063204" lon="-4.860384123231757">
    <name>Errachidia</name>
  </wpt>
  <wpt lat="29.9169544" lon="-6.8587082">
    <ele>589</ele>
    <name>Tata</name>
  </wpt>
  <wpt lat="31.0400483" lon="-7.1211094">
    <ele>1263</ele>
    <name>Aït Benhaddou</name>
  </wpt>
  <wpt lat="31.63051659588785" lon="-8.005377791451899">
    <name>Guéliz ⴳⵉⵍⵉⵣ گليز</name>
  </wpt>
  <wpt lat="31.5265541" lon="-7.9591055">
    <ele>569</ele>
    <name>Ourika -Camping</name>
  </wpt>
  <wpt lat="31.526677" lon="-7.9595212">
    <ele>569</ele>
    <name>Ourika-Camp </name>
  </wpt>
  <wpt lat="31.7069783" lon="-7.9898561">
    <ele>409</ele>
    <name>Le Relais de Marrakesch </name>
  </wpt>
  <wpt lat="31.7072335" lon="-7.9895046">
    <ele>409</ele>
    <name>Relais de Marrakesch </name>
  </wpt>
  <wpt lat="31.7072335" lon="-7.9895046">
    <ele>409</ele>
    <name>Relais de Camping</name>
  </wpt>
  <wpt lat="31.7072335" lon="-7.9895046">
    <ele>409</ele>
    <name>Ouahat Sidi Brahim</name>
  </wpt>
  <wpt lat="31.55402984349723" lon="-9.623675549328471">
    <ele>153</ele>
    <name>Essaouira</name>
  </wpt>
  <wpt lat="31.0870655" lon="-9.8179063">
    <name>Tafedna تافضنا</name>
  </wpt>
  <wpt lat="31.087055770565428" lon="-9.817438281060994">
    <name>Tafedna تافضنا</name>
  </wpt>
  <wpt lat="29.78591515195238" lon="-9.847287426819133">
    <ele>59</ele>
    <name>Camping du Paradis, Aglou</name>
  </wpt>
  <wpt lat="29.7855182" lon="-9.8472802">
    <name>Mirleft</name>
  </wpt>
  <wpt lat="29.3867717" lon="-10.166762">
    <ele>16</ele>
    <name>Sidi Ifni</name>
  </wpt>
  <wpt lat="28.2684474" lon="-10.4790466">
    <ele>164</ele>
    <name>Draa Tal</name>
  </wpt>
  <wpt lat="28.3360182686218" lon="-9.901959858124393">
    <ele>180</ele>
    <name>Assa-Zag</name>
  </wpt>
  <wpt lat="28.3389158" lon="-9.8814282">
    <name>Assa-Zag</name>
  </wpt>
  <wpt lat="28.43051274861015" lon="-9.569655518853416">
    <ele>220</ele>
    <name>Assa-Zag</name>
  </wpt>
  <wpt lat="28.682487" lon="-9.3271216">
    <name>Assa</name>
  </wpt>
  <wpt lat="29.0590238" lon="-8.8519952">
    <ele>515</ele>
    <name>Icht </name>
  </wpt>
  <wpt lat="29.030177402398436" lon="-8.902636015147609">
    <ele>494</ele>
    <name>Offroad von Assa - Foum El Hisn</name>
  </wpt>
  <wpt lat="29.721909445329135" lon="-8.984900442382784">
    <ele>999</ele>
    <name>Ait Mansour</name>
  </wpt>
  <wpt lat="29.72173859223578" lon="-8.984369248011973">
    <name>Tafraout</name>
  </wpt>
  <wpt lat="30.0668087" lon="-6.8681046">
    <ele>650</ele>
    <name>Rundtour</name>
  </wpt>
  <wpt lat="29.8738519" lon="-6.5483256">
    <name>Lake Iriki I</name>
  </wpt>
  <wpt lat="29.86921610178962" lon="-6.2327096794344605">
    <ele>478</ele>
    <name>Lake Iriki II</name>
  </wpt>
  <wpt lat="29.869340397008315" lon="-6.2327503002223">
    <name>caïdat de M'Hamid</name>
  </wpt>
  <wpt lat="30.3140115" lon="-5.8304523">
    <ele>721</ele>
    <name>Weihnachten unter Palmen</name>
  </wpt>
  <wpt lat="30.3402619" lon="-5.8377767">
    <name>Frieda braucht "special care"</name>
  </wpt>
  <wpt lat="30.7793446" lon="-5.4183604">
    <ele>820</ele>
    <name>Tazarine </name>
  </wpt>
  <wpt lat="30.96247453400896" lon="-3.7201742086229306">
    <name>Errachidia</name>
  </wpt>
  <wpt lat="31.2996156" lon="-4.4059482">
    <name>caïdat de Fezna-Arab Sebah قيادة فزنا عرب الصباح</name>
  </wpt>
  <wpt lat="31.5506485" lon="-5.5866504">
    <ele>1381</ele>
    <name>..von gorge to gorge... </name>
  </wpt>
  <wpt lat="31.5938046" lon="-4.4964573">
    <name>caïdat de Fezna-Arab Sebah قيادة فزنا عرب الصباح</name>
  </wpt>
  <wpt lat="35.52877376795292" lon="-5.997569614196811">
    <ele>34</ele>
    <name>Aquouass Briech أقواس برييش</name>
  </wpt>
  <wpt lat="35.5288592" lon="-5.99753">
    <name>Aquouass Briech أقواس برييش</name>
  </wpt>
  <wpt lat="35.8817845" lon="-5.5137817">
    <name>Ksar El Majaz</name>
  </wpt>
  <wpt lat="46.526240165557894" lon="9.188048407016868">
    <ele>1609</ele>
    <name>..vom Paradies direkt in Schnee...</name>
  </wpt>
  <wpt lat="47.5388521" lon="8.7911011">
    <name>Rickenbach Sulz</name>
  </wpt>
  <trk>
    <trkseg>
      <trkpt lat="47.2099505" lon="8.1822198">
        <ele>661</ele>
      </trkpt>
      <trkpt lat="47.2059279" lon="8.185433">
        <ele>664</ele>
      </trkpt>
      <trkpt lat="47.192182117336024" lon="8.156319053690027">
        <ele>688</ele>
      </trkpt>
      <trkpt lat="47.185936977973626" lon="8.146164881432595">
        <ele>656</ele>
      </trkpt>
      <trkpt lat="47.28242749189567" lon="7.934898473322358">
      </trkpt>
      <trkpt lat="47.3124248" lon="7.8565569">
      </trkpt>
      <trkpt lat="47.310662309180145" lon="7.8307436308879685">
        <ele>441</ele>
      </trkpt>
      <trkpt lat="47.261655091998364" lon="7.707612459227925">
      </trkpt>
      <trkpt lat="47.058588252262794" lon="7.5499645146925145">
        <ele>518</ele>
      </trkpt>
      <trkpt lat="46.4647242257863" lon="6.3595978822763355">
      </trkpt>
      <trkpt lat="46.4642271" lon="6.3597369">
        <ele>379</ele>
      </trkpt>
      <trkpt lat="46.4671832" lon="6.3662575">
      </trkpt>
      <trkpt lat="46.467613" lon="6.3643211">
        <ele>423</ele>
      </trkpt>
      <trkpt lat="46.4645545" lon="6.3599396">
      </trkpt>
      <trkpt lat="46.46466286649401" lon="6.359773902250232">
        <ele>399</ele>
      </trkpt>
      <trkpt lat="46.4646484" lon="6.3598971">
      </trkpt>
      <trkpt lat="46.4646308" lon="6.3598893">
        <ele>399</ele>
      </trkpt>
      <trkpt lat="46.3317273" lon="6.1547281">
        <ele>469</ele>
      </trkpt>
      <trkpt lat="46.00073633145892" lon="6.12673643667412">
      </trkpt>
      <trkpt lat="45.730097534701805" lon="5.9235190757139">
        <ele>309</ele>
      </trkpt>
      <trkpt lat="45.57295901355107" lon="5.791272043183987">
      </trkpt>
      <trkpt lat="45.06135885279476" lon="5.195573328153953">
      </trkpt>
      <trkpt lat="45.04630136307336" lon="5.159540949763572">
        <ele>197</ele>
      </trkpt>
      <trkpt lat="45.0413130541882" lon="5.146669470441052">
      </trkpt>
      <trkpt lat="45.0409371" lon="5.1461371">
        <ele>230</ele>
      </trkpt>
      <trkpt lat="45.01739921793703" lon="4.961995398868697">
      </trkpt>
      <trkpt lat="45.0136141" lon="4.9778749">
      </trkpt>
      <trkpt lat="45.01622661331491" lon="4.960383468136501">
        <ele>169</ele>
      </trkpt>
      <trkpt lat="43.65993042528624" lon="3.5065317809456547">
        <ele>81</ele>
      </trkpt>
      <trkpt lat="43.184990283575544" lon="3.055134341635458">
      </trkpt>
      <trkpt lat="42.28863320828086" lon="2.940529712785765">
        <ele>67</ele>
      </trkpt>
      <trkpt lat="42.2854128" lon="2.9412805">
      </trkpt>
      <trkpt lat="41.5267469" lon="2.166511">
        <ele>81</ele>
      </trkpt>
      <trkpt lat="41.328161" lon="1.6530931">
      </trkpt>
      <trkpt lat="41.07149088206272" lon="1.0939531164725258">
        <ele>8</ele>
      </trkpt>
      <trkpt lat="41.0666216" lon="1.0825225">
      </trkpt>
      <trkpt lat="41.0665612" lon="1.0839444">
        <ele>6</ele>
      </trkpt>
      <trkpt lat="41.0694529" lon="1.0820662">
        <ele>8</ele>
      </trkpt>
      <trkpt lat="41.06669418252216" lon="1.08270295240643">
        <ele>7</ele>
      </trkpt>
      <trkpt lat="41.0667202" lon="1.0825761">
      </trkpt>
      <trkpt lat="41.06675529402144" lon="1.0826918165195623">
      </trkpt>
      <trkpt lat="41.066734085012875" lon="1.082611946882409">
        <ele>7</ele>
      </trkpt>
      <trkpt lat="41.06676533074695" lon="1.0826195802915974">
      </trkpt>
      <trkpt lat="41.0669471" lon="1.0591037">
        <ele>13</ele>
      </trkpt>
      <trkpt lat="41.06667084936649" lon="1.0826367754979036">
      </trkpt>
      <trkpt lat="41.06677892516644" lon="1.0827906947454988">
        <ele>7</ele>
      </trkpt>
      <trkpt lat="41.06983533215515" lon="1.0829291977903224">
      </trkpt>
      <trkpt lat="40.75234387790865" lon="0.6001123732840972">
        <ele>39</ele>
      </trkpt>
      <trkpt lat="40.746838772651664" lon="0.5945759373888629">
      </trkpt>
      <trkpt lat="40.4556437" lon="0.4510841">
        <ele>12</ele>
      </trkpt>
      <trkpt lat="40.46862503845222" lon="0.4647718708349976">
      </trkpt>
      <trkpt lat="40.49037534276408" lon="0.3604903137046543">
        <ele>117</ele>
      </trkpt>
      <trkpt lat="40.490539" lon="0.3602954">
      </trkpt>
      <trkpt lat="40.49731011863521" lon="0.3430649401436283">
        <ele>133</ele>
      </trkpt>
      <trkpt lat="39.1557718" lon="-0.5282289">
      </trkpt>
      <trkpt lat="38.1212312" lon="-1.1058434">
      </trkpt>
      <trkpt lat="38.09357469540053" lon="-1.0772498275123878">
        <ele>68</ele>
      </trkpt>
      <trkpt lat="38.030550970241144" lon="-1.1548172298874577">
      </trkpt>
      <trkpt lat="38.030551" lon="-1.1548172">
        <ele>96</ele>
      </trkpt>
      <trkpt lat="37.8050933360751" lon="-1.4240308627659706">
      </trkpt>
      <trkpt lat="37.2857734" lon="-1.9341118">
        <ele>170</ele>
      </trkpt>
      <trkpt lat="36.9556604" lon="-2.1281026">
        <ele>189</ele>
      </trkpt>
      <trkpt lat="36.8757677" lon="-2.3378443">
      </trkpt>
      <trkpt lat="36.83262888991988" lon="-2.4794784996728674">
      </trkpt>
      <trkpt lat="36.8382368" lon="-2.474694">
        <ele>16</ele>
      </trkpt>
      <trkpt lat="36.83408318117763" lon="-2.479281479418705">
        <ele>1</ele>
      </trkpt>
      <trkpt lat="36.8325277" lon="-2.4789885">
      </trkpt>
      <trkpt lat="36.8378566" lon="-2.4726407">
      </trkpt>
      <trkpt lat="36.833143" lon="-2.478962">
      </trkpt>
      <trkpt lat="36.83785" lon="-2.4726562">
        <ele>15</ele>
      </trkpt>
      <trkpt lat="36.8325238" lon="-2.4789895">
      </trkpt>
      <trkpt lat="36.837852" lon="-2.4726415">
        <ele>15</ele>
      </trkpt>
      <trkpt lat="36.8331543" lon="-2.4790046">
      </trkpt>
      <trkpt lat="34.7034256" lon="-1.9141117">
        <ele>546</ele>
      </trkpt>
      <trkpt lat="34.491065007646306" lon="-2.0456868353032482">
      </trkpt>
      <trkpt lat="33.9108039" lon="-2.0328288">
        <ele>989</ele>
      </trkpt>
      <trkpt lat="33.91075379407311" lon="-2.0328828783026265">
      </trkpt>
      <trkpt lat="32.9639347" lon="-2.0266147">
      </trkpt>
      <trkpt lat="32.8758227" lon="-2.0568921">
        <ele>1362</ele>
      </trkpt>
      <trkpt lat="32.45087804851245" lon="-2.097626002852905">
      </trkpt>
      <trkpt lat="32.0509691" lon="-2.966522">
        <ele>880</ele>
      </trkpt>
      <trkpt lat="31.8588208" lon="-4.2890488">
      </trkpt>
      <trkpt lat="31.858383" lon="-4.2957708">
        <ele>990</ele>
      </trkpt>
      <trkpt lat="31.8588421" lon="-4.2890589">
      </trkpt>
      <trkpt lat="31.575281478850002" lon="-4.1927138383102225">
        <ele>856</ele>
      </trkpt>
      <trkpt lat="31.4430401" lon="-4.2298397">
      </trkpt>
      <trkpt lat="31.4409359" lon="-4.2309225">
        <ele>807</ele>
      </trkpt>
      <trkpt lat="31.226374280697375" lon="-4.123476805871164">
        <ele>726</ele>
      </trkpt>
      <trkpt lat="31.1750149" lon="-4.0337921">
      </trkpt>
      <trkpt lat="31.179584272388066" lon="-4.032539227874476">
      </trkpt>
      <trkpt lat="31.09419535523331" lon="-3.949666883897401">
        <ele>700</ele>
      </trkpt>
      <trkpt lat="31.09583906451539" lon="-3.9565319408378383">
      </trkpt>
      <trkpt lat="31.0929504" lon="-3.9530436">
        <ele>706</ele>
      </trkpt>
      <trkpt lat="31.095783942444108" lon="-3.956411026056039">
      </trkpt>
      <trkpt lat="31.0929519" lon="-3.9530346">
        <ele>706</ele>
      </trkpt>
      <trkpt lat="31.095628429808638" lon="-3.9563666155506545">
      </trkpt>
      <trkpt lat="31.0929519" lon="-3.9530346">
      </trkpt>
      <trkpt lat="31.0957508" lon="-3.9563443">
        <ele>708</ele>
      </trkpt>
      <trkpt lat="30.994338805121036" lon="-3.8188344281985995">
      </trkpt>
      <trkpt lat="30.7431865" lon="-4.23845">
        <ele>649</ele>
      </trkpt>
      <trkpt lat="30.7434385" lon="-4.2654221">
      </trkpt>
      <trkpt lat="30.746214211640872" lon="-4.267494319216463">
        <ele>640</ele>
      </trkpt>
      <trkpt lat="30.7462142" lon="-4.2674943">
        <ele>640</ele>
      </trkpt>
      <trkpt lat="30.745247042568018" lon="-4.265770995938345">
        <ele>646</ele>
      </trkpt>
      <trkpt lat="30.7455425142274" lon="-4.206891918787643">
        <ele>642</ele>
      </trkpt>
      <trkpt lat="31.2521586" lon="-4.6358874">
        <ele>849</ele>
      </trkpt>
      <trkpt lat="30.945567908163625" lon="-5.303471455673875">
        <ele>874</ele>
      </trkpt>
      <trkpt lat="30.697050906171846" lon="-5.383935821412006">
      </trkpt>
      <trkpt lat="30.460889032446445" lon="-5.520928306001977">
        <ele>929</ele>
      </trkpt>
      <trkpt lat="30.3142676" lon="-5.8298363">
        <ele>721</ele>
      </trkpt>
      <trkpt lat="30.354024" lon="-5.8405473">
      </trkpt>
      <trkpt lat="30.331108403837128" lon="-5.839128578525963">
      </trkpt>
      <trkpt lat="30.092332113428096" lon="-5.296936809540208">
        <ele>808</ele>
      </trkpt>
      <trkpt lat="30.066396730734276" lon="-5.372838078084533">
        <ele>817</ele>
      </trkpt>
      <trkpt lat="30.2534436" lon="-5.6653155">
      </trkpt>
      <trkpt lat="30.6311408" lon="-4.8055891">
        <ele>668</ele>
      </trkpt>
      <trkpt lat="30.6317751" lon="-4.8040606">
      </trkpt>
      <trkpt lat="30.63156594419503" lon="-4.860312710345327">
        <ele>658</ele>
      </trkpt>
      <trkpt lat="30.0699781" lon="-6.86743">
      </trkpt>
      <trkpt lat="29.938892819846995" lon="-6.899525023689453">
        <ele>565</ele>
      </trkpt>
      <trkpt lat="29.91723287210226" lon="-6.858797829163531">
      </trkpt>
      <trkpt lat="29.9300381" lon="-6.8882473">
        <ele>560</ele>
      </trkpt>
      <trkpt lat="31.040057" lon="-7.1211451">
      </trkpt>
      <trkpt lat="31.0451704" lon="-7.1295082">
        <ele>1273</ele>
      </trkpt>
      <trkpt lat="31.03971576889888" lon="-7.12096734450763">
        <ele>1263</ele>
      </trkpt>
      <trkpt lat="31.2869991" lon="-7.3810254">
        <ele>2212</ele>
      </trkpt>
      <trkpt lat="31.3227256" lon="-7.3773631">
        <ele>1940</ele>
      </trkpt>
      <trkpt lat="31.32272563389259" lon="-7.377363125822322">
        <ele>1940</ele>
      </trkpt>
      <trkpt lat="31.527531887154417" lon="-7.9596660188692745">
      </trkpt>
      <trkpt lat="31.625367328503145" lon="-7.99471150457855">
        <ele>468</ele>
      </trkpt>
      <trkpt lat="31.6253673" lon="-7.9947115">
      </trkpt>
      <trkpt lat="31.62379922735445" lon="-7.9962576641059275">
        <ele>468</ele>
      </trkpt>
      <trkpt lat="31.6237992" lon="-7.9962577">
      </trkpt>
      <trkpt lat="31.630781510152623" lon="-7.986406575542634">
        <ele>468</ele>
      </trkpt>
      <trkpt lat="31.6307815" lon="-7.9864066">
      </trkpt>
      <trkpt lat="31.62432348159309" lon="-7.989419788984379">
      </trkpt>
      <trkpt lat="31.624684" lon="-7.992497">
        <ele>467</ele>
      </trkpt>
      <trkpt lat="31.624085030179323" lon="-7.994972282113469">
      </trkpt>
      <trkpt lat="31.6237213" lon="-7.9964331">
        <ele>468</ele>
      </trkpt>
      <trkpt lat="31.6236951" lon="-7.9965379">
        <ele>468</ele>
      </trkpt>
      <trkpt lat="31.6237678" lon="-7.9964491">
      </trkpt>
      <trkpt lat="31.6413031" lon="-8.0019434">
        <ele>456</ele>
      </trkpt>
      <trkpt lat="31.63051659588785" lon="-8.005377791451899">
      </trkpt>
      <trkpt lat="31.6333314" lon="-8.0123716">
      </trkpt>
      <trkpt lat="31.62187239897459" lon="-7.981559909776244">
        <ele>471</ele>
      </trkpt>
      <trkpt lat="31.624043351371824" lon="-7.9962083136829145">
      </trkpt>
      <trkpt lat="31.626358696360874" lon="-7.988935934486444">
        <ele>468</ele>
      </trkpt>
      <trkpt lat="31.6239374" lon="-7.9960582">
      </trkpt>
      <trkpt lat="31.5264342" lon="-7.9590553">
        <ele>569</ele>
      </trkpt>
      <trkpt lat="31.528665" lon="-7.9638671">
      </trkpt>
      <trkpt lat="31.5272193" lon="-7.9595163">
        <ele>569</ele>
      </trkpt>
      <trkpt lat="31.5286659" lon="-7.9638665">
        <ele>567</ele>
      </trkpt>
      <trkpt lat="31.5270392" lon="-7.9595599">
      </trkpt>
      <trkpt lat="31.52664000299689" lon="-7.958955731898503">
        <ele>569</ele>
      </trkpt>
      <trkpt lat="31.528666" lon="-7.9638663">
        <ele>567</ele>
      </trkpt>
      <trkpt lat="31.526622354742802" lon="-7.958976460360204">
        <ele>569</ele>
      </trkpt>
      <trkpt lat="31.5272319" lon="-7.9604505">
        <ele>567</ele>
      </trkpt>
      <trkpt lat="31.5264755" lon="-7.9589252">
      </trkpt>
      <trkpt lat="31.5265034" lon="-7.9589296">
        <ele>569</ele>
      </trkpt>
      <trkpt lat="31.5286581" lon="-7.9638607">
      </trkpt>
      <trkpt lat="31.5264953" lon="-7.9590532">
        <ele>569</ele>
      </trkpt>
      <trkpt lat="31.5272933" lon="-7.96058">
      </trkpt>
      <trkpt lat="31.5254242" lon="-7.9594084">
      </trkpt>
      <trkpt lat="31.5270364" lon="-7.9595612">
        <ele>569</ele>
      </trkpt>
      <trkpt lat="31.5286874" lon="-7.9639614">
      </trkpt>
      <trkpt lat="31.52647685131992" lon="-7.959510713186232">
      </trkpt>
      <trkpt lat="31.5245273" lon="-7.9563917">
        <ele>573</ele>
      </trkpt>
      <trkpt lat="31.526482" lon="-7.9590011">
      </trkpt>
      <trkpt lat="31.5286726" lon="-7.9638532">
        <ele>567</ele>
      </trkpt>
      <trkpt lat="31.5265225" lon="-7.9596389">
      </trkpt>
      <trkpt lat="31.5286726" lon="-7.9638532">
        <ele>567</ele>
      </trkpt>
      <trkpt lat="31.5254304" lon="-7.9594212">
        <ele>569</ele>
      </trkpt>
      <trkpt lat="31.5268749" lon="-7.9595914">
        <ele>569</ele>
      </trkpt>
      <trkpt lat="31.525426" lon="-7.9594191">
        <ele>569</ele>
      </trkpt>
      <trkpt lat="31.5268712" lon="-7.9595639">
      </trkpt>
      <trkpt lat="31.5286726" lon="-7.9638532">
        <ele>567</ele>
      </trkpt>
      <trkpt lat="31.5364267" lon="-7.9682385">
      </trkpt>
      <trkpt lat="31.661749996602648" lon="-8.014762483483114">
        <ele>430</ele>
      </trkpt>
      <trkpt lat="31.7069783" lon="-7.9898561">
        <ele>409</ele>
      </trkpt>
      <trkpt lat="31.6405161" lon="-8.0015799">
        <ele>456</ele>
      </trkpt>
      <trkpt lat="31.5938616" lon="-7.9860622">
        <ele>487</ele>
      </trkpt>
      <trkpt lat="31.6333436" lon="-8.0123058">
        <ele>459</ele>
      </trkpt>
      <trkpt lat="31.6766489" lon="-8.0488923">
        <ele>409</ele>
      </trkpt>
      <trkpt lat="31.6782632" lon="-8.0483842">
        <ele>403</ele>
      </trkpt>
      <trkpt lat="31.7067459" lon="-7.9893031">
      </trkpt>
      <trkpt lat="31.68803484716409" lon="-8.027554986626546">
        <ele>396</ele>
      </trkpt>
      <trkpt lat="31.6782687" lon="-8.0483762">
      </trkpt>
      <trkpt lat="31.6808734" lon="-8.0507193">
      </trkpt>
      <trkpt lat="31.59400237285432" lon="-8.423124299311604">
        <ele>388</ele>
      </trkpt>
      <trkpt lat="31.593144978625624" lon="-8.427238438400861">
      </trkpt>
      <trkpt lat="31.5583018" lon="-8.8609217">
        <ele>397</ele>
      </trkpt>
      <trkpt lat="31.558940693764193" lon="-8.866241675006089">
      </trkpt>
      <trkpt lat="31.5769858" lon="-8.9843046">
      </trkpt>
      <trkpt lat="31.590745" lon="-9.1064849">
        <ele>367</ele>
      </trkpt>
      <trkpt lat="31.591917607318184" lon="-9.117656250962291">
        <ele>369</ele>
      </trkpt>
      <trkpt lat="31.5477566" lon="-9.3548528">
        <ele>380</ele>
      </trkpt>
      <trkpt lat="31.5279397613645" lon="-9.438005657341504">
        <ele>291</ele>
      </trkpt>
      <trkpt lat="31.55402984349723" lon="-9.623675549328471">
        <ele>153</ele>
      </trkpt>
      <trkpt lat="31.5155171" lon="-9.7683186">
        <ele>11</ele>
      </trkpt>
      <trkpt lat="31.511636608952575" lon="-9.773021703602948">
      </trkpt>
      <trkpt lat="31.509922806527424" lon="-9.77363852471965">
        <ele>-1</ele>
      </trkpt>
      <trkpt lat="31.511800368712667" lon="-9.770726556848372">
        <ele>5</ele>
      </trkpt>
      <trkpt lat="31.5153919" lon="-9.7680598">
        <ele>11</ele>
      </trkpt>
      <trkpt lat="31.5534431" lon="-9.624806">
        <ele>153</ele>
      </trkpt>
      <trkpt lat="31.3801236" lon="-9.7122332">
        <ele>114</ele>
      </trkpt>
      <trkpt lat="31.5136552" lon="-9.7724516">
        <ele>10</ele>
      </trkpt>
      <trkpt lat="31.0870655" lon="-9.8179063">
      </trkpt>
      <trkpt lat="31.0870666" lon="-9.8174299">
      </trkpt>
      <trkpt lat="31.0870223" lon="-9.817397">
      </trkpt>
      <trkpt lat="31.5145675" lon="-9.7699331">
        <ele>10</ele>
      </trkpt>
      <trkpt lat="30.999875683086778" lon="-9.680553528641358">
        <ele>316</ele>
      </trkpt>
      <trkpt lat="30.9998757" lon="-9.6805535">
        <ele>316</ele>
      </trkpt>
      <trkpt lat="30.088565162757263" lon="-9.555178887260729">
        <ele>70</ele>
      </trkpt>
      <trkpt lat="29.7866195" lon="-9.6608077">
        <ele>167</ele>
      </trkpt>
      <trkpt lat="29.7405235" lon="-9.692346">
        <ele>203</ele>
      </trkpt>
      <trkpt lat="29.803705871928226" lon="-9.829561424326132">
        <ele>35</ele>
      </trkpt>
      <trkpt lat="29.78591515195238" lon="-9.847287426819133">
        <ele>59</ele>
      </trkpt>
      <trkpt lat="29.7855182" lon="-9.8472802">
        <ele>59</ele>
      </trkpt>
      <trkpt lat="29.7835714" lon="-9.8535405">
        <ele>27</ele>
      </trkpt>
      <trkpt lat="29.7524788" lon="-9.8874241">
        <ele>34</ele>
      </trkpt>
      <trkpt lat="29.750489839547708" lon="-9.888613974297108">
        <ele>35</ele>
      </trkpt>
      <trkpt lat="29.7183244" lon="-9.9199919">
        <ele>58</ele>
      </trkpt>
      <trkpt lat="29.7125664" lon="-9.9277997">
        <ele>50</ele>
      </trkpt>
      <trkpt lat="29.580516780215312" lon="-10.03531307989573">
        <ele>57</ele>
      </trkpt>
      <trkpt lat="29.38677401471896" lon="-10.166766526637712">
        <ele>16</ele>
      </trkpt>
      <trkpt lat="29.38304155608745" lon="-10.175860195110015">
        <ele>25</ele>
      </trkpt>
      <trkpt lat="29.3433153" lon="-10.1430429">
        <ele>66</ele>
      </trkpt>
      <trkpt lat="29.1798093" lon="-10.0928355">
        <ele>472</ele>
      </trkpt>
      <trkpt lat="28.962263" lon="-10.1100581">
        <ele>240</ele>
      </trkpt>
      <trkpt lat="28.8219595" lon="-10.3046907">
        <ele>205</ele>
      </trkpt>
      <trkpt lat="28.6996134" lon="-10.5540475">
        <ele>207</ele>
      </trkpt>
      <trkpt lat="28.698789803913563" lon="-10.556125568517094">
        <ele>210</ele>
      </trkpt>
      <trkpt lat="28.697697761048996" lon="-10.558063918196005">
        <ele>203</ele>
      </trkpt>
      <trkpt lat="28.4370636" lon="-11.0967831">
        <ele>44</ele>
      </trkpt>
      <trkpt lat="28.3069452" lon="-10.9790244">
        <ele>173</ele>
      </trkpt>
      <trkpt lat="28.3066163" lon="-10.986847">
        <ele>177</ele>
      </trkpt>
      <trkpt lat="28.30679015130348" lon="-10.979268769077592">
        <ele>173</ele>
      </trkpt>
      <trkpt lat="28.149512411448786" lon="-10.88450409522172">
        <ele>266</ele>
      </trkpt>
      <trkpt lat="28.23618712199366" lon="-10.74617960710371">
        <ele>307</ele>
      </trkpt>
      <trkpt lat="28.2361871" lon="-10.7461796">
        <ele>307</ele>
      </trkpt>
      <trkpt lat="28.2684274" lon="-10.4790521">
        <ele>164</ele>
      </trkpt>
      <trkpt lat="28.284913601660996" lon="-10.393535387146255">
        <ele>144</ele>
      </trkpt>
      <trkpt lat="28.326877547972583" lon="-9.979382531667415">
        <ele>158</ele>
      </trkpt>
      <trkpt lat="28.332153" lon="-9.9342427">
        <ele>161</ele>
      </trkpt>
      <trkpt lat="28.3360182686218" lon="-9.901959858124393">
        <ele>180</ele>
      </trkpt>
      <trkpt lat="28.3353885" lon="-9.8917251">
        <ele>180</ele>
      </trkpt>
      <trkpt lat="28.3371338" lon="-9.8808176">
        <ele>177</ele>
      </trkpt>
      <trkpt lat="28.3390677" lon="-9.8817575">
        <ele>176</ele>
      </trkpt>
      <trkpt lat="28.346185" lon="-9.8357047">
        <ele>175</ele>
      </trkpt>
      <trkpt lat="28.3524592" lon="-9.8272581">
        <ele>176</ele>
      </trkpt>
      <trkpt lat="28.4306405" lon="-9.569731">
        <ele>220</ele>
      </trkpt>
      <trkpt lat="28.4455621" lon="-9.5143535">
        <ele>220</ele>
      </trkpt>
      <trkpt lat="28.44544649388148" lon="-9.50817053495242">
        <ele>205</ele>
      </trkpt>
      <trkpt lat="28.4502527" lon="-9.4851605">
        <ele>204</ele>
      </trkpt>
      <trkpt lat="28.4620358" lon="-9.4393789">
        <ele>206</ele>
      </trkpt>
      <trkpt lat="28.4892871" lon="-9.4021537">
      </trkpt>
      <trkpt lat="28.602948326483766" lon="-9.420018689661308">
      </trkpt>
      <trkpt lat="28.615540827132538" lon="-9.443551915957494">
        <ele>330</ele>
      </trkpt>
      <trkpt lat="28.6122059" lon="-9.4320536">
        <ele>324</ele>
      </trkpt>
      <trkpt lat="28.6497513" lon="-9.3733214">
        <ele>312</ele>
      </trkpt>
      <trkpt lat="28.682487" lon="-9.3271216">
        <ele>337</ele>
      </trkpt>
      <trkpt lat="28.6918613" lon="-9.2877274">
        <ele>355</ele>
      </trkpt>
      <trkpt lat="28.8623422" lon="-9.015367">
      </trkpt>
      <trkpt lat="29.0589856" lon="-8.8519352">
        <ele>515</ele>
      </trkpt>
      <trkpt lat="29.0598962" lon="-8.8524078">
        <ele>519</ele>
      </trkpt>
      <trkpt lat="29.0598965" lon="-8.8524082">
      </trkpt>
      <trkpt lat="29.058934772885696" lon="-8.851979550387073">
        <ele>515</ele>
      </trkpt>
      <trkpt lat="29.0590328" lon="-8.8517851">
      </trkpt>
      <trkpt lat="29.0590876" lon="-8.8518212">
        <ele>515</ele>
      </trkpt>
      <trkpt lat="29.05899" lon="-8.8519479">
      </trkpt>
      <trkpt lat="29.0593514" lon="-8.8516281">
        <ele>515</ele>
      </trkpt>
      <trkpt lat="29.0591827" lon="-8.8519062">
        <ele>515</ele>
      </trkpt>
      <trkpt lat="29.0178944" lon="-8.8740504">
      </trkpt>
      <trkpt lat="28.7164783" lon="-9.2379579">
        <ele>389</ele>
      </trkpt>
      <trkpt lat="28.784999" lon="-9.2379255">
      </trkpt>
      <trkpt lat="28.9154977" lon="-9.1841934">
        <ele>619</ele>
      </trkpt>
      <trkpt lat="29.030177402398436" lon="-8.902636015147609">
      </trkpt>
      <trkpt lat="29.0287671" lon="-8.9010399">
        <ele>509</ele>
      </trkpt>
      <trkpt lat="29.0276378" lon="-8.8995991">
        <ele>488</ele>
      </trkpt>
      <trkpt lat="29.0167574" lon="-8.8937666">
      </trkpt>
      <trkpt lat="29.0144332" lon="-8.8773811">
        <ele>476</ele>
      </trkpt>
      <trkpt lat="29.01668802321846" lon="-8.874482630466735">
      </trkpt>
      <trkpt lat="29.0588699" lon="-8.8520908">
        <ele>519</ele>
      </trkpt>
      <trkpt lat="29.058960014655497" lon="-8.852024195370346">
      </trkpt>
      <trkpt lat="29.0589713" lon="-8.8518784">
      </trkpt>
      <trkpt lat="29.0589315" lon="-8.8520189">
        <ele>515</ele>
      </trkpt>
      <trkpt lat="29.0588295" lon="-8.8519284">
        <ele>515</ele>
      </trkpt>
      <trkpt lat="29.057410167080132" lon="-8.85578209460905">
      </trkpt>
      <trkpt lat="29.0799346" lon="-8.8872089">
        <ele>543</ele>
      </trkpt>
      <trkpt lat="29.15463348660816" lon="-8.956655735820766">
      </trkpt>
      <trkpt lat="29.1885802" lon="-8.9755185">
        <ele>732</ele>
      </trkpt>
      <trkpt lat="29.27912287955591" lon="-8.988616517241164">
      </trkpt>
      <trkpt lat="29.3346323" lon="-9.0180341">
        <ele>1173</ele>
      </trkpt>
      <trkpt lat="29.3568629" lon="-9.0703831">
      </trkpt>
      <trkpt lat="29.4085061" lon="-9.0638245">
        <ele>1248</ele>
      </trkpt>
      <trkpt lat="29.4995706" lon="-9.0109916">
      </trkpt>
      <trkpt lat="29.46439749034792" lon="-8.837277577111884">
        <ele>1041</ele>
      </trkpt>
      <trkpt lat="29.4655518" lon="-8.8505959">
        <ele>1044</ele>
      </trkpt>
      <trkpt lat="29.4684104" lon="-8.8483798">
        <ele>1058</ele>
      </trkpt>
      <trkpt lat="29.59687832764931" lon="-8.907976762050897">
      </trkpt>
      <trkpt lat="29.6313403" lon="-8.9438315">
        <ele>1501</ele>
      </trkpt>
      <trkpt lat="29.7219101" lon="-8.9849011">
      </trkpt>
      <trkpt lat="29.721909445329135" lon="-8.984900442382784">
        <ele>999</ele>
      </trkpt>
      <trkpt lat="29.7221642" lon="-8.9743214">
      </trkpt>
      <trkpt lat="29.7217395" lon="-8.9849543">
        <ele>999</ele>
      </trkpt>
      <trkpt lat="29.718872" lon="-8.9793725">
      </trkpt>
      <trkpt lat="29.72183116671388" lon="-8.984873558942876">
        <ele>999</ele>
      </trkpt>
      <trkpt lat="29.7220572" lon="-8.9816295">
      </trkpt>
      <trkpt lat="29.7241134" lon="-8.9715552">
        <ele>992</ele>
      </trkpt>
      <trkpt lat="29.72295094332626" lon="-8.969436486032455">
        <ele>993</ele>
      </trkpt>
      <trkpt lat="29.7256429" lon="-8.9694525">
      </trkpt>
      <trkpt lat="29.7241915" lon="-8.9694139">
        <ele>993</ele>
      </trkpt>
      <trkpt lat="29.7190274" lon="-8.9730155">
      </trkpt>
      <trkpt lat="29.7193113" lon="-8.971261">
        <ele>1001</ele>
      </trkpt>
      <trkpt lat="29.7204961" lon="-8.9724016">
        <ele>1001</ele>
      </trkpt>
      <trkpt lat="29.7215189" lon="-8.9755661">
      </trkpt>
      <trkpt lat="29.7218441" lon="-8.9793825">
        <ele>989</ele>
      </trkpt>
      <trkpt lat="29.721893082444787" lon="-8.984915942028687">
      </trkpt>
      <trkpt lat="29.7218931" lon="-8.9849159">
        <ele>999</ele>
      </trkpt>
      <trkpt lat="29.7206412" lon="-8.9809548">
      </trkpt>
      <trkpt lat="29.722086585991942" lon="-8.98490315693447">
        <ele>999</ele>
      </trkpt>
      <trkpt lat="29.7220866" lon="-8.9849032">
        <ele>999</ele>
      </trkpt>
      <trkpt lat="29.7203997" lon="-8.9792288">
      </trkpt>
      <trkpt lat="29.7203997" lon="-8.9792288">
      </trkpt>
      <trkpt lat="29.72197455702449" lon="-8.984911183776799">
        <ele>999</ele>
      </trkpt>
      <trkpt lat="29.7206412" lon="-8.9809548">
      </trkpt>
      <trkpt lat="29.718122" lon="-8.9741415">
        <ele>1021</ele>
      </trkpt>
      <trkpt lat="29.7206412" lon="-8.9809548">
      </trkpt>
      <trkpt lat="29.7206412" lon="-8.9809548">
      </trkpt>
      <trkpt lat="29.72199521523978" lon="-8.984847034939921">
        <ele>999</ele>
      </trkpt>
      <trkpt lat="29.7219423" lon="-8.9848913">
        <ele>999</ele>
      </trkpt>
      <trkpt lat="29.7206412" lon="-8.9809548">
      </trkpt>
      <trkpt lat="29.721891" lon="-8.9848493">
        <ele>999</ele>
      </trkpt>
      <trkpt lat="29.7203997" lon="-8.9792288">
      </trkpt>
      <trkpt lat="29.72194672390787" lon="-8.984909330949872">
        <ele>999</ele>
      </trkpt>
      <trkpt lat="29.7206412" lon="-8.9809548">
      </trkpt>
      <trkpt lat="29.7203997" lon="-8.9792288">
        <ele>992</ele>
      </trkpt>
      <trkpt lat="29.7218712" lon="-8.9849085">
      </trkpt>
      <trkpt lat="29.7188604" lon="-8.9793649">
        <ele>992</ele>
      </trkpt>
      <trkpt lat="29.7206412" lon="-8.9809548">
      </trkpt>
      <trkpt lat="29.7206412" lon="-8.9809548">
        <ele>992</ele>
      </trkpt>
      <trkpt lat="29.72183224110231" lon="-8.984882287919055">
        <ele>999</ele>
      </trkpt>
      <trkpt lat="29.7203997" lon="-8.9792288">
      </trkpt>
      <trkpt lat="29.7203997" lon="-8.9792288">
        <ele>992</ele>
      </trkpt>
      <trkpt lat="29.7206412" lon="-8.9809548">
      </trkpt>
      <trkpt lat="29.7218185" lon="-8.9849291">
      </trkpt>
      <trkpt lat="29.7206412" lon="-8.9809548">
        <ele>992</ele>
      </trkpt>
      <trkpt lat="29.721869696721978" lon="-8.984952033894537">
      </trkpt>
      <trkpt lat="29.7206412" lon="-8.9809548">
        <ele>992</ele>
      </trkpt>
      <trkpt lat="29.721909850157417" lon="-8.984914029064852">
        <ele>999</ele>
      </trkpt>
      <trkpt lat="29.7203997" lon="-8.9792288">
      </trkpt>
      <trkpt lat="29.7206412" lon="-8.9809548">
        <ele>992</ele>
      </trkpt>
      <trkpt lat="29.7203997" lon="-8.9792288">
      </trkpt>
      <trkpt lat="29.7212029" lon="-8.9789599">
        <ele>991</ele>
      </trkpt>
      <trkpt lat="29.7184589" lon="-8.9741442">
        <ele>1021</ele>
      </trkpt>
      <trkpt lat="29.7190289" lon="-8.9708029">
      </trkpt>
      <trkpt lat="29.7202535" lon="-8.9738637">
        <ele>1006</ele>
      </trkpt>
      <trkpt lat="29.7221309" lon="-8.976839">
      </trkpt>
      <trkpt lat="29.7206412" lon="-8.9809548">
        <ele>992</ele>
      </trkpt>
      <trkpt lat="29.72201837759006" lon="-8.984923371259335">
      </trkpt>
      <trkpt lat="29.721886" lon="-8.9848363">
        <ele>999</ele>
      </trkpt>
      <trkpt lat="29.7206412" lon="-8.9809548">
      </trkpt>
      <trkpt lat="29.7219265" lon="-8.9848922">
        <ele>999</ele>
      </trkpt>
      <trkpt lat="29.72190040688534" lon="-8.984935395450368">
        <ele>999</ele>
      </trkpt>
      <trkpt lat="29.7206412" lon="-8.9809548">
      </trkpt>
      <trkpt lat="29.7206412" lon="-8.9809548">
        <ele>992</ele>
      </trkpt>
      <trkpt lat="29.7206412" lon="-8.9809548">
      </trkpt>
      <trkpt lat="29.7219386238331" lon="-8.98486697990696">
        <ele>999</ele>
      </trkpt>
      <trkpt lat="29.7219172" lon="-8.984897">
      </trkpt>
      <trkpt lat="29.7219398" lon="-8.9849129">
        <ele>999</ele>
      </trkpt>
      <trkpt lat="29.7203527" lon="-8.9799192">
      </trkpt>
      <trkpt lat="29.721896057066594" lon="-8.984885841797217">
        <ele>999</ele>
      </trkpt>
      <trkpt lat="29.7206412" lon="-8.9809548">
      </trkpt>
      <trkpt lat="29.722034040504898" lon="-8.984903666463302">
        <ele>999</ele>
      </trkpt>
      <trkpt lat="29.7206412" lon="-8.9809548">
        <ele>992</ele>
      </trkpt>
      <trkpt lat="29.721895299308414" lon="-8.984876550704394">
      </trkpt>
      <trkpt lat="29.7219658" lon="-8.9849149">
        <ele>999</ele>
      </trkpt>
      <trkpt lat="29.72184802465405" lon="-8.984906755217029">
      </trkpt>
      <trkpt lat="29.7188204" lon="-8.979399">
        <ele>992</ele>
      </trkpt>
      <trkpt lat="29.7188204" lon="-8.979399">
      </trkpt>
      <trkpt lat="29.7188111" lon="-8.9793931">
        <ele>992</ele>
      </trkpt>
      <trkpt lat="29.718819" lon="-8.9794014">
      </trkpt>
      <trkpt lat="29.7188103" lon="-8.9793973">
        <ele>992</ele>
      </trkpt>
      <trkpt lat="29.7206412" lon="-8.9809548">
      </trkpt>
      <trkpt lat="29.7216753" lon="-8.9848472">
        <ele>999</ele>
      </trkpt>
      <trkpt lat="29.7203997" lon="-8.9792288">
        <ele>992</ele>
      </trkpt>
      <trkpt lat="29.72193033112155" lon="-8.984872130421051">
        <ele>999</ele>
      </trkpt>
      <trkpt lat="29.72184253357401" lon="-8.984982106468665">
        <ele>999</ele>
      </trkpt>
      <trkpt lat="29.7206412" lon="-8.9809548">
        <ele>992</ele>
      </trkpt>
      <trkpt lat="29.721881600134704" lon="-8.985025969858292">
      </trkpt>
      <trkpt lat="29.7218816" lon="-8.985026">
      </trkpt>
      <trkpt lat="29.7205942" lon="-8.9816452">
        <ele>995</ele>
      </trkpt>
      <trkpt lat="29.721866283737903" lon="-8.984930715821175">
      </trkpt>
      <trkpt lat="29.7206412" lon="-8.9809548">
        <ele>992</ele>
      </trkpt>
      <trkpt lat="29.7188009" lon="-8.9794036">
      </trkpt>
      <trkpt lat="29.7267344" lon="-8.9724801">
      </trkpt>
      <trkpt lat="29.732779590527397" lon="-8.9678446207725">
        <ele>976</ele>
      </trkpt>
      <trkpt lat="29.7285435" lon="-8.8426502">
        <ele>1612</ele>
      </trkpt>
      <trkpt lat="29.74088264901483" lon="-8.83307443154257">
        <ele>1595</ele>
      </trkpt>
      <trkpt lat="29.773575403762617" lon="-8.746938777025221">
        <ele>1623</ele>
      </trkpt>
      <trkpt lat="29.77300590610631" lon="-8.674356197548247">
        <ele>1799</ele>
      </trkpt>
      <trkpt lat="29.7953132" lon="-8.6148648">
      </trkpt>
      <trkpt lat="29.8322961668942" lon="-8.569483121877868">
        <ele>1205</ele>
      </trkpt>
      <trkpt lat="29.8306008" lon="-8.5647968">
      </trkpt>
      <trkpt lat="29.7442086" lon="-8.5170086">
        <ele>1007</ele>
      </trkpt>
      <trkpt lat="29.646543177612752" lon="-8.34846805802933">
      </trkpt>
      <trkpt lat="29.7326352" lon="-7.9733811">
        <ele>669</ele>
      </trkpt>
      <trkpt lat="29.7537615" lon="-7.9746287">
      </trkpt>
      <trkpt lat="29.9066457" lon="-7.3182175">
        <ele>586</ele>
      </trkpt>
      <trkpt lat="29.905369" lon="-7.316386">
      </trkpt>
      <trkpt lat="29.84519358095588" lon="-7.233460025194846">
        <ele>514</ele>
      </trkpt>
      <trkpt lat="30.0275344" lon="-6.9014707">
      </trkpt>
      <trkpt lat="29.9260482" lon="-6.8642539">
        <ele>567</ele>
      </trkpt>
      <trkpt lat="30.0668087" lon="-6.8681046">
        <ele>650</ele>
      </trkpt>
      <trkpt lat="30.0668087" lon="-6.8681046">
        <ele>650</ele>
      </trkpt>
      <trkpt lat="29.898729750791762" lon="-6.882323134991869">
        <ele>568</ele>
      </trkpt>
      <trkpt lat="29.8987038" lon="-6.8823333">
        <ele>568</ele>
      </trkpt>
      <trkpt lat="30.0668087" lon="-6.8681046">
        <ele>650</ele>
      </trkpt>
      <trkpt lat="29.8986646788553" lon="-6.88231975360158">
        <ele>568</ele>
      </trkpt>
      <trkpt lat="29.898713107845143" lon="-6.882259247749306">
        <ele>568</ele>
      </trkpt>
      <trkpt lat="29.898699" lon="-6.882468">
      </trkpt>
      <trkpt lat="29.8987324" lon="-6.8823136">
        <ele>568</ele>
      </trkpt>
      <trkpt lat="29.89872842950413" lon="-6.882295352145135">
        <ele>568</ele>
      </trkpt>
      <trkpt lat="30.0668087" lon="-6.8681046">
        <ele>650</ele>
      </trkpt>
      <trkpt lat="30.0668087" lon="-6.8681046">
        <ele>650</ele>
      </trkpt>
      <trkpt lat="30.0668087" lon="-6.8681046">
      </trkpt>
      <trkpt lat="30.0668087" lon="-6.8681046">
      </trkpt>
      <trkpt lat="30.0668087" lon="-6.8681046">
        <ele>650</ele>
      </trkpt>
      <trkpt lat="30.0668087" lon="-6.8681046">
      </trkpt>
      <trkpt lat="29.898665924519754" lon="-6.882173282145542">
      </trkpt>
      <trkpt lat="29.7950391" lon="-6.8683547">
        <ele>490</ele>
      </trkpt>
      <trkpt lat="29.74197992492981" lon="-6.841906719594406">
        <ele>466</ele>
      </trkpt>
      <trkpt lat="29.742712751257976" lon="-6.595270171688953">
        <ele>482</ele>
      </trkpt>
      <trkpt lat="29.749564066838" lon="-6.592024284186899">
      </trkpt>
      <trkpt lat="29.9200014" lon="-6.8329374">
      </trkpt>
      <trkpt lat="29.920017998601384" lon="-6.833037178126307">
        <ele>552</ele>
      </trkpt>
      <trkpt lat="29.92001215106383" lon="-6.832937704565541">
        <ele>552</ele>
      </trkpt>
      <trkpt lat="29.9200581" lon="-6.8328969">
        <ele>552</ele>
      </trkpt>
      <trkpt lat="29.9199175" lon="-6.8329656">
        <ele>552</ele>
      </trkpt>
      <trkpt lat="29.919914779305742" lon="-6.832961867423192">
        <ele>552</ele>
      </trkpt>
      <trkpt lat="29.9199265" lon="-6.8328262">
      </trkpt>
      <trkpt lat="29.874276421749325" lon="-6.549090459013955">
        <ele>461</ele>
      </trkpt>
      <trkpt lat="29.8733416" lon="-6.5469341">
      </trkpt>
      <trkpt lat="29.873253961915513" lon="-6.54691991734309">
      </trkpt>
      <trkpt lat="29.8731938" lon="-6.5470016">
        <ele>461</ele>
      </trkpt>
      <trkpt lat="29.87318952539719" lon="-6.547064396595108">
      </trkpt>
      <trkpt lat="29.87318952539719" lon="-6.547064396595108">
        <ele>461</ele>
      </trkpt>
      <trkpt lat="29.8731277" lon="-6.5470514">
      </trkpt>
      <trkpt lat="29.873206622376905" lon="-6.546928086516617">
      </trkpt>
      <trkpt lat="29.8484986" lon="-6.5793133">
        <ele>459</ele>
      </trkpt>
      <trkpt lat="29.85418933101387" lon="-6.580922816225881">
      </trkpt>
      <trkpt lat="29.90321352963405" lon="-6.5051906070268615">
      </trkpt>
      <trkpt lat="29.887792400503585" lon="-6.246807562854931">
      </trkpt>
      <trkpt lat="29.869340397008315" lon="-6.2327503002223">
        <ele>478</ele>
      </trkpt>
      <trkpt lat="29.869223225688163" lon="-6.23264931365994">
      </trkpt>
      <trkpt lat="29.86927501642151" lon="-6.232755563897711">
      </trkpt>
      <trkpt lat="29.830135474376526" lon="-6.185921945733031">
        <ele>486</ele>
      </trkpt>
      <trkpt lat="29.82026026954358" lon="-6.181768801541974">
      </trkpt>
      <trkpt lat="29.8189861" lon="-6.18053">
        <ele>485</ele>
      </trkpt>
      <trkpt lat="29.815446822256842" lon="-6.180849247970315">
      </trkpt>
      <trkpt lat="29.81291929371683" lon="-6.178406110422407">
      </trkpt>
      <trkpt lat="29.8129193" lon="-6.1784061">
      </trkpt>
      <trkpt lat="29.8154594" lon="-6.1798343">
        <ele>495</ele>
      </trkpt>
      <trkpt lat="29.819059" lon="-6.1806005">
      </trkpt>
      <trkpt lat="29.819135270655412" lon="-6.180600707657329">
      </trkpt>
      <trkpt lat="29.8190565" lon="-6.1805848">
        <ele>485</ele>
      </trkpt>
      <trkpt lat="29.8190757" lon="-6.1806126">
      </trkpt>
      <trkpt lat="29.8190858" lon="-6.1805763">
        <ele>485</ele>
      </trkpt>
      <trkpt lat="29.81897966131163" lon="-6.180650243790108">
      </trkpt>
      <trkpt lat="29.8190518" lon="-6.1806175">
      </trkpt>
      <trkpt lat="29.828689502206593" lon="-6.17393861384142">
        <ele>489</ele>
      </trkpt>
      <trkpt lat="29.82144878585742" lon="-6.153533949515864">
      </trkpt>
      <trkpt lat="29.839281671955327" lon="-6.104812159486674">
        <ele>519</ele>
      </trkpt>
      <trkpt lat="29.849818933986526" lon="-6.00359497996553">
        <ele>525</ele>
      </trkpt>
      <trkpt lat="29.848964369430618" lon="-5.9585710971796955">
        <ele>524</ele>
      </trkpt>
      <trkpt lat="29.8285066" lon="-5.7328757">
      </trkpt>
      <trkpt lat="29.8211867" lon="-5.720433">
        <ele>543</ele>
      </trkpt>
      <trkpt lat="29.83919886558581" lon="-5.744796398359666">
      </trkpt>
      <trkpt lat="29.8391794" lon="-5.7447965">
        <ele>545</ele>
      </trkpt>
      <trkpt lat="29.8392165" lon="-5.7448716">
      </trkpt>
      <trkpt lat="29.8391976" lon="-5.7448641">
        <ele>545</ele>
      </trkpt>
      <trkpt lat="29.8392855" lon="-5.7448199">
      </trkpt>
      <trkpt lat="29.8392455" lon="-5.7448615">
        <ele>545</ele>
      </trkpt>
      <trkpt lat="29.8393311" lon="-5.7447313">
      </trkpt>
      <trkpt lat="29.8391999" lon="-5.7448152">
        <ele>545</ele>
      </trkpt>
      <trkpt lat="29.839195839491893" lon="-5.7448373870293095">
      </trkpt>
      <trkpt lat="29.839170749675258" lon="-5.744615805961816">
        <ele>545</ele>
      </trkpt>
      <trkpt lat="29.8391706" lon="-5.7449296">
      </trkpt>
      <trkpt lat="29.8391735" lon="-5.7448642">
        <ele>545</ele>
      </trkpt>
      <trkpt lat="29.8265593" lon="-5.716155">
      </trkpt>
      <trkpt lat="29.829323" lon="-5.7121413">
        <ele>546</ele>
      </trkpt>
      <trkpt lat="29.85081066141237" lon="-5.614469722813269">
      </trkpt>
      <trkpt lat="29.90821065863515" lon="-5.608047422304245">
        <ele>625</ele>
      </trkpt>
      <trkpt lat="30.120123928108615" lon="-5.630821310933111">
      </trkpt>
      <trkpt lat="30.1201229" lon="-5.6308207">
        <ele>850</ele>
      </trkpt>
      <trkpt lat="30.3282114" lon="-5.8391643">
      </trkpt>
      <trkpt lat="30.3305893" lon="-5.838364">
      </trkpt>
      <trkpt lat="30.3143488" lon="-5.8304472">
        <ele>721</ele>
      </trkpt>
      <trkpt lat="30.3141334" lon="-5.8304571">
      </trkpt>
      <trkpt lat="30.3402966" lon="-5.8373979">
      </trkpt>
      <trkpt lat="30.3389527" lon="-5.8378169">
        <ele>731</ele>
      </trkpt>
      <trkpt lat="30.3418368" lon="-5.839175">
      </trkpt>
      <trkpt lat="30.3403263" lon="-5.8370585">
        <ele>726</ele>
      </trkpt>
      <trkpt lat="30.3180722" lon="-5.8289506">
      </trkpt>
      <trkpt lat="30.3140254" lon="-5.8304343">
      </trkpt>
      <trkpt lat="30.3140687" lon="-5.8303556">
        <ele>721</ele>
      </trkpt>
      <trkpt lat="30.3402619" lon="-5.8377767">
      </trkpt>
      <trkpt lat="30.3378949" lon="-5.8376502">
      </trkpt>
      <trkpt lat="30.3294484" lon="-5.8379984">
        <ele>735</ele>
      </trkpt>
      <trkpt lat="30.3217224" lon="-5.8405353">
      </trkpt>
      <trkpt lat="30.3236194" lon="-5.8381076">
      </trkpt>
      <trkpt lat="30.3142857" lon="-5.8298721">
        <ele>721</ele>
      </trkpt>
      <trkpt lat="30.3403037" lon="-5.8376208">
        <ele>730</ele>
      </trkpt>
      <trkpt lat="30.3389695" lon="-5.8368873">
      </trkpt>
      <trkpt lat="30.3401825" lon="-5.8378255">
      </trkpt>
      <trkpt lat="30.3385798" lon="-5.8375308">
        <ele>731</ele>
      </trkpt>
      <trkpt lat="30.3358959" lon="-5.8374525">
      </trkpt>
      <trkpt lat="30.339482215992483" lon="-5.837288272484459">
        <ele>731</ele>
      </trkpt>
      <trkpt lat="30.3322093" lon="-5.8372388">
      </trkpt>
      <trkpt lat="30.3245838" lon="-5.8400372">
      </trkpt>
      <trkpt lat="30.3199165" lon="-5.8364653">
        <ele>718</ele>
      </trkpt>
      <trkpt lat="30.318023" lon="-5.8291596">
        <ele>730</ele>
      </trkpt>
      <trkpt lat="30.3141761" lon="-5.8303515">
      </trkpt>
      <trkpt lat="30.34007315566614" lon="-5.837176764695742">
      </trkpt>
      <trkpt lat="30.3312821" lon="-5.8375721">
      </trkpt>
      <trkpt lat="30.3294012" lon="-5.8388952">
        <ele>735</ele>
      </trkpt>
      <trkpt lat="30.3351602" lon="-5.8371868">
      </trkpt>
      <trkpt lat="30.3375224" lon="-5.8367472">
      </trkpt>
      <trkpt lat="30.340293338161473" lon="-5.837472243445595">
        <ele>726</ele>
      </trkpt>
      <trkpt lat="30.3386961" lon="-5.8368991">
      </trkpt>
      <trkpt lat="30.340334653438926" lon="-5.837162183774542">
        <ele>726</ele>
      </trkpt>
      <trkpt lat="30.3141446" lon="-5.8304476">
      </trkpt>
      <trkpt lat="30.3402272" lon="-5.8375337">
        <ele>730</ele>
      </trkpt>
      <trkpt lat="30.3370418" lon="-5.83764">
      </trkpt>
      <trkpt lat="30.3312216" lon="-5.8375903">
      </trkpt>
      <trkpt lat="30.3311598" lon="-5.8391681">
        <ele>735</ele>
      </trkpt>
      <trkpt lat="30.33012132911753" lon="-5.837998579183319">
        <ele>735</ele>
      </trkpt>
      <trkpt lat="30.388417060280236" lon="-5.685213419735854">
      </trkpt>
      <trkpt lat="30.52731593712744" lon="-5.358263933645064">
        <ele>814</ele>
      </trkpt>
      <trkpt lat="30.58857495667467" lon="-5.349052014438471">
      </trkpt>
      <trkpt lat="30.7263898" lon="-5.5271294">
        <ele>828</ele>
      </trkpt>
      <trkpt lat="30.779873502338855" lon="-5.525848587422298">
        <ele>837</ele>
      </trkpt>
      <trkpt lat="30.78079681313202" lon="-5.524283323491129">
      </trkpt>
      <trkpt lat="30.7793446" lon="-5.4183604">
      </trkpt>
      <trkpt lat="30.779240594146106" lon="-5.418388578528339">
        <ele>820</ele>
      </trkpt>
      <trkpt lat="30.7796684" lon="-5.4180237">
      </trkpt>
      <trkpt lat="30.77917172881371" lon="-5.418487364328097">
        <ele>820</ele>
      </trkpt>
      <trkpt lat="30.779179581877827" lon="-5.418526874016079">
        <ele>820</ele>
      </trkpt>
      <trkpt lat="30.779194310358914" lon="-5.418397058383599">
      </trkpt>
      <trkpt lat="30.6560669" lon="-5.4746682">
      </trkpt>
      <trkpt lat="30.712779827489296" lon="-5.324238112190097">
        <ele>840</ele>
      </trkpt>
      <trkpt lat="30.711561563944695" lon="-5.305181058336636">
      </trkpt>
      <trkpt lat="30.6801524" lon="-5.2207159">
        <ele>750</ele>
      </trkpt>
      <trkpt lat="30.680172500825996" lon="-5.220740629754518">
      </trkpt>
      <trkpt lat="30.6801742" lon="-5.2208233">
      </trkpt>
      <trkpt lat="30.6800485" lon="-5.2207846">
        <ele>750</ele>
      </trkpt>
      <trkpt lat="30.6800959" lon="-5.2207064">
        <ele>750</ele>
      </trkpt>
      <trkpt lat="30.6801274" lon="-5.2207858">
      </trkpt>
      <trkpt lat="30.6799823" lon="-5.2208385">
      </trkpt>
      <trkpt lat="30.680027295516492" lon="-5.220790374809925">
        <ele>750</ele>
      </trkpt>
      <trkpt lat="30.679988358255507" lon="-5.220815512406393">
        <ele>750</ele>
      </trkpt>
      <trkpt lat="30.680016241856084" lon="-5.220760086424893">
        <ele>750</ele>
      </trkpt>
      <trkpt lat="30.6893112" lon="-5.2147603">
        <ele>753</ele>
      </trkpt>
      <trkpt lat="30.6385668" lon="-5.1008474">
      </trkpt>
      <trkpt lat="30.63577699948237" lon="-5.092465018470407">
        <ele>702</ele>
      </trkpt>
      <trkpt lat="30.6239024" lon="-5.0574491">
      </trkpt>
      <trkpt lat="30.630618027252805" lon="-4.805103771946602">
        <ele>668</ele>
      </trkpt>
      <trkpt lat="30.6306066" lon="-4.8050424">
      </trkpt>
      <trkpt lat="30.6279289" lon="-4.8085859">
        <ele>687</ele>
      </trkpt>
      <trkpt lat="30.628885145663542" lon="-4.807353281712587">
      </trkpt>
      <trkpt lat="30.6306418" lon="-4.8050232">
        <ele>668</ele>
      </trkpt>
      <trkpt lat="30.6306403" lon="-4.8051205">
      </trkpt>
      <trkpt lat="30.6305617" lon="-4.8051297">
        <ele>668</ele>
      </trkpt>
      <trkpt lat="30.630580334408926" lon="-4.805062292307788">
      </trkpt>
      <trkpt lat="30.6290621265053" lon="-4.80643786125613">
        <ele>688</ele>
      </trkpt>
      <trkpt lat="30.6306037" lon="-4.8050361">
      </trkpt>
      <trkpt lat="30.64060147522094" lon="-4.782306448717496">
      </trkpt>
      <trkpt lat="30.64167666322782" lon="-4.740010832510293">
        <ele>645</ele>
      </trkpt>
      <trkpt lat="30.669004949776337" lon="-4.663546373238695">
        <ele>661</ele>
      </trkpt>
      <trkpt lat="30.6306451" lon="-4.8049801">
      </trkpt>
      <trkpt lat="30.6294827" lon="-4.8058895">
        <ele>668</ele>
      </trkpt>
      <trkpt lat="30.6306317" lon="-4.8049963">
        <ele>668</ele>
      </trkpt>
      <trkpt lat="30.630616" lon="-4.8050726">
        <ele>668</ele>
      </trkpt>
      <trkpt lat="30.628595151523157" lon="-4.807557364744863">
        <ele>688</ele>
      </trkpt>
      <trkpt lat="30.630409" lon="-4.8047938">
      </trkpt>
      <trkpt lat="30.6305682432387" lon="-4.8050578407737925">
        <ele>668</ele>
      </trkpt>
      <trkpt lat="30.6286494" lon="-4.8074781">
      </trkpt>
      <trkpt lat="30.6305662" lon="-4.8050867">
        <ele>668</ele>
      </trkpt>
      <trkpt lat="30.633501803710104" lon="-4.807529252161103">
      </trkpt>
      <trkpt lat="30.6335087" lon="-4.8074155">
        <ele>660</ele>
      </trkpt>
      <trkpt lat="30.63690916851587" lon="-4.808249363575848">
      </trkpt>
      <trkpt lat="30.63959821744518" lon="-4.789440314450825">
        <ele>652</ele>
      </trkpt>
      <trkpt lat="30.6395687" lon="-4.7894996">
      </trkpt>
      <trkpt lat="30.6682578" lon="-4.6858335">
      </trkpt>
      <trkpt lat="30.6682589" lon="-4.6858377">
        <ele>651</ele>
      </trkpt>
      <trkpt lat="30.685095428094282" lon="-4.70828441152632">
        <ele>645</ele>
      </trkpt>
      <trkpt lat="30.9490114311074" lon="-4.904912085650509">
      </trkpt>
      <trkpt lat="31.09305268401321" lon="-4.876228137996336">
        <ele>748</ele>
      </trkpt>
      <trkpt lat="31.28132" lon="-4.2715614">
      </trkpt>
      <trkpt lat="31.142799" lon="-4.0285183">
        <ele>714</ele>
      </trkpt>
      <trkpt lat="31.1915372" lon="-4.0355401">
      </trkpt>
      <trkpt lat="31.174859511642918" lon="-4.0333403399061964">
      </trkpt>
      <trkpt lat="31.1881139" lon="-4.0307524">
        <ele>719</ele>
      </trkpt>
      <trkpt lat="31.174645506946213" lon="-4.033526395146653">
      </trkpt>
      <trkpt lat="31.1746455" lon="-4.0335264">
        <ele>720</ele>
      </trkpt>
      <trkpt lat="31.1747475" lon="-4.0334972">
      </trkpt>
      <trkpt lat="31.174763128621674" lon="-4.033492329361317">
      </trkpt>
      <trkpt lat="31.1747372" lon="-4.0335212">
        <ele>720</ele>
      </trkpt>
      <trkpt lat="31.1747079" lon="-4.0335281">
      </trkpt>
      <trkpt lat="31.174572230870382" lon="-4.033512054628721">
      </trkpt>
      <trkpt lat="31.174557879084773" lon="-4.033511744812094">
      </trkpt>
      <trkpt lat="31.174617" lon="-4.0335954">
        <ele>720</ele>
      </trkpt>
      <trkpt lat="31.157115611688482" lon="-4.0297762288982835">
      </trkpt>
      <trkpt lat="31.140734" lon="-4.0259652">
        <ele>711</ele>
      </trkpt>
      <trkpt lat="31.13579788677588" lon="-4.051660256401522">
      </trkpt>
      <trkpt lat="31.1021579" lon="-4.0181916">
        <ele>697</ele>
      </trkpt>
      <trkpt lat="31.09502" lon="-4.0113516">
      </trkpt>
      <trkpt lat="31.0972322" lon="-4.0101671">
      </trkpt>
      <trkpt lat="30.9044654" lon="-3.8542604">
        <ele>737</ele>
      </trkpt>
      <trkpt lat="30.904358959085844" lon="-3.8542869105439785">
      </trkpt>
      <trkpt lat="30.8945587" lon="-3.8476188">
      </trkpt>
      <trkpt lat="30.904459068838953" lon="-3.8542177895790735">
        <ele>737</ele>
      </trkpt>
      <trkpt lat="30.9044342" lon="-3.8543631">
      </trkpt>
      <trkpt lat="30.9044116" lon="-3.8543297">
      </trkpt>
      <trkpt lat="30.9044278" lon="-3.8542465">
        <ele>737</ele>
      </trkpt>
      <trkpt lat="30.938755876120783" lon="-3.839047508398322">
      </trkpt>
      <trkpt lat="30.9542979" lon="-3.7645645">
        <ele>723</ele>
      </trkpt>
      <trkpt lat="30.961206612768322" lon="-3.727168487492691">
      </trkpt>
      <trkpt lat="30.9612063" lon="-3.7271677">
      </trkpt>
      <trkpt lat="30.96244231638824" lon="-3.7202574472443124">
      </trkpt>
      <trkpt lat="30.968786" lon="-3.7241907">
        <ele>728</ele>
      </trkpt>
      <trkpt lat="30.9657565" lon="-3.7224581">
      </trkpt>
      <trkpt lat="30.962481830593585" lon="-3.720192245966722">
        <ele>737</ele>
      </trkpt>
      <trkpt lat="30.9622858" lon="-3.7202356">
      </trkpt>
      <trkpt lat="30.962306431641395" lon="-3.7201799611210937">
      </trkpt>
      <trkpt lat="30.97718074309499" lon="-3.72409286020224">
        <ele>731</ele>
      </trkpt>
      <trkpt lat="30.974587532499825" lon="-3.696576187341311">
        <ele>742</ele>
      </trkpt>
      <trkpt lat="30.9484437" lon="-3.7845746">
      </trkpt>
      <trkpt lat="30.9523151" lon="-3.8149372">
      </trkpt>
      <trkpt lat="30.938685418394876" lon="-3.875212276139079">
        <ele>697</ele>
      </trkpt>
      <trkpt lat="31.1025598" lon="-4.0189281">
      </trkpt>
      <trkpt lat="31.112262636990895" lon="-4.026864256134559">
        <ele>706</ele>
      </trkpt>
      <trkpt lat="31.1131861" lon="-4.0281717">
      </trkpt>
      <trkpt lat="31.29405531442124" lon="-4.245046954637026">
        <ele>760</ele>
      </trkpt>
      <trkpt lat="31.2824068" lon="-4.270148">
      </trkpt>
      <trkpt lat="31.2996215" lon="-4.4058702">
      </trkpt>
      <trkpt lat="31.2990311" lon="-4.4002688">
        <ele>793</ele>
      </trkpt>
      <trkpt lat="31.298016940054485" lon="-4.40173476848449">
      </trkpt>
      <trkpt lat="31.29965416955349" lon="-4.405816403456237">
        <ele>774</ele>
      </trkpt>
      <trkpt lat="31.2996332" lon="-4.4059483">
      </trkpt>
      <trkpt lat="31.29962114136765" lon="-4.405943124823045">
      </trkpt>
      <trkpt lat="31.2995501" lon="-4.4059474">
        <ele>774</ele>
      </trkpt>
      <trkpt lat="31.29958334455098" lon="-4.4060017225188215">
      </trkpt>
      <trkpt lat="31.2981914" lon="-4.4030984">
      </trkpt>
      <trkpt lat="31.34330633163762" lon="-4.408139285718129">
        <ele>777</ele>
      </trkpt>
      <trkpt lat="31.4961283" lon="-4.476097">
        <ele>842</ele>
      </trkpt>
      <trkpt lat="31.52923552068494" lon="-4.486118712993952">
        <ele>848</ele>
      </trkpt>
      <trkpt lat="31.5451021" lon="-4.853304">
        <ele>934</ele>
      </trkpt>
      <trkpt lat="31.548469280899536" lon="-4.88485068965129">
        <ele>950</ele>
      </trkpt>
      <trkpt lat="31.5098332" lon="-5.0299743">
      </trkpt>
      <trkpt lat="31.498715162790866" lon="-5.074636253500318">
      </trkpt>
      <trkpt lat="31.4942466" lon="-5.0985265">
        <ele>1018</ele>
      </trkpt>
      <trkpt lat="31.44850203916377" lon="-5.289404000491152">
      </trkpt>
      <trkpt lat="31.553168678978206" lon="-5.584975110131084">
        <ele>1358</ele>
      </trkpt>
      <trkpt lat="31.5529312" lon="-5.5849635">
      </trkpt>
      <trkpt lat="31.5529541" lon="-5.5849762">
        <ele>1358</ele>
      </trkpt>
      <trkpt lat="31.5833434" lon="-5.5916247">
      </trkpt>
      <trkpt lat="31.5889665" lon="-5.5947165">
        <ele>1500</ele>
      </trkpt>
      <trkpt lat="31.71193500415626" lon="-5.803806726665123">
      </trkpt>
      <trkpt lat="31.5578026" lon="-5.9094827">
        <ele>1713</ele>
      </trkpt>
      <trkpt lat="31.5297626" lon="-5.9254172">
      </trkpt>
      <trkpt lat="31.5297768" lon="-5.9254094">
        <ele>1769</ele>
      </trkpt>
      <trkpt lat="31.52754324056063" lon="-5.925214520617611">
      </trkpt>
      <trkpt lat="31.5032728" lon="-5.9464653">
      </trkpt>
      <trkpt lat="31.4634461" lon="-5.972357">
        <ele>1629</ele>
      </trkpt>
      <trkpt lat="31.4390418" lon="-5.9930222">
      </trkpt>
      <trkpt lat="31.4221915" lon="-6.0112542">
        <ele>1592</ele>
      </trkpt>
      <trkpt lat="31.37513515960123" lon="-5.992793735440221">
      </trkpt>
      <trkpt lat="31.3676011" lon="-5.9819001">
        <ele>1582</ele>
      </trkpt>
      <trkpt lat="31.370439" lon="-5.8641636">
      </trkpt>
      <trkpt lat="31.38225871680514" lon="-5.803152541514279">
        <ele>1448</ele>
      </trkpt>
      <trkpt lat="31.3805704" lon="-5.7689945">
      </trkpt>
      <trkpt lat="31.4192466" lon="-5.6868469">
        <ele>1351</ele>
      </trkpt>
      <trkpt lat="31.44567696013943" lon="-5.660139595519483">
      </trkpt>
      <trkpt lat="31.4503445" lon="-5.6663918">
        <ele>1507</ele>
      </trkpt>
      <trkpt lat="31.4542489" lon="-5.6623685">
      </trkpt>
      <trkpt lat="31.4578013" lon="-5.658017">
      </trkpt>
      <trkpt lat="31.454297463096992" lon="-5.662339176954895">
        <ele>1528</ele>
      </trkpt>
      <trkpt lat="31.4541282" lon="-5.6623463">
      </trkpt>
      <trkpt lat="31.4904316" lon="-5.5497988">
        <ele>1270</ele>
      </trkpt>
      <trkpt lat="31.5252602" lon="-5.5301417">
      </trkpt>
      <trkpt lat="31.5156139" lon="-5.5020632">
        <ele>1274</ele>
      </trkpt>
      <trkpt lat="31.4987433" lon="-5.0792588">
      </trkpt>
      <trkpt lat="31.5443519" lon="-5.0104712">
        <ele>989</ele>
      </trkpt>
      <trkpt lat="31.6974395" lon="-4.9462918">
        <ele>1019</ele>
      </trkpt>
      <trkpt lat="31.7766439" lon="-4.7505544">
      </trkpt>
      <trkpt lat="31.8302057" lon="-4.6126651">
        <ele>1041</ele>
      </trkpt>
      <trkpt lat="31.801998432380877" lon="-4.596043692876695">
        <ele>1054</ele>
      </trkpt>
      <trkpt lat="31.755736884132585" lon="-4.579761848055284">
        <ele>966</ele>
      </trkpt>
      <trkpt lat="31.717095613903094" lon="-4.587000824468821">
      </trkpt>
      <trkpt lat="31.6898763" lon="-4.5791287">
      </trkpt>
      <trkpt lat="31.652315384442243" lon="-4.563698646739332">
        <ele>902</ele>
      </trkpt>
      <trkpt lat="31.6150255" lon="-4.5266135">
        <ele>888</ele>
      </trkpt>
      <trkpt lat="31.5938443" lon="-4.4965859">
      </trkpt>
      <trkpt lat="31.5938246" lon="-4.4965276">
      </trkpt>
      <trkpt lat="31.593814006362695" lon="-4.496577723644593">
        <ele>869</ele>
      </trkpt>
      <trkpt lat="31.5938046" lon="-4.4964573">
      </trkpt>
      <trkpt lat="31.59364679209119" lon="-4.496424932563692">
        <ele>868</ele>
      </trkpt>
      <trkpt lat="31.5937226" lon="-4.4964168">
      </trkpt>
      <trkpt lat="31.5936841" lon="-4.496403">
      </trkpt>
      <trkpt lat="31.5815994" lon="-4.4777717">
        <ele>855</ele>
      </trkpt>
      <trkpt lat="31.5919204" lon="-4.5347525">
      </trkpt>
      <trkpt lat="31.59106670300414" lon="-4.527702745366409">
        <ele>869</ele>
      </trkpt>
      <trkpt lat="31.538296743974186" lon="-4.261363307543785">
      </trkpt>
      <trkpt lat="31.4877618" lon="-4.2184689">
        <ele>813</ele>
      </trkpt>
      <trkpt lat="31.4877611" lon="-4.218481">
      </trkpt>
      <trkpt lat="31.5140319" lon="-4.2120911">
        <ele>835</ele>
      </trkpt>
      <trkpt lat="31.4877568" lon="-4.2184749">
      </trkpt>
      <trkpt lat="31.590697441775145" lon="-4.201083447780931">
      </trkpt>
      <trkpt lat="31.6133814" lon="-4.2066637">
        <ele>873</ele>
      </trkpt>
      <trkpt lat="31.6913798" lon="-4.1818438">
      </trkpt>
      <trkpt lat="31.9374366" lon="-4.4055104">
      </trkpt>
      <trkpt lat="31.9249162" lon="-4.4492444">
        <ele>1037</ele>
      </trkpt>
      <trkpt lat="31.962684067919668" lon="-4.483874198998822">
      </trkpt>
      <trkpt lat="32.08476848846429" lon="-4.380863553511465">
        <ele>1200</ele>
      </trkpt>
      <trkpt lat="32.1751143" lon="-4.364894">
      </trkpt>
      <trkpt lat="32.17618796678881" lon="-4.363271595893019">
      </trkpt>
      <trkpt lat="32.1821332" lon="-4.3631782">
        <ele>1227</ele>
      </trkpt>
      <trkpt lat="32.2611567" lon="-4.39573">
      </trkpt>
      <trkpt lat="32.2722808" lon="-4.4713253">
        <ele>1322</ele>
      </trkpt>
      <trkpt lat="32.27414987362929" lon="-4.480417467947101">
      </trkpt>
      <trkpt lat="32.3139261" lon="-4.5458242">
      </trkpt>
      <trkpt lat="32.37250330157035" lon="-4.63767473302447">
        <ele>1514</ele>
      </trkpt>
      <trkpt lat="32.3724148" lon="-4.6376283">
      </trkpt>
      <trkpt lat="32.5928668" lon="-4.5078265">
      </trkpt>
      <trkpt lat="32.6780869" lon="-4.7402274">
        <ele>1482</ele>
      </trkpt>
      <trkpt lat="32.7070129" lon="-4.7887247">
        <ele>1429</ele>
      </trkpt>
      <trkpt lat="32.8118693" lon="-4.9553954">
        <ele>1463</ele>
      </trkpt>
      <trkpt lat="32.8197316" lon="-4.9596084">
      </trkpt>
      <trkpt lat="32.87915101452206" lon="-4.949151024478441">
        <ele>1467</ele>
      </trkpt>
      <trkpt lat="32.99496" lon="-5.0720688">
      </trkpt>
      <trkpt lat="33.002909617565344" lon="-5.073255407940832">
        <ele>2168</ele>
      </trkpt>
      <trkpt lat="33.11533111271918" lon="-5.02957925502655">
        <ele>1980</ele>
      </trkpt>
      <trkpt lat="33.23944760698879" lon="-5.065588868832767">
      </trkpt>
      <trkpt lat="33.4262856" lon="-5.1777788">
      </trkpt>
      <trkpt lat="33.4277369" lon="-5.174863">
        <ele>1679</ele>
      </trkpt>
      <trkpt lat="33.42762369208807" lon="-5.190973259875005">
      </trkpt>
      <trkpt lat="33.425689808175754" lon="-5.194371569657847">
        <ele>1489</ele>
      </trkpt>
      <trkpt lat="33.4464095" lon="-5.181035">
        <ele>1467</ele>
      </trkpt>
      <trkpt lat="33.4701737" lon="-5.1437944">
        <ele>1624</ele>
      </trkpt>
      <trkpt lat="33.482023194863054" lon="-5.129251180063652">
      </trkpt>
      <trkpt lat="33.4784154" lon="-5.1352258">
        <ele>1647</ele>
      </trkpt>
      <trkpt lat="33.48218146197339" lon="-5.12935639375561">
      </trkpt>
      <trkpt lat="33.4820886" lon="-5.1292482">
      </trkpt>
      <trkpt lat="33.4819551" lon="-5.1292584">
        <ele>1667</ele>
      </trkpt>
      <trkpt lat="33.4784154" lon="-5.1352258">
      </trkpt>
      <trkpt lat="33.48204803798308" lon="-5.129220699602972">
      </trkpt>
      <trkpt lat="33.48213" lon="-5.1292432">
        <ele>1667</ele>
      </trkpt>
      <trkpt lat="33.4820562" lon="-5.1292781">
      </trkpt>
      <trkpt lat="33.4820987" lon="-5.1291719">
        <ele>1667</ele>
      </trkpt>
      <trkpt lat="33.4784154" lon="-5.1352258">
      </trkpt>
      <trkpt lat="33.4784154" lon="-5.1352258">
      </trkpt>
      <trkpt lat="33.4784154" lon="-5.1352258">
        <ele>1647</ele>
      </trkpt>
      <trkpt lat="33.48208158748495" lon="-5.129277400329746">
      </trkpt>
      <trkpt lat="33.4821137" lon="-5.1292268">
      </trkpt>
      <trkpt lat="33.64504526235349" lon="-5.0687210107353255">
        <ele>1475</ele>
      </trkpt>
      <trkpt lat="33.7293696" lon="-5.0106488">
      </trkpt>
      <trkpt lat="33.8647608" lon="-4.9850047">
        <ele>685</ele>
      </trkpt>
      <trkpt lat="33.9202057" lon="-5.0378919">
      </trkpt>
      <trkpt lat="33.9622396" lon="-5.0299494">
      </trkpt>
      <trkpt lat="33.964269987193" lon="-5.031691559469505">
        <ele>493</ele>
      </trkpt>
      <trkpt lat="33.9874374" lon="-5.0199286">
      </trkpt>
      <trkpt lat="33.98652442521366" lon="-5.018536057757667">
      </trkpt>
      <trkpt lat="33.9874374" lon="-5.0199286">
        <ele>465</ele>
      </trkpt>
      <trkpt lat="33.9865657" lon="-5.0186058">
        <ele>455</ele>
      </trkpt>
      <trkpt lat="33.9874277" lon="-5.0199153">
      </trkpt>
      <trkpt lat="33.986518264367945" lon="-5.018428655571052">
        <ele>455</ele>
      </trkpt>
      <trkpt lat="33.9873191" lon="-5.0197644">
      </trkpt>
      <trkpt lat="33.987439" lon="-5.019927">
      </trkpt>
      <trkpt lat="34.05295954362269" lon="-4.993678621117547">
        <ele>384</ele>
      </trkpt>
      <trkpt lat="33.73099" lon="-5.0094794">
      </trkpt>
      <trkpt lat="34.066098" lon="-4.9732365">
      </trkpt>
      <trkpt lat="34.0689676" lon="-4.9742179">
        <ele>317</ele>
      </trkpt>
      <trkpt lat="34.0708415" lon="-4.9691459">
      </trkpt>
      <trkpt lat="34.0394375" lon="-5.0088169">
        <ele>399</ele>
      </trkpt>
      <trkpt lat="34.0279612" lon="-5.010952">
      </trkpt>
      <trkpt lat="33.9944546" lon="-5.0145461">
        <ele>446</ele>
      </trkpt>
      <trkpt lat="33.9872411" lon="-5.0205515">
      </trkpt>
      <trkpt lat="33.98638422736882" lon="-5.018446504622286">
        <ele>455</ele>
      </trkpt>
      <trkpt lat="33.9874856" lon="-5.0196607">
      </trkpt>
      <trkpt lat="33.9876622" lon="-5.0201014">
      </trkpt>
      <trkpt lat="33.9874315" lon="-5.0199162">
        <ele>465</ele>
      </trkpt>
      <trkpt lat="33.9874374" lon="-5.0199286">
      </trkpt>
      <trkpt lat="33.986604368599544" lon="-5.018383646209052">
      </trkpt>
      <trkpt lat="33.9871894" lon="-5.0207832">
        <ele>465</ele>
      </trkpt>
      <trkpt lat="33.98640929098176" lon="-5.018798131855629">
        <ele>465</ele>
      </trkpt>
      <trkpt lat="33.98727464250649" lon="-5.020469860380255">
      </trkpt>
      <trkpt lat="33.9867789162694" lon="-5.018703816194574">
      </trkpt>
      <trkpt lat="33.991442" lon="-5.0154273">
        <ele>455</ele>
      </trkpt>
      <trkpt lat="33.9900984" lon="-5.0163616">
        <ele>455</ele>
      </trkpt>
      <trkpt lat="33.9875521" lon="-5.0194332">
        <ele>460</ele>
      </trkpt>
      <trkpt lat="33.9861938" lon="-5.0192471">
      </trkpt>
      <trkpt lat="33.9874276" lon="-5.01992">
        <ele>465</ele>
      </trkpt>
      <trkpt lat="33.986542134168175" lon="-5.018488252624072">
      </trkpt>
      <trkpt lat="33.9874337" lon="-5.0199275">
        <ele>465</ele>
      </trkpt>
      <trkpt lat="33.9864756" lon="-5.0185898">
      </trkpt>
      <trkpt lat="33.9874261" lon="-5.0199155">
        <ele>465</ele>
      </trkpt>
      <trkpt lat="33.9866312211387" lon="-5.018574857117361">
      </trkpt>
      <trkpt lat="33.9865635" lon="-5.0184643">
        <ele>455</ele>
      </trkpt>
      <trkpt lat="33.987462" lon="-5.0198167">
      </trkpt>
      <trkpt lat="33.92177813530881" lon="-5.177019727153868">
      </trkpt>
      <trkpt lat="33.853553490325645" lon="-5.351497439716152">
        <ele>646</ele>
      </trkpt>
      <trkpt lat="33.8334043349376" lon="-5.515199549737233">
      </trkpt>
      <trkpt lat="33.8779368" lon="-5.5334725">
        <ele>535</ele>
      </trkpt>
      <trkpt lat="34.01215832795562" lon="-5.562271026082946">
      </trkpt>
      <trkpt lat="34.0583062" lon="-5.5324839">
      </trkpt>
      <trkpt lat="34.0709888" lon="-5.5526389">
        <ele>372</ele>
      </trkpt>
      <trkpt lat="34.0752315" lon="-5.5542089">
      </trkpt>
      <trkpt lat="34.07286737630131" lon="-5.55471248092069">
        <ele>373</ele>
      </trkpt>
      <trkpt lat="34.0711727" lon="-5.5530038">
      </trkpt>
      <trkpt lat="33.95824377709975" lon="-5.575303225187981">
        <ele>278</ele>
      </trkpt>
      <trkpt lat="33.848385223539964" lon="-5.618915409354957">
      </trkpt>
      <trkpt lat="33.85535638002539" lon="-6.237533437990509">
        <ele>409</ele>
      </trkpt>
      <trkpt lat="33.85538020855174" lon="-6.237516838268959">
      </trkpt>
      <trkpt lat="33.8552238" lon="-6.2373651">
      </trkpt>
      <trkpt lat="33.8552249" lon="-6.2373598">
        <ele>412</ele>
      </trkpt>
      <trkpt lat="33.8552238" lon="-6.2373651">
      </trkpt>
      <trkpt lat="33.8552239" lon="-6.2373595">
        <ele>412</ele>
      </trkpt>
      <trkpt lat="34.3088085" lon="-6.5088081">
        <ele>21</ele>
      </trkpt>
      <trkpt lat="34.363262926501136" lon="-6.517885367504135">
      </trkpt>
      <trkpt lat="34.51716702821771" lon="-6.472273367652511">
      </trkpt>
      <trkpt lat="34.716950901575935" lon="-6.371822188168618">
        <ele>28</ele>
      </trkpt>
      <trkpt lat="34.9875653" lon="-6.1990713">
      </trkpt>
      <trkpt lat="35.01638629141862" lon="-6.1880145242516935">
        <ele>52</ele>
      </trkpt>
      <trkpt lat="35.1163181" lon="-6.1421823">
        <ele>32</ele>
      </trkpt>
      <trkpt lat="35.24807050767567" lon="-6.071433751749106">
      </trkpt>
      <trkpt lat="35.57921969601761" lon="-5.958025832022222">
      </trkpt>
      <trkpt lat="35.6883853" lon="-5.9169065">
        <ele>15</ele>
      </trkpt>
      <trkpt lat="35.76018656861841" lon="-5.820300781885945">
      </trkpt>
      <trkpt lat="35.7920037" lon="-5.8204089">
      </trkpt>
      <trkpt lat="35.7890449" lon="-5.8051054">
      </trkpt>
      <trkpt lat="35.785204030256615" lon="-5.808421337557039">
        <ele>31</ele>
      </trkpt>
      <trkpt lat="35.7830068" lon="-5.8105082">
      </trkpt>
      <trkpt lat="35.7799566" lon="-5.8203056">
        <ele>77</ele>
      </trkpt>
      <trkpt lat="35.725624938058935" lon="-5.892204072789806">
      </trkpt>
      <trkpt lat="35.529068" lon="-5.9983824">
      </trkpt>
      <trkpt lat="35.691275341682775" lon="-5.916546960956225">
        <ele>19</ele>
      </trkpt>
      <trkpt lat="35.733282" lon="-5.8695773">
        <ele>43</ele>
      </trkpt>
      <trkpt lat="35.742126" lon="-5.8456646">
      </trkpt>
      <trkpt lat="35.7450322" lon="-5.8451405">
        <ele>59</ele>
      </trkpt>
      <trkpt lat="35.7386677" lon="-5.852519">
      </trkpt>
      <trkpt lat="35.735122543824055" lon="-5.860419505489667">
        <ele>58</ele>
      </trkpt>
      <trkpt lat="35.88193442563959" lon="-5.513890387146407">
      </trkpt>
      <trkpt lat="36.121492184543534" lon="-4.103930108118922">
      </trkpt>
      <trkpt lat="36.1214545" lon="-4.104066">
      </trkpt>
      <trkpt lat="36.2118039" lon="-3.4216346">
      </trkpt>
      <trkpt lat="36.2173446" lon="-3.3405857">
      </trkpt>
      <trkpt lat="36.2231262" lon="-3.2872004">
      </trkpt>
      <trkpt lat="36.2324168" lon="-3.2096968">
      </trkpt>
      <trkpt lat="36.2394008" lon="-3.1373652">
      </trkpt>
      <trkpt lat="36.24253" lon="-3.1079234">
      </trkpt>
      <trkpt lat="36.289668" lon="-2.7228016">
      </trkpt>
      <trkpt lat="36.2971168" lon="-2.6799903">
      </trkpt>
      <trkpt lat="36.3018997" lon="-2.6487864">
      </trkpt>
      <trkpt lat="36.4151566" lon="-2.1174563">
      </trkpt>
      <trkpt lat="36.4540162" lon="-2.0636413">
      </trkpt>
      <trkpt lat="36.5293431" lon="-1.9660672">
      </trkpt>
      <trkpt lat="36.5644517" lon="-1.9200423">
      </trkpt>
      <trkpt lat="36.6994568" lon="-1.7335663">
      </trkpt>
      <trkpt lat="36.7437719" lon="-1.6692841">
      </trkpt>
      <trkpt lat="40.7853257" lon="2.3120552">
      </trkpt>
      <trkpt lat="40.8036337" lon="2.335617">
      </trkpt>
      <trkpt lat="40.850581" lon="2.3943715">
      </trkpt>
      <trkpt lat="40.85683111408081" lon="2.402673147759522">
      </trkpt>
      <trkpt lat="41.42401150696263" lon="3.3899134418296377">
      </trkpt>
      <trkpt lat="41.44885498975185" lon="3.435758200904127">
      </trkpt>
      <trkpt lat="41.60600824431911" lon="3.7349065834514223">
      </trkpt>
      <trkpt lat="41.8287702" lon="4.1928655">
      </trkpt>
      <trkpt lat="41.83247640066218" lon="4.200797493576802">
      </trkpt>
      <trkpt lat="43.4732914" lon="7.4837376">
      </trkpt>
      <trkpt lat="43.47945511098537" lon="7.495925746321395">
      </trkpt>
      <trkpt lat="43.4794551" lon="7.4959257">
      </trkpt>
      <trkpt lat="43.6498743" lon="7.7973173">
      </trkpt>
      <trkpt lat="43.65153221526917" lon="7.800680577933251">
      </trkpt>
      <trkpt lat="43.6523745" lon="7.8029947">
      </trkpt>
      <trkpt lat="43.8318109" lon="8.127938">
      </trkpt>
      <trkpt lat="44.05852502948326" lon="8.52359570970787">
      </trkpt>
      <trkpt lat="44.0628565" lon="8.531274">
      </trkpt>
      <trkpt lat="44.094563" lon="8.5874735">
      </trkpt>
      <trkpt lat="44.41703095763707" lon="8.902775159728778">
        <ele>70</ele>
      </trkpt>
      <trkpt lat="44.4925775" lon="8.9188427">
      </trkpt>
      <trkpt lat="44.6105954" lon="8.9554139">
      </trkpt>
      <trkpt lat="44.9077202" lon="8.8429411">
        <ele>106</ele>
      </trkpt>
      <trkpt lat="45.01653319822989" lon="8.925586428423818">
      </trkpt>
      <trkpt lat="45.1221248" lon="8.9775233">
        <ele>71</ele>
      </trkpt>
      <trkpt lat="45.2318032" lon="9.0303654">
      </trkpt>
      <trkpt lat="45.24386243779181" lon="9.040890169519672">
        <ele>89</ele>
      </trkpt>
      <trkpt lat="45.3072201" lon="9.0739656">
      </trkpt>
      <trkpt lat="45.30921181685791" lon="9.075365214360211">
        <ele>94</ele>
      </trkpt>
      <trkpt lat="45.3346272" lon="9.0946406">
      </trkpt>
      <trkpt lat="45.3988796" lon="9.1292108">
      </trkpt>
      <trkpt lat="45.46457222002469" lon="9.076332441634086">
        <ele>129</ele>
      </trkpt>
      <trkpt lat="45.475283" lon="9.0787663">
      </trkpt>
      <trkpt lat="45.548421" lon="9.0621933">
        <ele>162</ele>
      </trkpt>
      <trkpt lat="45.64679677810763" lon="9.014808314878922">
      </trkpt>
      <trkpt lat="45.7293601" lon="9.0291702">
        <ele>319</ele>
      </trkpt>
      <trkpt lat="45.7330965" lon="9.03002">
      </trkpt>
      <trkpt lat="45.8387681" lon="9.0339956">
        <ele>235</ele>
      </trkpt>
      <trkpt lat="45.9370909" lon="8.9719231">
      </trkpt>
      <trkpt lat="45.93821744604939" lon="8.970398896973013">
        <ele>310</ele>
      </trkpt>
      <trkpt lat="46.054854110890915" lon="8.927844730123082">
        <ele>335</ele>
      </trkpt>
      <trkpt lat="46.18462179635732" lon="9.003796032884074">
      </trkpt>
      <trkpt lat="46.2357566" lon="9.0905601">
        <ele>262</ele>
      </trkpt>
      <trkpt lat="46.266806327722776" lon="9.168757625068327">
      </trkpt>
      <trkpt lat="46.526240165557894" lon="9.188048407016868">
        <ele>1609</ele>
      </trkpt>
      <trkpt lat="46.52609299745191" lon="9.187905037223382">
      </trkpt>
      <trkpt lat="46.5261314" lon="9.1880295">
      </trkpt>
      <trkpt lat="46.5928012" lon="9.4271092">
        <ele>1054</ele>
      </trkpt>
      <trkpt lat="46.6994406" lon="9.4398865">
        <ele>697</ele>
      </trkpt>
      <trkpt lat="46.7119866" lon="9.4454674">
      </trkpt>
      <trkpt lat="47.0109845" lon="9.5123923">
        <ele>507</ele>
      </trkpt>
      <trkpt lat="47.013658" lon="9.5093971">
      </trkpt>
      <trkpt lat="47.0658604" lon="9.3923319">
        <ele>469</ele>
      </trkpt>
      <trkpt lat="47.06666479471564" lon="9.390607894538567">
        <ele>473</ele>
      </trkpt>
      <trkpt lat="47.1286195288211" lon="9.088518708627845">
        <ele>425</ele>
      </trkpt>
      <trkpt lat="47.1378789" lon="9.0506641">
        <ele>422</ele>
      </trkpt>
      <trkpt lat="47.1758623367222" lon="9.001555412366642">
        <ele>411</ele>
      </trkpt>
      <trkpt lat="47.3007522" lon="8.8307771">
        <ele>560</ele>
      </trkpt>
      <trkpt lat="47.3207223" lon="8.8253429">
      </trkpt>
      <trkpt lat="47.4982127" lon="8.7177855">
        <ele>450</ele>
      </trkpt>
      <trkpt lat="47.4954031" lon="8.7536564">
      </trkpt>
      <trkpt lat="47.4946632" lon="8.7490269">
        <ele>448</ele>
      </trkpt>
      <trkpt lat="47.4944576684768" lon="8.753221953873146">
      </trkpt>
      <trkpt lat="47.5072764" lon="8.758672">
      </trkpt>
      <trkpt lat="47.5392471" lon="8.7911445">
        <ele>463</ele>
      </trkpt>
      <trkpt lat="47.4848259" lon="8.710204">
      </trkpt>
      <trkpt lat="47.5388622" lon="8.7911704">
        <ele>463</ele>
      </trkpt>
      <trkpt lat="47.5341119" lon="8.7816751">
      </trkpt>
      <trkpt lat="47.5084033" lon="8.7582429">
      </trkpt>
      <trkpt lat="47.5227543" lon="8.7730318">
        <ele>461</ele>
      </trkpt>
      <trkpt lat="47.5388359" lon="8.7909258">
      </trkpt>
      <trkpt lat="47.5558243" lon="8.7704106">
        <ele>434</ele>
      </trkpt>
      <trkpt lat="47.5410717" lon="8.788146">
      </trkpt>
      <trkpt lat="47.5392141" lon="8.7911869">
        <ele>463</ele>
      </trkpt>
    </trkseg>
  </trk>
</gpx>